{"type":"FeatureCollection","features":[{"type":"Feature","geometry":{"type":"Point","coordinates":[-0.6147669,54.4886828]},"properties":{"name":"Marine Discovery Centre","layer":"aquariums","note":"OpenStreetMap","osm_id":"node/11491965556","osm_url":"https://www.openstreetmap.org/node/11491965556","source":"OpenStreetMap"}},{"type":"Feature","geometry":{"type":"Point","coordinates":[-0.0929158,53.5727674]},"properties":{"name":"Elite Koi","layer":"aquariums","note":"OpenStreetMap","osm_id":"node/11946084549","osm_url":"https://www.openstreetmap.org/node/11946084549","source":"OpenStreetMap"}},{"type":"Feature","geometry":{"type":"Point","coordinates":[-0.0210421,53.5054393]},"properties":{"name":"Dock Koi","layer":"aquariums","note":"OpenStreetMap","osm_id":"node/12052849964","osm_url":"https://www.openstreetmap.org/node/12052849964","source":"OpenStreetMap"}},{"type":"Feature","geometry":{"type":"Point","coordinates":[-10.080577,53.9838507]},"properties":{"name":"Achill Experience","layer":"aquariums","note":"OpenStreetMap","osm_id":"node/13069275903","osm_url":"https://www.openstreetmap.org/node/13069275903","source":"OpenStreetMap"}},{"type":"Feature","geometry":{"type":"Point","coordinates":[-0.190739,50.8338554]},"properties":{"name":"Paraquatics","layer":"aquariums","note":"OpenStreetMap","osm_id":"node/13831971636","osm_url":"https://www.openstreetmap.org/node/13831971636","source":"OpenStreetMap"}},{"type":"Feature","geometry":{"type":"Point","coordinates":[-5.5490901,54.3817134]},"properties":{"name":"Exploris Aquarium","layer":"aquariums","note":"OpenStreetMap","osm_id":"node/2609299820","osm_url":"https://www.openstreetmap.org/node/2609299820","source":"OpenStreetMap"}},{"type":"Feature","geometry":{"type":"Point","coordinates":[-0.1185929,51.5028354]},"properties":{"name":"London Aquarium","layer":"aquariums","note":"Sea Life","osm_id":"node/266843474","osm_url":"https://www.openstreetmap.org/node/266843474","source":"OpenStreetMap","brand":"Sea Life"}},{"type":"Feature","geometry":{"type":"Point","coordinates":[-2.4314621,53.5773778]},"properties":{"name":"Bolton Aquarium","layer":"aquariums","note":"OpenStreetMap","osm_id":"node/6869586282","osm_url":"https://www.openstreetmap.org/node/6869586282","source":"OpenStreetMap"}},{"type":"Feature","geometry":{"type":"Point","coordinates":[-4.9644161,54.7305571]},"properties":{"name":"Logan Fish Pond","layer":"aquariums","note":"OpenStreetMap","osm_id":"node/712164542","osm_url":"https://www.openstreetmap.org/node/712164542","source":"OpenStreetMap"}},{"type":"Feature","geometry":{"type":"Point","coordinates":[-4.6346099,50.3350937]},"properties":{"name":"Fowey Aquarium","layer":"aquariums","note":"OpenStreetMap","osm_id":"node/8387708850","osm_url":"https://www.openstreetmap.org/node/8387708850","source":"OpenStreetMap"}},{"type":"Feature","geometry":{"type":"Point","coordinates":[-0.1359727,50.8195967]},"properties":{"name":"Sea Life Centre","layer":"aquariums","note":"OpenStreetMap","osm_id":"node/90634730","osm_url":"https://www.openstreetmap.org/node/90634730","source":"OpenStreetMap"}},{"type":"Feature","geometry":{"type":"Point","coordinates":[-1.5624419,53.1214672]},"properties":{"name":"Matlock Bath Aquarium","layer":"aquariums","note":"OpenStreetMap","osm_id":"node/940046251","osm_url":"https://www.openstreetmap.org/node/940046251","source":"OpenStreetMap"}},{"type":"Feature","geometry":{"type":"Point","coordinates":[-0.1194656,51.5016258]},"properties":{"name":"SEA LIFE Aquarium London","layer":"aquariums","note":"SEA LIFE Aquarium","osm_id":"node/9777763616","osm_url":"https://www.openstreetmap.org/node/9777763616","source":"OpenStreetMap","brand":"SEA LIFE Aquarium"}},{"type":"Feature","geometry":{"type":"Point","coordinates":[-4.5910984,56.0058435]},"properties":{"name":"Loch Lomond Sea Life Centre","layer":"aquariums","note":"OpenStreetMap","osm_id":"relation/13232826","osm_url":"https://www.openstreetmap.org/relation/13232826","source":"OpenStreetMap"}},{"type":"Feature","geometry":{"type":"Point","coordinates":[-2.4916993,57.6719854]},"properties":{"name":"Macduff Marine Aquarium","layer":"aquariums","note":"Aberdeenshire Council","osm_id":"way/100787895","osm_url":"https://www.openstreetmap.org/way/100787895","source":"OpenStreetMap","brand":"Aberdeenshire Council"}},{"type":"Feature","geometry":{"type":"Point","coordinates":[-0.4099029,54.3012203]},"properties":{"name":"Scarborough Sea Life Centre","layer":"aquariums","note":"OpenStreetMap","osm_id":"way/101836220","osm_url":"https://www.openstreetmap.org/way/101836220","source":"OpenStreetMap"}},{"type":"Feature","geometry":{"type":"Point","coordinates":[-2.3410046,53.4677934]},"properties":{"name":"Sea Life Manchester","layer":"aquariums","note":"OpenStreetMap","osm_id":"way/1052332562","osm_url":"https://www.openstreetmap.org/way/1052332562","source":"OpenStreetMap"}},{"type":"Feature","geometry":{"type":"Point","coordinates":[-4.1131918,51.2108255]},"properties":{"name":"Ilfracombe Aquarium","layer":"aquariums","note":"OpenStreetMap","osm_id":"way/1091868529","osm_url":"https://www.openstreetmap.org/way/1091868529","source":"OpenStreetMap"}},{"type":"Feature","geometry":{"type":"Point","coordinates":[0.7264506,51.5315858]},"properties":{"name":"Sea Life Adventure Aquarium","layer":"aquariums","note":"OpenStreetMap","osm_id":"way/117690305","osm_url":"https://www.openstreetmap.org/way/117690305","source":"OpenStreetMap"}},{"type":"Feature","geometry":{"type":"Point","coordinates":[-5.0838218,50.4147959]},"properties":{"name":"Blue Reef Aquarium","layer":"aquariums","note":"OpenStreetMap","osm_id":"way/118556084","osm_url":"https://www.openstreetmap.org/way/118556084","source":"OpenStreetMap"}},{"type":"Feature","geometry":{"type":"Point","coordinates":[-10.2783335,52.1399215]},"properties":{"name":"Oceanworld Aquarium","layer":"aquariums","note":"OpenStreetMap","osm_id":"way/126810063","osm_url":"https://www.openstreetmap.org/way/126810063","source":"OpenStreetMap"}},{"type":"Feature","geometry":{"type":"Point","coordinates":[-9.0740868,53.2600512]},"properties":{"name":"Galway Atlantaquaria","layer":"aquariums","note":"OpenStreetMap","osm_id":"way/141749934","osm_url":"https://www.openstreetmap.org/way/141749934","source":"OpenStreetMap"}},{"type":"Feature","geometry":{"type":"Point","coordinates":[-3.0549079,53.8128806]},"properties":{"name":"SEA LIFE Blackpool","layer":"aquariums","note":"OpenStreetMap","osm_id":"way/146615125","osm_url":"https://www.openstreetmap.org/way/146615125","source":"OpenStreetMap"}},{"type":"Feature","geometry":{"type":"Point","coordinates":[0.3447517,53.1410547]},"properties":{"name":"Skegness Aquarium","layer":"aquariums","note":"Teen Spirit","osm_id":"way/147660615","osm_url":"https://www.openstreetmap.org/way/147660615","source":"OpenStreetMap","brand":"Teen Spirit"}},{"type":"Feature","geometry":{"type":"Point","coordinates":[-0.3305242,53.7387152]},"properties":{"name":"The Deep","layer":"aquariums","note":"OpenStreetMap","osm_id":"way/15422279","osm_url":"https://www.openstreetmap.org/way/15422279","source":"OpenStreetMap"}},{"type":"Feature","geometry":{"type":"Point","coordinates":[-2.5991303,51.4508757]},"properties":{"name":"Bristol Aquarium","layer":"aquariums","note":"OpenStreetMap","osm_id":"way/15444893","osm_url":"https://www.openstreetmap.org/way/15444893","source":"OpenStreetMap"}},{"type":"Feature","geometry":{"type":"Point","coordinates":[-4.2791517,53.163764]},"properties":{"name":"Aquarium","layer":"aquariums","note":"OpenStreetMap","osm_id":"way/154863760","osm_url":"https://www.openstreetmap.org/way/154863760","source":"OpenStreetMap"}},{"type":"Feature","geometry":{"type":"Point","coordinates":[-2.1449719,51.1785947]},"properties":{"name":"Aquarium","layer":"aquariums","note":"OpenStreetMap","osm_id":"way/1549283462","osm_url":"https://www.openstreetmap.org/way/1549283462","source":"OpenStreetMap"}},{"type":"Feature","geometry":{"type":"Point","coordinates":[1.7366298,52.6003159]},"properties":{"name":"The Sealife Centre","layer":"aquariums","note":"OpenStreetMap","osm_id":"way/175662016","osm_url":"https://www.openstreetmap.org/way/175662016","source":"OpenStreetMap"}},{"type":"Feature","geometry":{"type":"Point","coordinates":[0.4833205,52.9349637]},"properties":{"name":"Sea Life Centre","layer":"aquariums","note":"Merlin Entertainments (SEA LIFE) Limited","osm_id":"way/176721418","osm_url":"https://www.openstreetmap.org/way/176721418","source":"OpenStreetMap","brand":"Merlin Entertainments (SEA LIFE) Limited"}},{"type":"Feature","geometry":{"type":"Point","coordinates":[-0.8058976,54.2082673]},"properties":{"name":"Aquarium","layer":"aquariums","note":"OpenStreetMap","osm_id":"way/189083576","osm_url":"https://www.openstreetmap.org/way/189083576","source":"OpenStreetMap"}},{"type":"Feature","geometry":{"type":"Point","coordinates":[-1.9135267,52.4787968]},"properties":{"name":"National Sea Life Centre","layer":"aquariums","note":"Sea Life","osm_id":"way/22821096","osm_url":"https://www.openstreetmap.org/way/22821096","source":"OpenStreetMap","brand":"Sea Life"}},{"type":"Feature","geometry":{"type":"Point","coordinates":[-2.7996954,56.3436715]},"properties":{"name":"St Andrews Aquarium","layer":"aquariums","note":"OpenStreetMap","osm_id":"way/228938668","osm_url":"https://www.openstreetmap.org/way/228938668","source":"OpenStreetMap"}},{"type":"Feature","geometry":{"type":"Point","coordinates":[-2.8870172,53.2620719]},"properties":{"name":"Blue Planet Aquarium","layer":"aquariums","note":"OpenStreetMap","osm_id":"way/23008999","osm_url":"https://www.openstreetmap.org/way/23008999","source":"OpenStreetMap"}},{"type":"Feature","geometry":{"type":"Point","coordinates":[-2.9371983,50.7193756]},"properties":{"name":"Lyme Regis Marine Aquarium","layer":"aquariums","note":"OpenStreetMap","osm_id":"way/235414937","osm_url":"https://www.openstreetmap.org/way/235414937","source":"OpenStreetMap"}},{"type":"Feature","geometry":{"type":"Point","coordinates":[-3.502953,54.7150294]},"properties":{"name":"Lake District Coast Aquarium","layer":"aquariums","note":"OpenStreetMap","osm_id":"way/293869087","osm_url":"https://www.openstreetmap.org/way/293869087","source":"OpenStreetMap"}},{"type":"Feature","geometry":{"type":"Point","coordinates":[-2.9559061,54.2781629]},"properties":{"name":"Lakes Aquarium","layer":"aquariums","note":"OpenStreetMap","osm_id":"way/33643153","osm_url":"https://www.openstreetmap.org/way/33643153","source":"OpenStreetMap"}},{"type":"Feature","geometry":{"type":"Point","coordinates":[0.4833363,52.9348995]},"properties":{"name":"Hunstanton Sea Life Centre","layer":"aquariums","note":"OpenStreetMap","osm_id":"way/390388170","osm_url":"https://www.openstreetmap.org/way/390388170","source":"OpenStreetMap"}},{"type":"Feature","geometry":{"type":"Point","coordinates":[-2.8772107,53.2272224]},"properties":{"name":"Aquarium","layer":"aquariums","note":"OpenStreetMap","osm_id":"way/39476942","osm_url":"https://www.openstreetmap.org/way/39476942","source":"OpenStreetMap"}},{"type":"Feature","geometry":{"type":"Point","coordinates":[-0.3159038,51.3496203]},"properties":{"name":"Chessington Sea Life Centre","layer":"aquariums","note":"OpenStreetMap","osm_id":"way/421507310","osm_url":"https://www.openstreetmap.org/way/421507310","source":"OpenStreetMap"}},{"type":"Feature","geometry":{"type":"Point","coordinates":[-3.3911362,56.00835]},"properties":{"name":"Deep Sea World","layer":"aquariums","note":"OpenStreetMap","osm_id":"way/452873538","osm_url":"https://www.openstreetmap.org/way/452873538","source":"OpenStreetMap"}},{"type":"Feature","geometry":{"type":"Point","coordinates":[-4.2787945,53.1638103]},"properties":{"name":"Anglesey Sea Zoo","layer":"aquariums","note":"OpenStreetMap","osm_id":"way/478521931","osm_url":"https://www.openstreetmap.org/way/478521931","source":"OpenStreetMap"}},{"type":"Feature","geometry":{"type":"Point","coordinates":[-4.7854431,50.2687395]},"properties":{"name":"Mevagissey Marine Aquarium","layer":"aquariums","note":"OpenStreetMap","osm_id":"way/496761127","osm_url":"https://www.openstreetmap.org/way/496761127","source":"OpenStreetMap"}},{"type":"Feature","geometry":{"type":"Point","coordinates":[-0.647783,51.4654237]},"properties":{"name":"Deep Sea Adventure","layer":"aquariums","note":"OpenStreetMap","osm_id":"way/536749186","osm_url":"https://www.openstreetmap.org/way/536749186","source":"OpenStreetMap"}},{"type":"Feature","geometry":{"type":"Point","coordinates":[-4.1308286,50.3666915]},"properties":{"name":"National Marine Aquarium","layer":"aquariums","note":"OpenStreetMap","osm_id":"way/61344729","osm_url":"https://www.openstreetmap.org/way/61344729","source":"OpenStreetMap"}},{"type":"Feature","geometry":{"type":"Point","coordinates":[-1.0927855,50.7801308]},"properties":{"name":"Blue Reef Aquarium","layer":"aquariums","note":"OpenStreetMap","osm_id":"way/71465495","osm_url":"https://www.openstreetmap.org/way/71465495","source":"OpenStreetMap"}},{"type":"Feature","geometry":{"type":"Point","coordinates":[-1.4304023,55.0277273]},"properties":{"name":"Blue Reef Aquarium Tynemouth","layer":"aquariums","note":"Blue Reef Aquarium","osm_id":"way/76130939","osm_url":"https://www.openstreetmap.org/way/76130939","source":"OpenStreetMap","brand":"Blue Reef Aquarium"}},{"type":"Feature","geometry":{"type":"Point","coordinates":[0.5962147,50.8560006]},"properties":{"name":"Blue Reef Aquarium","layer":"aquariums","note":"The Blue Reef Leisure Company Limited","osm_id":"way/83151732","osm_url":"https://www.openstreetmap.org/way/83151732","source":"OpenStreetMap","brand":"The Blue Reef Leisure Company Limited"}},{"type":"Feature","geometry":{"type":"Point","coordinates":[-0.409847,54.3011743]},"properties":{"name":"SEA LIFE Scarborough","layer":"aquariums","note":"Sea Life","osm_id":"way/894235204","osm_url":"https://www.openstreetmap.org/way/894235204","source":"OpenStreetMap","brand":"Sea Life"}},{"type":"Feature","geometry":{"type":"Point","coordinates":[-1.8768071,50.7159194]},"properties":{"name":"Oceanarium","layer":"aquariums","note":"OpenStreetMap","osm_id":"way/93127306","osm_url":"https://www.openstreetmap.org/way/93127306","source":"OpenStreetMap"}},{"type":"Feature","geometry":{"type":"Point","coordinates":[-0.1342091,50.8195105]},"properties":{"name":"Brighton Aquarium","layer":"aquariums","note":"OpenStreetMap","osm_id":"way/97743233","osm_url":"https://www.openstreetmap.org/way/97743233","source":"OpenStreetMap"}},{"type":"Feature","geometry":{"type":"Point","coordinates":[-0.5419948,51.8482871]},"properties":{"name":"Aquarium","layer":"aquariums","note":"ZSL","osm_id":"way/986921164","osm_url":"https://www.openstreetmap.org/way/986921164","source":"OpenStreetMap","brand":"ZSL"}}]}
