{"type":"FeatureCollection","features":[{"type":"Feature","geometry":{"type":"Point","coordinates":[-2.051753,55.5590334]},"properties":{"name":"Homildon Hill","layer":"battlefields","note":"OpenStreetMap","osm_id":"node/1003602179","osm_url":"https://www.openstreetmap.org/node/1003602179","source":"OpenStreetMap"}},{"type":"Feature","geometry":{"type":"Point","coordinates":[-8.9682341,52.8283324]},"properties":{"name":"Battlefield","layer":"battlefields","note":"OpenStreetMap","osm_id":"node/10604940689","osm_url":"https://www.openstreetmap.org/node/10604940689","source":"OpenStreetMap"}},{"type":"Feature","geometry":{"type":"Point","coordinates":[-1.3408876,51.3821085]},"properties":{"name":"First Battle of Newbury","layer":"battlefields","note":"OpenStreetMap","osm_id":"node/11048008023","osm_url":"https://www.openstreetmap.org/node/11048008023","source":"OpenStreetMap"}},{"type":"Feature","geometry":{"type":"Point","coordinates":[-4.2059461,51.0415339]},"properties":{"name":"Bloody Corner","layer":"battlefields","note":"OpenStreetMap","osm_id":"node/1115333562","osm_url":"https://www.openstreetmap.org/node/1115333562","source":"OpenStreetMap"}},{"type":"Feature","geometry":{"type":"Point","coordinates":[-4.2050413,51.0457397]},"properties":{"name":"Battle of Northam","layer":"battlefields","note":"OpenStreetMap","osm_id":"node/11206994023","osm_url":"https://www.openstreetmap.org/node/11206994023","source":"OpenStreetMap"}},{"type":"Feature","geometry":{"type":"Point","coordinates":[-2.9521908,55.9597593]},"properties":{"name":"Battle of Prestonpans","layer":"battlefields","note":"OpenStreetMap","osm_id":"node/1122892681","osm_url":"https://www.openstreetmap.org/node/1122892681","source":"OpenStreetMap"}},{"type":"Feature","geometry":{"type":"Point","coordinates":[-8.9051529,52.8709625]},"properties":{"name":"Battlefield","layer":"battlefields","note":"OpenStreetMap","osm_id":"node/11770240545","osm_url":"https://www.openstreetmap.org/node/11770240545","source":"OpenStreetMap"}},{"type":"Feature","geometry":{"type":"Point","coordinates":[-3.5877867,56.5661229]},"properties":{"name":"Battle of Dunkeld","layer":"battlefields","note":"OpenStreetMap","osm_id":"node/11947754589","osm_url":"https://www.openstreetmap.org/node/11947754589","source":"OpenStreetMap"}},{"type":"Feature","geometry":{"type":"Point","coordinates":[-2.1496775,51.9836555]},"properties":{"name":"Battle of Tewkesbury","layer":"battlefields","note":"OpenStreetMap","osm_id":"node/12301786596","osm_url":"https://www.openstreetmap.org/node/12301786596","source":"OpenStreetMap"}},{"type":"Feature","geometry":{"type":"Point","coordinates":[0.7042845,51.7154966]},"properties":{"name":"The Battle of Maldon","layer":"battlefields","note":"OpenStreetMap","osm_id":"node/1237722828","osm_url":"https://www.openstreetmap.org/node/1237722828","source":"OpenStreetMap"}},{"type":"Feature","geometry":{"type":"Point","coordinates":[-1.6758016,53.757034]},"properties":{"name":"Battle of Adwalton Moor","layer":"battlefields","note":"OpenStreetMap","osm_id":"node/12495967416","osm_url":"https://www.openstreetmap.org/node/12495967416","source":"OpenStreetMap"}},{"type":"Feature","geometry":{"type":"Point","coordinates":[-1.2734862,53.712582]},"properties":{"name":"Battle of Ferrybrige","layer":"battlefields","note":"OpenStreetMap","osm_id":"node/12495970095","osm_url":"https://www.openstreetmap.org/node/12495970095","source":"OpenStreetMap"}},{"type":"Feature","geometry":{"type":"Point","coordinates":[-1.400247,53.8504071]},"properties":{"name":"Battle of Seacroft Moor","layer":"battlefields","note":"OpenStreetMap","osm_id":"node/12495980540","osm_url":"https://www.openstreetmap.org/node/12495980540","source":"OpenStreetMap"}},{"type":"Feature","geometry":{"type":"Point","coordinates":[-1.2619122,53.7951451]},"properties":{"name":"Battle of Sherburn in Elmet","layer":"battlefields","note":"OpenStreetMap","osm_id":"node/12496009219","osm_url":"https://www.openstreetmap.org/node/12496009219","source":"OpenStreetMap"}},{"type":"Feature","geometry":{"type":"Point","coordinates":[-1.0696198,53.9305758]},"properties":{"name":"Battle of Fulford","layer":"battlefields","note":"OpenStreetMap","osm_id":"node/1251102492","osm_url":"https://www.openstreetmap.org/node/1251102492","source":"OpenStreetMap"}},{"type":"Feature","geometry":{"type":"Point","coordinates":[-3.9103283,56.1049476]},"properties":{"name":"King Edward II's Camp","layer":"battlefields","note":"OpenStreetMap","osm_id":"node/12723333699","osm_url":"https://www.openstreetmap.org/node/12723333699","source":"OpenStreetMap"}},{"type":"Feature","geometry":{"type":"Point","coordinates":[-3.9254994,56.0866822]},"properties":{"name":"Site of the Battle of Bannock Burn on the first of two days of battle","layer":"battlefields","note":"OpenStreetMap","osm_id":"node/12731149089","osm_url":"https://www.openstreetmap.org/node/12731149089","source":"OpenStreetMap"}},{"type":"Feature","geometry":{"type":"Point","coordinates":[-3.9130304,56.1025411]},"properties":{"name":"Site of the Battle of Bannock Burn on the second of two days of battle.","layer":"battlefields","note":"OpenStreetMap","osm_id":"node/12731188678","osm_url":"https://www.openstreetmap.org/node/12731188678","source":"OpenStreetMap"}},{"type":"Feature","geometry":{"type":"Point","coordinates":[-1.71342,50.9368678]},"properties":{"name":"Bomb Targets (WW2)","layer":"battlefields","note":"OpenStreetMap","osm_id":"node/1289400040","osm_url":"https://www.openstreetmap.org/node/1289400040","source":"OpenStreetMap"}},{"type":"Feature","geometry":{"type":"Point","coordinates":[-1.7107468,50.9346341]},"properties":{"name":"bomb target (WW2)","layer":"battlefields","note":"OpenStreetMap","osm_id":"node/1289400089","osm_url":"https://www.openstreetmap.org/node/1289400089","source":"OpenStreetMap"}},{"type":"Feature","geometry":{"type":"Point","coordinates":[-8.3078695,53.2911594]},"properties":{"name":"Battlefield","layer":"battlefields","note":"OpenStreetMap","osm_id":"node/13027022449","osm_url":"https://www.openstreetmap.org/node/13027022449","source":"OpenStreetMap"}},{"type":"Feature","geometry":{"type":"Point","coordinates":[0.4266098,50.9305528]},"properties":{"name":"Battlefield","layer":"battlefields","note":"OpenStreetMap","osm_id":"node/13155076893","osm_url":"https://www.openstreetmap.org/node/13155076893","source":"OpenStreetMap"}},{"type":"Feature","geometry":{"type":"Point","coordinates":[-2.1946855,55.237445]},"properties":{"name":"Otterburn Battlefield","layer":"battlefields","note":"OpenStreetMap","osm_id":"node/1325250251","osm_url":"https://www.openstreetmap.org/node/1325250251","source":"OpenStreetMap"}},{"type":"Feature","geometry":{"type":"Point","coordinates":[-2.7105492,57.2379074]},"properties":{"name":"Battle of Alford","layer":"battlefields","note":"OpenStreetMap","osm_id":"node/13274069018","osm_url":"https://www.openstreetmap.org/node/13274069018","source":"OpenStreetMap"}},{"type":"Feature","geometry":{"type":"Point","coordinates":[-2.7435181,57.4400112]},"properties":{"name":"Battle of Slioch","layer":"battlefields","note":"OpenStreetMap","osm_id":"node/13274301966","osm_url":"https://www.openstreetmap.org/node/13274301966","source":"OpenStreetMap"}},{"type":"Feature","geometry":{"type":"Point","coordinates":[-2.9407176,57.0965497]},"properties":{"name":"Battle of Culblean","layer":"battlefields","note":"OpenStreetMap","osm_id":"node/13274336901","osm_url":"https://www.openstreetmap.org/node/13274336901","source":"OpenStreetMap"}},{"type":"Feature","geometry":{"type":"Point","coordinates":[-7.7266369,53.8708576]},"properties":{"name":"Battlefield","layer":"battlefields","note":"OpenStreetMap","osm_id":"node/13333727522","osm_url":"https://www.openstreetmap.org/node/13333727522","source":"OpenStreetMap"}},{"type":"Feature","geometry":{"type":"Point","coordinates":[-2.0775267,52.528628]},"properties":{"name":"Battle of Tipton Green (1644)","layer":"battlefields","note":"OpenStreetMap","osm_id":"node/13339210131","osm_url":"https://www.openstreetmap.org/node/13339210131","source":"OpenStreetMap"}},{"type":"Feature","geometry":{"type":"Point","coordinates":[-1.8787201,52.4683735]},"properties":{"name":"Battle of Birmingham (Camp Hill) 1643","layer":"battlefields","note":"OpenStreetMap","osm_id":"node/13339210132","osm_url":"https://www.openstreetmap.org/node/13339210132","source":"OpenStreetMap"}},{"type":"Feature","geometry":{"type":"Point","coordinates":[-2.1523394,52.4510636]},"properties":{"name":"Battle of Stourbridge Heath (1644)","layer":"battlefields","note":"OpenStreetMap","osm_id":"node/13339210133","osm_url":"https://www.openstreetmap.org/node/13339210133","source":"OpenStreetMap"}},{"type":"Feature","geometry":{"type":"Point","coordinates":[-2.0902995,52.5954774]},"properties":{"name":"Battle of Wōdnesfeld (910)","layer":"battlefields","note":"OpenStreetMap","osm_id":"node/13339210134","osm_url":"https://www.openstreetmap.org/node/13339210134","source":"OpenStreetMap"}},{"type":"Feature","geometry":{"type":"Point","coordinates":[-1.29001,53.6873556]},"properties":{"name":"Battle of Chequer Field","layer":"battlefields","note":"OpenStreetMap","osm_id":"node/13522611303","osm_url":"https://www.openstreetmap.org/node/13522611303","source":"OpenStreetMap"}},{"type":"Feature","geometry":{"type":"Point","coordinates":[-1.4428953,54.3777811]},"properties":{"name":"Battle of the Standard","layer":"battlefields","note":"OpenStreetMap","osm_id":"node/13567594788","osm_url":"https://www.openstreetmap.org/node/13567594788","source":"OpenStreetMap"}},{"type":"Feature","geometry":{"type":"Point","coordinates":[-2.412852,57.3076761]},"properties":{"name":"Battle of Harlaw (1411)","layer":"battlefields","note":"OpenStreetMap","osm_id":"node/1425388278","osm_url":"https://www.openstreetmap.org/node/1425388278","source":"OpenStreetMap"}},{"type":"Feature","geometry":{"type":"Point","coordinates":[-3.8892556,56.2034749]},"properties":{"name":"Sherrifmuir","layer":"battlefields","note":"OpenStreetMap","osm_id":"node/1441120685","osm_url":"https://www.openstreetmap.org/node/1441120685","source":"OpenStreetMap"}},{"type":"Feature","geometry":{"type":"Point","coordinates":[-1.7334467,51.954669]},"properties":{"name":"Stow 1646","layer":"battlefields","note":"OpenStreetMap","osm_id":"node/1466726546","osm_url":"https://www.openstreetmap.org/node/1466726546","source":"OpenStreetMap"}},{"type":"Feature","geometry":{"type":"Point","coordinates":[-2.5395549,53.07601]},"properties":{"name":"Battle of Nantwich","layer":"battlefields","note":"OpenStreetMap","osm_id":"node/1471162192","osm_url":"https://www.openstreetmap.org/node/1471162192","source":"OpenStreetMap"}},{"type":"Feature","geometry":{"type":"Point","coordinates":[-6.2214759,54.7153871]},"properties":{"name":"Battle of Antrim 1798","layer":"battlefields","note":"OpenStreetMap","osm_id":"node/1544069566","osm_url":"https://www.openstreetmap.org/node/1544069566","source":"OpenStreetMap"}},{"type":"Feature","geometry":{"type":"Point","coordinates":[-6.2048575,54.8138261]},"properties":{"name":"Battle of Connor 1315","layer":"battlefields","note":"OpenStreetMap","osm_id":"node/1615873595","osm_url":"https://www.openstreetmap.org/node/1615873595","source":"OpenStreetMap"}},{"type":"Feature","geometry":{"type":"Point","coordinates":[-3.4667653,50.7119093]},"properties":{"name":"Battle of Clyst St Mary 1549","layer":"battlefields","note":"OpenStreetMap","osm_id":"node/1680263322","osm_url":"https://www.openstreetmap.org/node/1680263322","source":"OpenStreetMap"}},{"type":"Feature","geometry":{"type":"Point","coordinates":[-2.7170924,54.629418]},"properties":{"name":"Clifton Moor Skirmish 1745","layer":"battlefields","note":"OpenStreetMap","osm_id":"node/1688228200","osm_url":"https://www.openstreetmap.org/node/1688228200","source":"OpenStreetMap"}},{"type":"Feature","geometry":{"type":"Point","coordinates":[-4.7601342,51.7642083]},"properties":{"name":"Battle of Carn Mountain 1081","layer":"battlefields","note":"OpenStreetMap","osm_id":"node/1725396618","osm_url":"https://www.openstreetmap.org/node/1725396618","source":"OpenStreetMap"}},{"type":"Feature","geometry":{"type":"Point","coordinates":[-9.4389024,51.8887406]},"properties":{"name":"Battle of Callann","layer":"battlefields","note":"OpenStreetMap","osm_id":"node/1727227385","osm_url":"https://www.openstreetmap.org/node/1727227385","source":"OpenStreetMap"}},{"type":"Feature","geometry":{"type":"Point","coordinates":[-4.5688113,50.416885]},"properties":{"name":"Battle of Braddock Down","layer":"battlefields","note":"OpenStreetMap","osm_id":"node/1751679748","osm_url":"https://www.openstreetmap.org/node/1751679748","source":"OpenStreetMap"}},{"type":"Feature","geometry":{"type":"Point","coordinates":[-3.2588838,50.7827718]},"properties":{"name":"Battle of Fenny Bridges (1549)","layer":"battlefields","note":"OpenStreetMap","osm_id":"node/1765327917","osm_url":"https://www.openstreetmap.org/node/1765327917","source":"OpenStreetMap"}},{"type":"Feature","geometry":{"type":"Point","coordinates":[-2.9714625,54.3335242]},"properties":{"name":"Battlefield","layer":"battlefields","note":"OpenStreetMap","osm_id":"node/1782052409","osm_url":"https://www.openstreetmap.org/node/1782052409","source":"OpenStreetMap"}},{"type":"Feature","geometry":{"type":"Point","coordinates":[-3.6651569,50.5778575]},"properties":{"name":"White Hill (1646)","layer":"battlefields","note":"OpenStreetMap","osm_id":"node/1803094130","osm_url":"https://www.openstreetmap.org/node/1803094130","source":"OpenStreetMap"}},{"type":"Feature","geometry":{"type":"Point","coordinates":[-2.4693712,55.3570803]},"properties":{"name":"Reidshire Raid (the last Border Battle)","layer":"battlefields","note":"OpenStreetMap","osm_id":"node/1957664490","osm_url":"https://www.openstreetmap.org/node/1957664490","source":"OpenStreetMap"}},{"type":"Feature","geometry":{"type":"Point","coordinates":[-3.0980662,52.3027864]},"properties":{"name":"Battle of Bryn Glas","layer":"battlefields","note":"OpenStreetMap","osm_id":"node/1961828082","osm_url":"https://www.openstreetmap.org/node/1961828082","source":"OpenStreetMap"}},{"type":"Feature","geometry":{"type":"Point","coordinates":[-4.6241893,54.0813749]},"properties":{"name":"Battle of Ronaldsway","layer":"battlefields","note":"OpenStreetMap","osm_id":"node/1966096127","osm_url":"https://www.openstreetmap.org/node/1966096127","source":"OpenStreetMap"}},{"type":"Feature","geometry":{"type":"Point","coordinates":[-5.8276568,54.4659176]},"properties":{"name":"Battle of Saintfield (1798)","layer":"battlefields","note":"OpenStreetMap","osm_id":"node/1975222981","osm_url":"https://www.openstreetmap.org/node/1975222981","source":"OpenStreetMap"}},{"type":"Feature","geometry":{"type":"Point","coordinates":[-2.6069998,55.5372353]},"properties":{"name":"Ancrum Moor","layer":"battlefields","note":"OpenStreetMap","osm_id":"node/1983322690","osm_url":"https://www.openstreetmap.org/node/1983322690","source":"OpenStreetMap"}},{"type":"Feature","geometry":{"type":"Point","coordinates":[-0.8213274,52.3763209]},"properties":{"name":"Battlefield","layer":"battlefields","note":"OpenStreetMap","osm_id":"node/1993625188","osm_url":"https://www.openstreetmap.org/node/1993625188","source":"OpenStreetMap"}},{"type":"Feature","geometry":{"type":"Point","coordinates":[1.2304429,51.3251432]},"properties":{"name":"Blood Point","layer":"battlefields","note":"OpenStreetMap","osm_id":"node/2091289481","osm_url":"https://www.openstreetmap.org/node/2091289481","source":"OpenStreetMap"}},{"type":"Feature","geometry":{"type":"Point","coordinates":[-1.1500207,51.057691]},"properties":{"name":"Battle of Cheriton","layer":"battlefields","note":"OpenStreetMap","osm_id":"node/2157190064","osm_url":"https://www.openstreetmap.org/node/2157190064","source":"OpenStreetMap"}},{"type":"Feature","geometry":{"type":"Point","coordinates":[-2.7399574,54.6626737]},"properties":{"name":"Battlefield","layer":"battlefields","note":"OpenStreetMap","osm_id":"node/2158869785","osm_url":"https://www.openstreetmap.org/node/2158869785","source":"OpenStreetMap"}},{"type":"Feature","geometry":{"type":"Point","coordinates":[-3.7234564,50.2754865]},"properties":{"name":"Battlefield","layer":"battlefields","note":"OpenStreetMap","osm_id":"node/2261902397","osm_url":"https://www.openstreetmap.org/node/2261902397","source":"OpenStreetMap"}},{"type":"Feature","geometry":{"type":"Point","coordinates":[-0.1964099,51.6638594]},"properties":{"name":"Battle of Barnet","layer":"battlefields","note":"OpenStreetMap","osm_id":"node/2318860241","osm_url":"https://www.openstreetmap.org/node/2318860241","source":"OpenStreetMap"}},{"type":"Feature","geometry":{"type":"Point","coordinates":[-8.1007798,51.9836809]},"properties":{"name":"Clonmult Ambush Site","layer":"battlefields","note":"OpenStreetMap","osm_id":"node/2339346885","osm_url":"https://www.openstreetmap.org/node/2339346885","source":"OpenStreetMap"}},{"type":"Feature","geometry":{"type":"Point","coordinates":[-1.5393389,53.1429602]},"properties":{"name":"Bailey's Tump","layer":"battlefields","note":"OpenStreetMap","osm_id":"node/2376355956","osm_url":"https://www.openstreetmap.org/node/2376355956","source":"OpenStreetMap"}},{"type":"Feature","geometry":{"type":"Point","coordinates":[-2.5018858,57.112433]},"properties":{"name":"Battle of Corrichie","layer":"battlefields","note":"OpenStreetMap","osm_id":"node/2418814658","osm_url":"https://www.openstreetmap.org/node/2418814658","source":"OpenStreetMap"}},{"type":"Feature","geometry":{"type":"Point","coordinates":[-2.3258716,55.63388]},"properties":{"name":"Carham (833)","layer":"battlefields","note":"OpenStreetMap","osm_id":"node/2467629919","osm_url":"https://www.openstreetmap.org/node/2467629919","source":"OpenStreetMap"}},{"type":"Feature","geometry":{"type":"Point","coordinates":[-8.3123285,53.9976284]},"properties":{"name":"Battle of the Curlew Mountains (1599)","layer":"battlefields","note":"OpenStreetMap","osm_id":"node/2492052023","osm_url":"https://www.openstreetmap.org/node/2492052023","source":"OpenStreetMap"}},{"type":"Feature","geometry":{"type":"Point","coordinates":[-3.0946724,52.3068838]},"properties":{"name":"Battle of Pilleth 1402","layer":"battlefields","note":"OpenStreetMap","osm_id":"node/2518973091","osm_url":"https://www.openstreetmap.org/node/2518973091","source":"OpenStreetMap"}},{"type":"Feature","geometry":{"type":"Point","coordinates":[-3.7914875,56.7510973]},"properties":{"name":"Killiecrankie 1689","layer":"battlefields","note":"OpenStreetMap","osm_id":"node/2540101461","osm_url":"https://www.openstreetmap.org/node/2540101461","source":"OpenStreetMap"}},{"type":"Feature","geometry":{"type":"Point","coordinates":[-0.0335372,53.2022582]},"properties":{"name":"Battle of Winceby","layer":"battlefields","note":"OpenStreetMap","osm_id":"node/2659783527","osm_url":"https://www.openstreetmap.org/node/2659783527","source":"OpenStreetMap"}},{"type":"Feature","geometry":{"type":"Point","coordinates":[-7.4455003,54.8379387]},"properties":{"name":"Battle of Knockavoe Battlefield","layer":"battlefields","note":"OpenStreetMap","osm_id":"node/2679296183","osm_url":"https://www.openstreetmap.org/node/2679296183","source":"OpenStreetMap"}},{"type":"Feature","geometry":{"type":"Point","coordinates":[-1.9491872,52.1062042]},"properties":{"name":"Battle of Evesham 1265","layer":"battlefields","note":"OpenStreetMap","osm_id":"node/278787466","osm_url":"https://www.openstreetmap.org/node/278787466","source":"OpenStreetMap"}},{"type":"Feature","geometry":{"type":"Point","coordinates":[-0.7800726,53.2349172]},"properties":{"name":"Battlefield","layer":"battlefields","note":"OpenStreetMap","osm_id":"node/2847593295","osm_url":"https://www.openstreetmap.org/node/2847593295","source":"OpenStreetMap"}},{"type":"Feature","geometry":{"type":"Point","coordinates":[-4.7706992,56.066199]},"properties":{"name":"Battle of Glen Fruin","layer":"battlefields","note":"OpenStreetMap","osm_id":"node/2908940394","osm_url":"https://www.openstreetmap.org/node/2908940394","source":"OpenStreetMap"}},{"type":"Feature","geometry":{"type":"Point","coordinates":[-0.5658272,52.6952895]},"properties":{"name":"Losecote Field","layer":"battlefields","note":"OpenStreetMap","osm_id":"node/2917969266","osm_url":"https://www.openstreetmap.org/node/2917969266","source":"OpenStreetMap"}},{"type":"Feature","geometry":{"type":"Point","coordinates":[-2.160123,51.9836645]},"properties":{"name":"Battle of Tewkesbury","layer":"battlefields","note":"OpenStreetMap","osm_id":"node/292042582","osm_url":"https://www.openstreetmap.org/node/292042582","source":"OpenStreetMap"}},{"type":"Feature","geometry":{"type":"Point","coordinates":[-3.1196802,55.9277925]},"properties":{"name":"Battle of Niddrie Edge","layer":"battlefields","note":"OpenStreetMap","osm_id":"node/292070217","osm_url":"https://www.openstreetmap.org/node/292070217","source":"OpenStreetMap"}},{"type":"Feature","geometry":{"type":"Point","coordinates":[-3.902782,56.193533]},"properties":{"name":"Sherrifmuir (1715)","layer":"battlefields","note":"OpenStreetMap","osm_id":"node/294327701","osm_url":"https://www.openstreetmap.org/node/294327701","source":"OpenStreetMap"}},{"type":"Feature","geometry":{"type":"Point","coordinates":[-1.4899455,53.6608026]},"properties":{"name":"Battle of Wakefield","layer":"battlefields","note":"OpenStreetMap","osm_id":"node/3037002811","osm_url":"https://www.openstreetmap.org/node/3037002811","source":"OpenStreetMap"}},{"type":"Feature","geometry":{"type":"Point","coordinates":[-1.7515334,54.983398]},"properties":{"name":"Newburn Ford 1640","layer":"battlefields","note":"OpenStreetMap","osm_id":"node/303844085","osm_url":"https://www.openstreetmap.org/node/303844085","source":"OpenStreetMap"}},{"type":"Feature","geometry":{"type":"Point","coordinates":[-4.9013139,55.7103058]},"properties":{"name":"Roman Battle Ground 1216","layer":"battlefields","note":"OpenStreetMap","osm_id":"node/3039111460","osm_url":"https://www.openstreetmap.org/node/3039111460","source":"OpenStreetMap"}},{"type":"Feature","geometry":{"type":"Point","coordinates":[-6.6521808,57.549908]},"properties":{"name":"Blar Mhilleadh-garaidh","layer":"battlefields","note":"OpenStreetMap","osm_id":"node/3057624122","osm_url":"https://www.openstreetmap.org/node/3057624122","source":"OpenStreetMap"}},{"type":"Feature","geometry":{"type":"Point","coordinates":[-6.306704,57.4771525]},"properties":{"name":"Buaile na Fala","layer":"battlefields","note":"OpenStreetMap","osm_id":"node/3061244237","osm_url":"https://www.openstreetmap.org/node/3061244237","source":"OpenStreetMap"}},{"type":"Feature","geometry":{"type":"Point","coordinates":[-2.3996441,51.4304584]},"properties":{"name":"Battle of Lansdowne 1643","layer":"battlefields","note":"OpenStreetMap","osm_id":"node/3078846673","osm_url":"https://www.openstreetmap.org/node/3078846673","source":"OpenStreetMap"}},{"type":"Feature","geometry":{"type":"Point","coordinates":[-1.0679901,51.6757343]},"properties":{"name":"Battle of Chalgrove Field","layer":"battlefields","note":"OpenStreetMap","osm_id":"node/3130875973","osm_url":"https://www.openstreetmap.org/node/3130875973","source":"OpenStreetMap"}},{"type":"Feature","geometry":{"type":"Point","coordinates":[-1.9235307,55.4711541]},"properties":{"name":"Battle of Hedgeley Moor (1464)","layer":"battlefields","note":"OpenStreetMap","osm_id":"node/317229919","osm_url":"https://www.openstreetmap.org/node/317229919","source":"OpenStreetMap"}},{"type":"Feature","geometry":{"type":"Point","coordinates":[-2.1306286,55.7024655]},"properties":{"name":"Battle Moor","layer":"battlefields","note":"OpenStreetMap","osm_id":"node/317670164","osm_url":"https://www.openstreetmap.org/node/317670164","source":"OpenStreetMap"}},{"type":"Feature","geometry":{"type":"Point","coordinates":[-7.0647077,53.4343172]},"properties":{"name":"Battle of Tecroghan 1650","layer":"battlefields","note":"OpenStreetMap","osm_id":"node/3213933582","osm_url":"https://www.openstreetmap.org/node/3213933582","source":"OpenStreetMap"}},{"type":"Feature","geometry":{"type":"Point","coordinates":[-0.8880899,53.0343228]},"properties":{"name":"Battle of Stoke Field 1487","layer":"battlefields","note":"OpenStreetMap","osm_id":"node/324358065","osm_url":"https://www.openstreetmap.org/node/324358065","source":"OpenStreetMap"}},{"type":"Feature","geometry":{"type":"Point","coordinates":[-0.90294,53.9887762]},"properties":{"name":"Battle Flat","layer":"battlefields","note":"OpenStreetMap","osm_id":"node/3342769823","osm_url":"https://www.openstreetmap.org/node/3342769823","source":"OpenStreetMap"}},{"type":"Feature","geometry":{"type":"Point","coordinates":[-1.1651923,52.2483496]},"properties":{"name":"Battlefield","layer":"battlefields","note":"OpenStreetMap","osm_id":"node/3369952469","osm_url":"https://www.openstreetmap.org/node/3369952469","source":"OpenStreetMap"}},{"type":"Feature","geometry":{"type":"Point","coordinates":[-2.9284973,51.1165338]},"properties":{"name":"Battle of Sedgemoor","layer":"battlefields","note":"OpenStreetMap","osm_id":"node/3508637663","osm_url":"https://www.openstreetmap.org/node/3508637663","source":"OpenStreetMap"}},{"type":"Feature","geometry":{"type":"Point","coordinates":[-9.0108532,52.9356481]},"properties":{"name":"Battle of Tullyodea","layer":"battlefields","note":"OpenStreetMap","osm_id":"node/3521699102","osm_url":"https://www.openstreetmap.org/node/3521699102","source":"OpenStreetMap"}},{"type":"Feature","geometry":{"type":"Point","coordinates":[-3.0433919,58.8861915]},"properties":{"name":"Scapa Flow","layer":"battlefields","note":"OpenStreetMap","osm_id":"node/3613409912","osm_url":"https://www.openstreetmap.org/node/3613409912","source":"OpenStreetMap"}},{"type":"Feature","geometry":{"type":"Point","coordinates":[-3.9168041,56.0667164]},"properties":{"name":"Battle of Sauchieburn (1488)","layer":"battlefields","note":"OpenStreetMap","osm_id":"node/3658436593","osm_url":"https://www.openstreetmap.org/node/3658436593","source":"OpenStreetMap"}},{"type":"Feature","geometry":{"type":"Point","coordinates":[-1.2444641,52.1158902]},"properties":{"name":"Edgecote 1469","layer":"battlefields","note":"OpenStreetMap","osm_id":"node/3674597175","osm_url":"https://www.openstreetmap.org/node/3674597175","source":"OpenStreetMap"}},{"type":"Feature","geometry":{"type":"Point","coordinates":[-0.0159123,50.884017]},"properties":{"name":"Battlefield","layer":"battlefields","note":"OpenStreetMap","osm_id":"node/369304082","osm_url":"https://www.openstreetmap.org/node/369304082","source":"OpenStreetMap"}},{"type":"Feature","geometry":{"type":"Point","coordinates":[-3.4305901,56.4019086]},"properties":{"name":"Battle of the North Inch (1396)","layer":"battlefields","note":"OpenStreetMap","osm_id":"node/3705833040","osm_url":"https://www.openstreetmap.org/node/3705833040","source":"OpenStreetMap"}},{"type":"Feature","geometry":{"type":"Point","coordinates":[-6.7687162,54.4173727]},"properties":{"name":"Battle of Benburb 1646","layer":"battlefields","note":"OpenStreetMap","osm_id":"node/3712175026","osm_url":"https://www.openstreetmap.org/node/3712175026","source":"OpenStreetMap"}},{"type":"Feature","geometry":{"type":"Point","coordinates":[-8.8187256,52.7064372]},"properties":{"name":"Battle of Bunratty","layer":"battlefields","note":"OpenStreetMap","osm_id":"node/3780797343","osm_url":"https://www.openstreetmap.org/node/3780797343","source":"OpenStreetMap"}},{"type":"Feature","geometry":{"type":"Point","coordinates":[-2.6068456,55.5376796]},"properties":{"name":"Ancrum Moor 1545","layer":"battlefields","note":"OpenStreetMap","osm_id":"node/385309683","osm_url":"https://www.openstreetmap.org/node/385309683","source":"OpenStreetMap"}},{"type":"Feature","geometry":{"type":"Point","coordinates":[-1.3349469,51.4135051]},"properties":{"name":"Second Battle of Newbury","layer":"battlefields","note":"OpenStreetMap","osm_id":"node/390217158","osm_url":"https://www.openstreetmap.org/node/390217158","source":"OpenStreetMap"}},{"type":"Feature","geometry":{"type":"Point","coordinates":[-3.1619826,51.8227145]},"properties":{"name":"Battlefield","layer":"battlefields","note":"OpenStreetMap","osm_id":"node/395705432","osm_url":"https://www.openstreetmap.org/node/395705432","source":"OpenStreetMap"}},{"type":"Feature","geometry":{"type":"Point","coordinates":[0.1936236,51.2627919]},"properties":{"name":"Battle of Solefields","layer":"battlefields","note":"OpenStreetMap","osm_id":"node/411902517","osm_url":"https://www.openstreetmap.org/node/411902517","source":"OpenStreetMap"}},{"type":"Feature","geometry":{"type":"Point","coordinates":[-2.0440698,55.7865368]},"properties":{"name":"Battlefield","layer":"battlefields","note":"OpenStreetMap","osm_id":"node/429825572","osm_url":"https://www.openstreetmap.org/node/429825572","source":"OpenStreetMap"}},{"type":"Feature","geometry":{"type":"Point","coordinates":[-2.0745867,54.9430429]},"properties":{"name":"Battle of Hexham (AD 1464)","layer":"battlefields","note":"OpenStreetMap","osm_id":"node/434095463","osm_url":"https://www.openstreetmap.org/node/434095463","source":"OpenStreetMap"}},{"type":"Feature","geometry":{"type":"Point","coordinates":[-2.1017163,55.019511]},"properties":{"name":"Battle of Heavenfield (AD 635)","layer":"battlefields","note":"OpenStreetMap","osm_id":"node/434105412","osm_url":"https://www.openstreetmap.org/node/434105412","source":"OpenStreetMap"}},{"type":"Feature","geometry":{"type":"Point","coordinates":[-3.6955096,52.6891042]},"properties":{"name":"Camlann Field","layer":"battlefields","note":"OpenStreetMap","osm_id":"node/4382758775","osm_url":"https://www.openstreetmap.org/node/4382758775","source":"OpenStreetMap"}},{"type":"Feature","geometry":{"type":"Point","coordinates":[-7.1546459,52.1567553]},"properties":{"name":"Cannon Gun","layer":"battlefields","note":"OpenStreetMap","osm_id":"node/440908567","osm_url":"https://www.openstreetmap.org/node/440908567","source":"OpenStreetMap"}},{"type":"Feature","geometry":{"type":"Point","coordinates":[-4.0584357,55.7965487]},"properties":{"name":"Battle o' Bothwell Brig 1679","layer":"battlefields","note":"OpenStreetMap","osm_id":"node/441322473","osm_url":"https://www.openstreetmap.org/node/441322473","source":"OpenStreetMap"}},{"type":"Feature","geometry":{"type":"Point","coordinates":[-2.7265566,52.7506626]},"properties":{"name":"Battle of Shrewsbury","layer":"battlefields","note":"OpenStreetMap","osm_id":"node/445411887","osm_url":"https://www.openstreetmap.org/node/445411887","source":"OpenStreetMap"}},{"type":"Feature","geometry":{"type":"Point","coordinates":[0.4797789,50.909523]},"properties":{"name":"Battle of Hastings","layer":"battlefields","note":"OpenStreetMap","osm_id":"node/455631093","osm_url":"https://www.openstreetmap.org/node/455631093","source":"OpenStreetMap"}},{"type":"Feature","geometry":{"type":"Point","coordinates":[-4.2402901,55.8599446]},"properties":{"name":"Battle of The Bell O' the Brae","layer":"battlefields","note":"OpenStreetMap","osm_id":"node/4620644252","osm_url":"https://www.openstreetmap.org/node/4620644252","source":"OpenStreetMap"}},{"type":"Feature","geometry":{"type":"Point","coordinates":[-3.4833956,50.7470196]},"properties":{"name":"Battle of Pinhoe(1001)","layer":"battlefields","note":"OpenStreetMap","osm_id":"node/4713847929","osm_url":"https://www.openstreetmap.org/node/4713847929","source":"OpenStreetMap"}},{"type":"Feature","geometry":{"type":"Point","coordinates":[-3.6891504,50.7619146]},"properties":{"name":"Battle of Posbury (661)","layer":"battlefields","note":"OpenStreetMap","osm_id":"node/4714970829","osm_url":"https://www.openstreetmap.org/node/4714970829","source":"OpenStreetMap"}},{"type":"Feature","geometry":{"type":"Point","coordinates":[-2.1082538,57.1426137]},"properties":{"name":"Battle of Aberdeen","layer":"battlefields","note":"OpenStreetMap","osm_id":"node/5085552730","osm_url":"https://www.openstreetmap.org/node/5085552730","source":"OpenStreetMap"}},{"type":"Feature","geometry":{"type":"Point","coordinates":[-4.1847926,55.6308116]},"properties":{"name":"Battle Of Drumclog","layer":"battlefields","note":"OpenStreetMap","osm_id":"node/536936417","osm_url":"https://www.openstreetmap.org/node/536936417","source":"OpenStreetMap"}},{"type":"Feature","geometry":{"type":"Point","coordinates":[-4.2025381,55.6103347]},"properties":{"name":"Battle Of Loudoun Hill","layer":"battlefields","note":"OpenStreetMap","osm_id":"node/536961423","osm_url":"https://www.openstreetmap.org/node/536961423","source":"OpenStreetMap"}},{"type":"Feature","geometry":{"type":"Point","coordinates":[-9.4811469,51.9998644]},"properties":{"name":"Tooreencormick","layer":"battlefields","note":"OpenStreetMap","osm_id":"node/5733756127","osm_url":"https://www.openstreetmap.org/node/5733756127","source":"OpenStreetMap"}},{"type":"Feature","geometry":{"type":"Point","coordinates":[-3.5921504,55.4010769]},"properties":{"name":"Battle Site 1593","layer":"battlefields","note":"OpenStreetMap","osm_id":"node/584097750","osm_url":"https://www.openstreetmap.org/node/584097750","source":"OpenStreetMap"}},{"type":"Feature","geometry":{"type":"Point","coordinates":[-0.8865667,52.2283909]},"properties":{"name":"Northampton 1460","layer":"battlefields","note":"OpenStreetMap","osm_id":"node/5844218636","osm_url":"https://www.openstreetmap.org/node/5844218636","source":"OpenStreetMap"}},{"type":"Feature","geometry":{"type":"Point","coordinates":[-2.0707916,52.8335879]},"properties":{"name":"Battle of Hopton Heath","layer":"battlefields","note":"OpenStreetMap","osm_id":"node/5967700371","osm_url":"https://www.openstreetmap.org/node/5967700371","source":"OpenStreetMap"}},{"type":"Feature","geometry":{"type":"Point","coordinates":[-2.3818875,51.6631597]},"properties":{"name":"North Nibley Primary School","layer":"battlefields","note":"OpenStreetMap","osm_id":"node/602385091","osm_url":"https://www.openstreetmap.org/node/602385091","source":"OpenStreetMap"}},{"type":"Feature","geometry":{"type":"Point","coordinates":[-2.4554871,52.6844722]},"properties":{"name":"Site of Battle of Cinderloo","layer":"battlefields","note":"OpenStreetMap","osm_id":"node/6223750506","osm_url":"https://www.openstreetmap.org/node/6223750506","source":"OpenStreetMap"}},{"type":"Feature","geometry":{"type":"Point","coordinates":[-3.4827303,50.7554804]},"properties":{"name":"Battle of Pinhoe","layer":"battlefields","note":"OpenStreetMap","osm_id":"node/623977719","osm_url":"https://www.openstreetmap.org/node/623977719","source":"OpenStreetMap"}},{"type":"Feature","geometry":{"type":"Point","coordinates":[-2.4207907,52.9147417]},"properties":{"name":"Battle of Blore Heath (A.D. 1459)","layer":"battlefields","note":"OpenStreetMap","osm_id":"node/636028811","osm_url":"https://www.openstreetmap.org/node/636028811","source":"OpenStreetMap"}},{"type":"Feature","geometry":{"type":"Point","coordinates":[-4.518506,50.8369499]},"properties":{"name":"Battlefield","layer":"battlefields","note":"OpenStreetMap","osm_id":"node/6478931096","osm_url":"https://www.openstreetmap.org/node/6478931096","source":"OpenStreetMap"}},{"type":"Feature","geometry":{"type":"Point","coordinates":[-3.4588029,50.7104857]},"properties":{"name":"Battlefield","layer":"battlefields","note":"OpenStreetMap","osm_id":"node/6657576587","osm_url":"https://www.openstreetmap.org/node/6657576587","source":"OpenStreetMap"}},{"type":"Feature","geometry":{"type":"Point","coordinates":[-5.6559922,55.6804292]},"properties":{"name":"Battle of Rhunahaorine Moss (1647)","layer":"battlefields","note":"OpenStreetMap","osm_id":"node/6818151626","osm_url":"https://www.openstreetmap.org/node/6818151626","source":"OpenStreetMap"}},{"type":"Feature","geometry":{"type":"Point","coordinates":[-3.876924,50.3472717]},"properties":{"name":"1643 Civil War","layer":"battlefields","note":"OpenStreetMap","osm_id":"node/6879097167","osm_url":"https://www.openstreetmap.org/node/6879097167","source":"OpenStreetMap"}},{"type":"Feature","geometry":{"type":"Point","coordinates":[-6.5507142,54.4268251]},"properties":{"name":"Battle of the Diamond","layer":"battlefields","note":"OpenStreetMap","osm_id":"node/7062697833","osm_url":"https://www.openstreetmap.org/node/7062697833","source":"OpenStreetMap"}},{"type":"Feature","geometry":{"type":"Point","coordinates":[-1.4540544,54.8995936]},"properties":{"name":"Offerton Skirmish 1644","layer":"battlefields","note":"OpenStreetMap","osm_id":"node/7233449261","osm_url":"https://www.openstreetmap.org/node/7233449261","source":"OpenStreetMap"}},{"type":"Feature","geometry":{"type":"Point","coordinates":[-1.3546958,54.0947353]},"properties":{"name":"Battle of Myton","layer":"battlefields","note":"OpenStreetMap","osm_id":"node/740646230","osm_url":"https://www.openstreetmap.org/node/740646230","source":"OpenStreetMap"}},{"type":"Feature","geometry":{"type":"Point","coordinates":[-2.1176668,57.1225515]},"properties":{"name":"Battle of the Brig of Dee","layer":"battlefields","note":"OpenStreetMap","osm_id":"node/7462512691","osm_url":"https://www.openstreetmap.org/node/7462512691","source":"OpenStreetMap"}},{"type":"Feature","geometry":{"type":"Point","coordinates":[-3.93866,56.0933867]},"properties":{"name":"Battle of Bannockburn","layer":"battlefields","note":"OpenStreetMap","osm_id":"node/768443535","osm_url":"https://www.openstreetmap.org/node/768443535","source":"OpenStreetMap"}},{"type":"Feature","geometry":{"type":"Point","coordinates":[-1.3951381,54.0970984]},"properties":{"name":"Battle of Boroughbridge","layer":"battlefields","note":"OpenStreetMap","osm_id":"node/768491782","osm_url":"https://www.openstreetmap.org/node/768491782","source":"OpenStreetMap"}},{"type":"Feature","geometry":{"type":"Point","coordinates":[-5.1448748,56.4013896]},"properties":{"name":"Battle of Pass of Brander","layer":"battlefields","note":"OpenStreetMap","osm_id":"node/768504296","osm_url":"https://www.openstreetmap.org/node/768504296","source":"OpenStreetMap"}},{"type":"Feature","geometry":{"type":"Point","coordinates":[-5.1800225,56.4101042]},"properties":{"name":"Battlefield","layer":"battlefields","note":"OpenStreetMap","osm_id":"node/768508266","osm_url":"https://www.openstreetmap.org/node/768508266","source":"OpenStreetMap"}},{"type":"Feature","geometry":{"type":"Point","coordinates":[-1.0711131,51.6688941]},"properties":{"name":"Battle of Chalgrove Field (1643)","layer":"battlefields","note":"OpenStreetMap","osm_id":"node/7791380671","osm_url":"https://www.openstreetmap.org/node/7791380671","source":"OpenStreetMap"}},{"type":"Feature","geometry":{"type":"Point","coordinates":[-3.2517386,57.3490625]},"properties":{"name":"Battle of Alltacoilcachan A.D. 1594","layer":"battlefields","note":"OpenStreetMap","osm_id":"node/7800292790","osm_url":"https://www.openstreetmap.org/node/7800292790","source":"OpenStreetMap"}},{"type":"Feature","geometry":{"type":"Point","coordinates":[-1.3440035,53.8629968]},"properties":{"name":"Battle of Bramham Moor","layer":"battlefields","note":"OpenStreetMap","osm_id":"node/798352779","osm_url":"https://www.openstreetmap.org/node/798352779","source":"OpenStreetMap"}},{"type":"Feature","geometry":{"type":"Point","coordinates":[-3.3864306,55.1332661]},"properties":{"name":"Battle of Dryfesands","layer":"battlefields","note":"OpenStreetMap","osm_id":"node/8213891501","osm_url":"https://www.openstreetmap.org/node/8213891501","source":"OpenStreetMap"}},{"type":"Feature","geometry":{"type":"Point","coordinates":[-4.4610667,54.9566035]},"properties":{"name":"Battlefield","layer":"battlefields","note":"OpenStreetMap","osm_id":"node/8219770020","osm_url":"https://www.openstreetmap.org/node/8219770020","source":"OpenStreetMap"}},{"type":"Feature","geometry":{"type":"Point","coordinates":[-1.6710377,51.4787636]},"properties":{"name":"Battle of Aldbourne Chase","layer":"battlefields","note":"OpenStreetMap","osm_id":"node/8358193626","osm_url":"https://www.openstreetmap.org/node/8358193626","source":"OpenStreetMap"}},{"type":"Feature","geometry":{"type":"Point","coordinates":[-3.1462007,53.2523226]},"properties":{"name":"Battle of Coleshill","layer":"battlefields","note":"OpenStreetMap","osm_id":"node/8520719443","osm_url":"https://www.openstreetmap.org/node/8520719443","source":"OpenStreetMap"}},{"type":"Feature","geometry":{"type":"Point","coordinates":[-8.8565909,51.8136057]},"properties":{"name":"Michael Collins Ambush Site","layer":"battlefields","note":"OpenStreetMap","osm_id":"node/8750723744","osm_url":"https://www.openstreetmap.org/node/8750723744","source":"OpenStreetMap"}},{"type":"Feature","geometry":{"type":"Point","coordinates":[-2.6067116,53.4408117]},"properties":{"name":"Battle of Winwick","layer":"battlefields","note":"OpenStreetMap","osm_id":"node/9025329190","osm_url":"https://www.openstreetmap.org/node/9025329190","source":"OpenStreetMap"}},{"type":"Feature","geometry":{"type":"Point","coordinates":[-3.3910542,50.702352]},"properties":{"name":"Possiblle Prayer Book Battle","layer":"battlefields","note":"OpenStreetMap","osm_id":"node/9376367021","osm_url":"https://www.openstreetmap.org/node/9376367021","source":"OpenStreetMap"}},{"type":"Feature","geometry":{"type":"Point","coordinates":[-1.7091809,50.9377578]},"properties":{"name":"Ashley Bombing Range(WW2)","layer":"battlefields","note":"OpenStreetMap","osm_id":"node/959727619","osm_url":"https://www.openstreetmap.org/node/959727619","source":"OpenStreetMap"}},{"type":"Feature","geometry":{"type":"Point","coordinates":[-3.9963438,54.9082454]},"properties":{"name":"Battlefield","layer":"battlefields","note":"OpenStreetMap","osm_id":"node/994722225","osm_url":"https://www.openstreetmap.org/node/994722225","source":"OpenStreetMap"}},{"type":"Feature","geometry":{"type":"Point","coordinates":[-6.5509102,54.4284576]},"properties":{"name":"Battle of the Diamond 1795","layer":"battlefields","note":"OpenStreetMap","osm_id":"node/995041304","osm_url":"https://www.openstreetmap.org/node/995041304","source":"OpenStreetMap"}},{"type":"Feature","geometry":{"type":"Point","coordinates":[-8.3137965,53.2943957]},"properties":{"name":"Battlefield","layer":"battlefields","note":"OpenStreetMap","osm_id":"way/1138462549","osm_url":"https://www.openstreetmap.org/way/1138462549","source":"OpenStreetMap"}},{"type":"Feature","geometry":{"type":"Point","coordinates":[-6.8320263,54.2115247]},"properties":{"name":"Battle of Clontibret","layer":"battlefields","note":"OpenStreetMap","osm_id":"way/1237574301","osm_url":"https://www.openstreetmap.org/way/1237574301","source":"OpenStreetMap"}},{"type":"Feature","geometry":{"type":"Point","coordinates":[-9.1894198,54.2055097]},"properties":{"name":"Battlefields of Moyne","layer":"battlefields","note":"OpenStreetMap","osm_id":"way/1273382974","osm_url":"https://www.openstreetmap.org/way/1273382974","source":"OpenStreetMap"}},{"type":"Feature","geometry":{"type":"Point","coordinates":[-1.2662215,53.9634481]},"properties":{"name":"Battle of Marston Moor","layer":"battlefields","note":"OpenStreetMap","osm_id":"way/160606221","osm_url":"https://www.openstreetmap.org/way/160606221","source":"OpenStreetMap"}},{"type":"Feature","geometry":{"type":"Point","coordinates":[-7.4462503,54.8334718]},"properties":{"name":"Battlefield","layer":"battlefields","note":"OpenStreetMap","osm_id":"way/262261535","osm_url":"https://www.openstreetmap.org/way/262261535","source":"OpenStreetMap"}},{"type":"Feature","geometry":{"type":"Point","coordinates":[-2.1696349,55.6271105]},"properties":{"name":"Battle of Flodden Field 1513","layer":"battlefields","note":"OpenStreetMap","osm_id":"way/341770100","osm_url":"https://www.openstreetmap.org/way/341770100","source":"OpenStreetMap"}},{"type":"Feature","geometry":{"type":"Point","coordinates":[-0.8938128,53.0331973]},"properties":{"name":"Battle of Stoke Field","layer":"battlefields","note":"OpenStreetMap","osm_id":"way/371237374","osm_url":"https://www.openstreetmap.org/way/371237374","source":"OpenStreetMap"}},{"type":"Feature","geometry":{"type":"Point","coordinates":[-1.4400908,52.5768254]},"properties":{"name":"Battle of Bosworth 1485","layer":"battlefields","note":"OpenStreetMap","osm_id":"way/50728114","osm_url":"https://www.openstreetmap.org/way/50728114","source":"OpenStreetMap"}},{"type":"Feature","geometry":{"type":"Point","coordinates":[-6.4167976,53.7217436]},"properties":{"name":"Battle of the Boyne","layer":"battlefields","note":"OpenStreetMap","osm_id":"way/61829025","osm_url":"https://www.openstreetmap.org/way/61829025","source":"OpenStreetMap"}},{"type":"Feature","geometry":{"type":"Point","coordinates":[-2.1670018,51.9854095]},"properties":{"name":"Battlefield","layer":"battlefields","note":"OpenStreetMap","osm_id":"way/685212921","osm_url":"https://www.openstreetmap.org/way/685212921","source":"OpenStreetMap"}},{"type":"Feature","geometry":{"type":"Point","coordinates":[-1.2790371,53.841916]},"properties":{"name":"Battle of Towton","layer":"battlefields","note":"OpenStreetMap","osm_id":"way/889229824","osm_url":"https://www.openstreetmap.org/way/889229824","source":"OpenStreetMap"}},{"type":"Feature","geometry":{"type":"Point","coordinates":[-4.0992601,57.4766139]},"properties":{"name":"Culloden Battlefield","layer":"battlefields","note":"National Trust for Scotland","osm_id":"way/89401134","osm_url":"https://www.openstreetmap.org/way/89401134","source":"OpenStreetMap","brand":"National Trust for Scotland"}}]}
