{"type":"FeatureCollection","features":[{"type":"Feature","geometry":{"type":"Point","coordinates":[-1.3685707,53.9351935]},"properties":{"name":"Wetherby Young Offender Institution","layer":"prisons","note":"OpenStreetMap","osm_id":"node/11185331874","osm_url":"https://www.openstreetmap.org/node/11185331874","source":"OpenStreetMap"}},{"type":"Feature","geometry":{"type":"Point","coordinates":[0.6165736,51.2153672]},"properties":{"name":"HMP/YOI East Sutton Park","layer":"prisons","note":"OpenStreetMap","osm_id":"node/1333591854","osm_url":"https://www.openstreetmap.org/node/1333591854","source":"OpenStreetMap"}},{"type":"Feature","geometry":{"type":"Point","coordinates":[-0.8114851,52.015395]},"properties":{"name":"Oakhill Secure Training Centre","layer":"prisons","note":"OpenStreetMap","osm_id":"node/420339862","osm_url":"https://www.openstreetmap.org/node/420339862","source":"OpenStreetMap"}},{"type":"Feature","geometry":{"type":"Point","coordinates":[-0.6428565,51.3220111]},"properties":{"name":"HMP Coldingley","layer":"prisons","note":"OpenStreetMap","osm_id":"node/733901788","osm_url":"https://www.openstreetmap.org/node/733901788","source":"OpenStreetMap"}},{"type":"Feature","geometry":{"type":"Point","coordinates":[-2.4396937,51.4816408]},"properties":{"name":"Ashfield Young Offenders Institute","layer":"prisons","note":"OpenStreetMap","osm_id":"relation/1108332","osm_url":"https://www.openstreetmap.org/relation/1108332","source":"OpenStreetMap"}},{"type":"Feature","geometry":{"type":"Point","coordinates":[-1.1459953,53.5245194]},"properties":{"name":"HMP Doncaster","layer":"prisons","note":"His Majesty's Prison Service","osm_id":"relation/13700431","osm_url":"https://www.openstreetmap.org/relation/13700431","source":"OpenStreetMap","brand":"His Majesty's Prison Service"}},{"type":"Feature","geometry":{"type":"Point","coordinates":[-0.5809954,50.8167672]},"properties":{"name":"HMP Ford","layer":"prisons","note":"His Majesty's Prison Service","osm_id":"relation/20021841","osm_url":"https://www.openstreetmap.org/relation/20021841","source":"OpenStreetMap","brand":"His Majesty's Prison Service"}},{"type":"Feature","geometry":{"type":"Point","coordinates":[-6.3827755,53.3410314]},"properties":{"name":"Wheatfield and Cloverhill Prison","layer":"prisons","note":"OpenStreetMap","osm_id":"relation/2310770","osm_url":"https://www.openstreetmap.org/relation/2310770","source":"OpenStreetMap"}},{"type":"Feature","geometry":{"type":"Point","coordinates":[-1.3282281,51.0634744]},"properties":{"name":"HM Prison Winchester","layer":"prisons","note":"His Majesty's Prison Service","osm_id":"relation/3729031","osm_url":"https://www.openstreetmap.org/relation/3729031","source":"OpenStreetMap","brand":"His Majesty's Prison Service"}},{"type":"Feature","geometry":{"type":"Point","coordinates":[-2.1126683,52.6502902]},"properties":{"name":"HMP/YOI Brinsford","layer":"prisons","note":"OpenStreetMap","osm_id":"relation/4067813","osm_url":"https://www.openstreetmap.org/relation/4067813","source":"OpenStreetMap"}},{"type":"Feature","geometry":{"type":"Point","coordinates":[-2.6882,53.7622724]},"properties":{"name":"HMP Preston","layer":"prisons","note":"OpenStreetMap","osm_id":"relation/4270425","osm_url":"https://www.openstreetmap.org/relation/4270425","source":"OpenStreetMap"}},{"type":"Feature","geometry":{"type":"Point","coordinates":[-7.9175129,54.2889913]},"properties":{"name":"Loughan House Open Centre","layer":"prisons","note":"Irish Prison Service","osm_id":"relation/4308487","osm_url":"https://www.openstreetmap.org/relation/4308487","source":"OpenStreetMap","brand":"Irish Prison Service"}},{"type":"Feature","geometry":{"type":"Point","coordinates":[-1.6354651,55.2955602]},"properties":{"name":"HMP Northumberland","layer":"prisons","note":"Sodexo Limited 00842846","osm_id":"relation/6874286","osm_url":"https://www.openstreetmap.org/relation/6874286","source":"OpenStreetMap","brand":"Sodexo Limited 00842846"}},{"type":"Feature","geometry":{"type":"Point","coordinates":[-1.9868547,52.3247665]},"properties":{"name":"HMP Hewell","layer":"prisons","note":"OpenStreetMap","osm_id":"relation/6894583","osm_url":"https://www.openstreetmap.org/relation/6894583","source":"OpenStreetMap"}},{"type":"Feature","geometry":{"type":"Point","coordinates":[-8.4610826,51.9090882]},"properties":{"name":"Cork Prison","layer":"prisons","note":"OpenStreetMap","osm_id":"relation/8131251","osm_url":"https://www.openstreetmap.org/relation/8131251","source":"OpenStreetMap"}},{"type":"Feature","geometry":{"type":"Point","coordinates":[-2.1173499,52.8114138]},"properties":{"name":"HMP Stafford","layer":"prisons","note":"OpenStreetMap","osm_id":"relation/931409","osm_url":"https://www.openstreetmap.org/relation/931409","source":"OpenStreetMap"}},{"type":"Feature","geometry":{"type":"Point","coordinates":[-1.5771064,53.7958984]},"properties":{"name":"HM Prison Leeds","layer":"prisons","note":"OpenStreetMap","osm_id":"way/100759910","osm_url":"https://www.openstreetmap.org/way/100759910","source":"OpenStreetMap"}},{"type":"Feature","geometry":{"type":"Point","coordinates":[-2.4674517,51.6350017]},"properties":{"name":"HMP/YOI Eastwood Park","layer":"prisons","note":"OpenStreetMap","osm_id":"way/101000837","osm_url":"https://www.openstreetmap.org/way/101000837","source":"OpenStreetMap"}},{"type":"Feature","geometry":{"type":"Point","coordinates":[-2.5405115,53.3502675]},"properties":{"name":"Thorn Cross Young Offenders Institution","layer":"prisons","note":"Her Majesty's Prison Service","osm_id":"way/1013407864","osm_url":"https://www.openstreetmap.org/way/1013407864","source":"OpenStreetMap","brand":"Her Majesty's Prison Service"}},{"type":"Feature","geometry":{"type":"Point","coordinates":[-2.2417194,52.8788517]},"properties":{"name":"HMP/YOI Drake Hall","layer":"prisons","note":"OpenStreetMap","osm_id":"way/101399638","osm_url":"https://www.openstreetmap.org/way/101399638","source":"OpenStreetMap"}},{"type":"Feature","geometry":{"type":"Point","coordinates":[-3.8178232,56.1422223]},"properties":{"name":"HM Prison and Young Offenders Institute Glenochil","layer":"prisons","note":"OpenStreetMap","osm_id":"way/103212488","osm_url":"https://www.openstreetmap.org/way/103212488","source":"OpenStreetMap"}},{"type":"Feature","geometry":{"type":"Point","coordinates":[-2.4396971,51.4815995]},"properties":{"name":"HMP Ashfield","layer":"prisons","note":"OpenStreetMap","osm_id":"way/105803380","osm_url":"https://www.openstreetmap.org/way/105803380","source":"OpenStreetMap"}},{"type":"Feature","geometry":{"type":"Point","coordinates":[-1.9404655,52.4932716]},"properties":{"name":"HMP Birmingham Visits Centre","layer":"prisons","note":"OpenStreetMap","osm_id":"way/107440261","osm_url":"https://www.openstreetmap.org/way/107440261","source":"OpenStreetMap"}},{"type":"Feature","geometry":{"type":"Point","coordinates":[1.460409,52.0587157]},"properties":{"name":"HMP Warren Hill","layer":"prisons","note":"OpenStreetMap","osm_id":"way/108211312","osm_url":"https://www.openstreetmap.org/way/108211312","source":"OpenStreetMap"}},{"type":"Feature","geometry":{"type":"Point","coordinates":[1.4517931,52.0503123]},"properties":{"name":"HMP Hollesley Bay","layer":"prisons","note":"OpenStreetMap","osm_id":"way/108211341","osm_url":"https://www.openstreetmap.org/way/108211341","source":"OpenStreetMap"}},{"type":"Feature","geometry":{"type":"Point","coordinates":[-3.7329247,55.9828186]},"properties":{"name":"HM Young Offenders Institution Polmont","layer":"prisons","note":"Scottish Prison Service","osm_id":"way/112462067","osm_url":"https://www.openstreetmap.org/way/112462067","source":"OpenStreetMap","brand":"Scottish Prison Service"}},{"type":"Feature","geometry":{"type":"Point","coordinates":[-2.5224605,52.8686617]},"properties":{"name":"HMP/YOI Stoke Heath","layer":"prisons","note":"His Majesty's Prison Service","osm_id":"way/1168599230","osm_url":"https://www.openstreetmap.org/way/1168599230","source":"OpenStreetMap","brand":"His Majesty's Prison Service"}},{"type":"Feature","geometry":{"type":"Point","coordinates":[-1.7884351,57.4899297]},"properties":{"name":"HMP & YOI Grampian","layer":"prisons","note":"OpenStreetMap","osm_id":"way/117810533","osm_url":"https://www.openstreetmap.org/way/117810533","source":"OpenStreetMap"}},{"type":"Feature","geometry":{"type":"Point","coordinates":[-1.1469069,52.581795]},"properties":{"name":"Prison","layer":"prisons","note":"OpenStreetMap","osm_id":"way/1186013483","osm_url":"https://www.openstreetmap.org/way/1186013483","source":"OpenStreetMap"}},{"type":"Feature","geometry":{"type":"Point","coordinates":[-1.1480387,52.5822113]},"properties":{"name":"Prison","layer":"prisons","note":"OpenStreetMap","osm_id":"way/1186013484","osm_url":"https://www.openstreetmap.org/way/1186013484","source":"OpenStreetMap"}},{"type":"Feature","geometry":{"type":"Point","coordinates":[-1.1462795,52.5828498]},"properties":{"name":"Prison","layer":"prisons","note":"OpenStreetMap","osm_id":"way/1186013485","osm_url":"https://www.openstreetmap.org/way/1186013485","source":"OpenStreetMap"}},{"type":"Feature","geometry":{"type":"Point","coordinates":[-1.1449859,52.583168]},"properties":{"name":"Prison","layer":"prisons","note":"OpenStreetMap","osm_id":"way/1186013486","osm_url":"https://www.openstreetmap.org/way/1186013486","source":"OpenStreetMap"}},{"type":"Feature","geometry":{"type":"Point","coordinates":[-1.145381,52.5819615]},"properties":{"name":"Prison","layer":"prisons","note":"OpenStreetMap","osm_id":"way/1186013487","osm_url":"https://www.openstreetmap.org/way/1186013487","source":"OpenStreetMap"}},{"type":"Feature","geometry":{"type":"Point","coordinates":[-1.1441483,52.5821153]},"properties":{"name":"Prison","layer":"prisons","note":"OpenStreetMap","osm_id":"way/1186013488","osm_url":"https://www.openstreetmap.org/way/1186013488","source":"OpenStreetMap"}},{"type":"Feature","geometry":{"type":"Point","coordinates":[-1.1440744,52.5827436]},"properties":{"name":"Prison","layer":"prisons","note":"OpenStreetMap","osm_id":"way/1186013489","osm_url":"https://www.openstreetmap.org/way/1186013489","source":"OpenStreetMap"}},{"type":"Feature","geometry":{"type":"Point","coordinates":[-2.592118,51.4809178]},"properties":{"name":"HMP/YOI Bristol","layer":"prisons","note":"government","osm_id":"way/121857981","osm_url":"https://www.openstreetmap.org/way/121857981","source":"OpenStreetMap","brand":"government"}},{"type":"Feature","geometry":{"type":"Point","coordinates":[0.512959,52.1371231]},"properties":{"name":"HMP Highpoint","layer":"prisons","note":"OpenStreetMap","osm_id":"way/122244745","osm_url":"https://www.openstreetmap.org/way/122244745","source":"OpenStreetMap"}},{"type":"Feature","geometry":{"type":"Point","coordinates":[0.5130819,52.1408796]},"properties":{"name":"HM Prison Highpoint","layer":"prisons","note":"OpenStreetMap","osm_id":"way/122244746","osm_url":"https://www.openstreetmap.org/way/122244746","source":"OpenStreetMap"}},{"type":"Feature","geometry":{"type":"Point","coordinates":[-4.2875517,55.8901199]},"properties":{"name":"Lilias Centre","layer":"prisons","note":"OpenStreetMap","osm_id":"way/1228941754","osm_url":"https://www.openstreetmap.org/way/1228941754","source":"OpenStreetMap"}},{"type":"Feature","geometry":{"type":"Point","coordinates":[-6.2678494,53.3620324]},"properties":{"name":"Mountjoy Prison","layer":"prisons","note":"Irish Prison Service","osm_id":"way/129068605","osm_url":"https://www.openstreetmap.org/way/129068605","source":"OpenStreetMap","brand":"Irish Prison Service"}},{"type":"Feature","geometry":{"type":"Point","coordinates":[1.3181413,52.635632]},"properties":{"name":"HM Remand Centre","layer":"prisons","note":"OpenStreetMap","osm_id":"way/133320886","osm_url":"https://www.openstreetmap.org/way/133320886","source":"OpenStreetMap"}},{"type":"Feature","geometry":{"type":"Point","coordinates":[-3.9483238,56.1416896]},"properties":{"name":"HMP & YOI Stirling","layer":"prisons","note":"Scottish Prison Service","osm_id":"way/1377587186","osm_url":"https://www.openstreetmap.org/way/1377587186","source":"OpenStreetMap","brand":"Scottish Prison Service"}},{"type":"Feature","geometry":{"type":"Point","coordinates":[-6.2682809,53.3609292]},"properties":{"name":"Mountjoy Female Prison","layer":"prisons","note":"Irish Prison Service","osm_id":"way/1385110255","osm_url":"https://www.openstreetmap.org/way/1385110255","source":"OpenStreetMap","brand":"Irish Prison Service"}},{"type":"Feature","geometry":{"type":"Point","coordinates":[-1.184677,53.9261978]},"properties":{"name":"HMP/YOI Askham Grange","layer":"prisons","note":"OpenStreetMap","osm_id":"way/139456520","osm_url":"https://www.openstreetmap.org/way/139456520","source":"OpenStreetMap"}},{"type":"Feature","geometry":{"type":"Point","coordinates":[-2.9681032,56.4682717]},"properties":{"name":"Bella Centre","layer":"prisons","note":"OpenStreetMap","osm_id":"way/1396384766","osm_url":"https://www.openstreetmap.org/way/1396384766","source":"OpenStreetMap"}},{"type":"Feature","geometry":{"type":"Point","coordinates":[-4.2219625,57.4748431]},"properties":{"name":"HMP Inverness","layer":"prisons","note":"Scottish Prison Service","osm_id":"way/139674975","osm_url":"https://www.openstreetmap.org/way/139674975","source":"OpenStreetMap","brand":"Scottish Prison Service"}},{"type":"Feature","geometry":{"type":"Point","coordinates":[-2.4534341,49.4688851]},"properties":{"name":"Prison","layer":"prisons","note":"OpenStreetMap","osm_id":"way/1433178016","osm_url":"https://www.openstreetmap.org/way/1433178016","source":"OpenStreetMap"}},{"type":"Feature","geometry":{"type":"Point","coordinates":[-4.1817632,55.8697915]},"properties":{"name":"HMP Barlinnie","layer":"prisons","note":"Scottish Prison Service","osm_id":"way/143628562","osm_url":"https://www.openstreetmap.org/way/143628562","source":"OpenStreetMap","brand":"Scottish Prison Service"}},{"type":"Feature","geometry":{"type":"Point","coordinates":[1.3166148,52.6380516]},"properties":{"name":"HM Prison Norwich","layer":"prisons","note":"His Majesty's Prison Service","osm_id":"way/1446020580","osm_url":"https://www.openstreetmap.org/way/1446020580","source":"OpenStreetMap","brand":"His Majesty's Prison Service"}},{"type":"Feature","geometry":{"type":"Point","coordinates":[-2.0092387,52.5091691]},"properties":{"name":"WMP Oldbury Custody Suite","layer":"prisons","note":"West Midlands Police","osm_id":"way/1472505738","osm_url":"https://www.openstreetmap.org/way/1472505738","source":"OpenStreetMap","brand":"West Midlands Police"}},{"type":"Feature","geometry":{"type":"Point","coordinates":[-0.4238348,52.0268844]},"properties":{"name":"Prison","layer":"prisons","note":"OpenStreetMap","osm_id":"way/1482001311","osm_url":"https://www.openstreetmap.org/way/1482001311","source":"OpenStreetMap"}},{"type":"Feature","geometry":{"type":"Point","coordinates":[-1.2473114,52.328385]},"properties":{"name":"HMP Onley","layer":"prisons","note":"OpenStreetMap","osm_id":"way/148310362","osm_url":"https://www.openstreetmap.org/way/148310362","source":"OpenStreetMap"}},{"type":"Feature","geometry":{"type":"Point","coordinates":[0.6159793,51.2151823]},"properties":{"name":"Prison","layer":"prisons","note":"OpenStreetMap","osm_id":"way/1494556145","osm_url":"https://www.openstreetmap.org/way/1494556145","source":"OpenStreetMap"}},{"type":"Feature","geometry":{"type":"Point","coordinates":[-1.9398977,54.5426925]},"properties":{"name":"HMP Deerbolt","layer":"prisons","note":"OpenStreetMap","osm_id":"way/151178474","osm_url":"https://www.openstreetmap.org/way/151178474","source":"OpenStreetMap"}},{"type":"Feature","geometry":{"type":"Point","coordinates":[-3.9490076,51.6151788]},"properties":{"name":"HMP Swansea","layer":"prisons","note":"OpenStreetMap","osm_id":"way/15244011","osm_url":"https://www.openstreetmap.org/way/15244011","source":"OpenStreetMap"}},{"type":"Feature","geometry":{"type":"Point","coordinates":[0.892515,51.856999]},"properties":{"name":"Military Corrective Training Center","layer":"prisons","note":"OpenStreetMap","osm_id":"way/1529014798","osm_url":"https://www.openstreetmap.org/way/1529014798","source":"OpenStreetMap"}},{"type":"Feature","geometry":{"type":"Point","coordinates":[1.3440999,52.7580943]},"properties":{"name":"Prison","layer":"prisons","note":"His Majesty's Prison Service","osm_id":"way/1533521357","osm_url":"https://www.openstreetmap.org/way/1533521357","source":"OpenStreetMap","brand":"His Majesty's Prison Service"}},{"type":"Feature","geometry":{"type":"Point","coordinates":[-2.3014225,53.5145679]},"properties":{"name":"HMP Forest Bank","layer":"prisons","note":"OpenStreetMap","osm_id":"way/154110562","osm_url":"https://www.openstreetmap.org/way/154110562","source":"OpenStreetMap"}},{"type":"Feature","geometry":{"type":"Point","coordinates":[-2.211457,51.3209198]},"properties":{"name":"Blind House","layer":"prisons","note":"OpenStreetMap","osm_id":"way/158347728","osm_url":"https://www.openstreetmap.org/way/158347728","source":"OpenStreetMap"}},{"type":"Feature","geometry":{"type":"Point","coordinates":[-0.483428,51.4330983]},"properties":{"name":"HMP Bronzefield","layer":"prisons","note":"OpenStreetMap","osm_id":"way/162858597","osm_url":"https://www.openstreetmap.org/way/162858597","source":"OpenStreetMap"}},{"type":"Feature","geometry":{"type":"Point","coordinates":[-2.0447125,51.2850055]},"properties":{"name":"HM Prison Erlestoke","layer":"prisons","note":"OpenStreetMap","osm_id":"way/168431617","osm_url":"https://www.openstreetmap.org/way/168431617","source":"OpenStreetMap"}},{"type":"Feature","geometry":{"type":"Point","coordinates":[-2.2461497,53.4932132]},"properties":{"name":"HM Prison Manchester","layer":"prisons","note":"His Majesty's Prison Service","osm_id":"way/171653678","osm_url":"https://www.openstreetmap.org/way/171653678","source":"OpenStreetMap","brand":"His Majesty's Prison Service"}},{"type":"Feature","geometry":{"type":"Point","coordinates":[-2.1453787,53.6352143]},"properties":{"name":"HMP Buckley Hall","layer":"prisons","note":"OpenStreetMap","osm_id":"way/172388040","osm_url":"https://www.openstreetmap.org/way/172388040","source":"OpenStreetMap"}},{"type":"Feature","geometry":{"type":"Point","coordinates":[-2.96928,53.457881]},"properties":{"name":"HMP Liverpool","layer":"prisons","note":"OpenStreetMap","osm_id":"way/172539535","osm_url":"https://www.openstreetmap.org/way/172539535","source":"OpenStreetMap"}},{"type":"Feature","geometry":{"type":"Point","coordinates":[-0.7995774,51.8215864]},"properties":{"name":"HMP Aylesbury","layer":"prisons","note":"OpenStreetMap","osm_id":"way/183877503","osm_url":"https://www.openstreetmap.org/way/183877503","source":"OpenStreetMap"}},{"type":"Feature","geometry":{"type":"Point","coordinates":[-3.5617356,51.5310022]},"properties":{"name":"Parc Prison and Young Offender Institute","layer":"prisons","note":"G4S","osm_id":"way/184055135","osm_url":"https://www.openstreetmap.org/way/184055135","source":"OpenStreetMap","brand":"G4S"}},{"type":"Feature","geometry":{"type":"Point","coordinates":[-1.3378569,54.4939334]},"properties":{"name":"HMP Kirklevington Grange","layer":"prisons","note":"OpenStreetMap","osm_id":"way/185798337","osm_url":"https://www.openstreetmap.org/way/185798337","source":"OpenStreetMap"}},{"type":"Feature","geometry":{"type":"Point","coordinates":[-0.4837135,51.4841216]},"properties":{"name":"Colnbrook Immigration Removal Centre","layer":"prisons","note":"OpenStreetMap","osm_id":"way/190449002","osm_url":"https://www.openstreetmap.org/way/190449002","source":"OpenStreetMap"}},{"type":"Feature","geometry":{"type":"Point","coordinates":[-8.4873432,53.7538337]},"properties":{"name":"Castlerea Prison","layer":"prisons","note":"OpenStreetMap","osm_id":"way/194349920","osm_url":"https://www.openstreetmap.org/way/194349920","source":"OpenStreetMap"}},{"type":"Feature","geometry":{"type":"Point","coordinates":[-1.1460687,52.5846013]},"properties":{"name":"HMP Fosse Way","layer":"prisons","note":"Serco","osm_id":"way/204282160","osm_url":"https://www.openstreetmap.org/way/204282160","source":"OpenStreetMap","brand":"Serco"}},{"type":"Feature","geometry":{"type":"Point","coordinates":[-2.1095908,52.6466849]},"properties":{"name":"HMP Featherstone","layer":"prisons","note":"OpenStreetMap","osm_id":"way/206382566","osm_url":"https://www.openstreetmap.org/way/206382566","source":"OpenStreetMap"}},{"type":"Feature","geometry":{"type":"Point","coordinates":[-0.9993301,53.3219227]},"properties":{"name":"HMP Ranby","layer":"prisons","note":"OpenStreetMap","osm_id":"way/206519266","osm_url":"https://www.openstreetmap.org/way/206519266","source":"OpenStreetMap"}},{"type":"Feature","geometry":{"type":"Point","coordinates":[-2.1121238,52.6460995]},"properties":{"name":"HMP Oakwood","layer":"prisons","note":"OpenStreetMap","osm_id":"way/206525173","osm_url":"https://www.openstreetmap.org/way/206525173","source":"OpenStreetMap"}},{"type":"Feature","geometry":{"type":"Point","coordinates":[0.8585504,52.554328]},"properties":{"name":"Wayland HMP","layer":"prisons","note":"OpenStreetMap","osm_id":"way/206845030","osm_url":"https://www.openstreetmap.org/way/206845030","source":"OpenStreetMap"}},{"type":"Feature","geometry":{"type":"Point","coordinates":[-0.6860472,53.1670249]},"properties":{"name":"Morton Hall Prison","layer":"prisons","note":"HM Prison & Probation Service","osm_id":"way/218848272","osm_url":"https://www.openstreetmap.org/way/218848272","source":"OpenStreetMap","brand":"HM Prison & Probation Service"}},{"type":"Feature","geometry":{"type":"Point","coordinates":[-0.1883095,51.3385218]},"properties":{"name":"HMP Downview","layer":"prisons","note":"OpenStreetMap","osm_id":"way/22575706","osm_url":"https://www.openstreetmap.org/way/22575706","source":"OpenStreetMap"}},{"type":"Feature","geometry":{"type":"Point","coordinates":[-0.1897082,51.3354198]},"properties":{"name":"HMP/YOI High Down","layer":"prisons","note":"OpenStreetMap","osm_id":"way/22575721","osm_url":"https://www.openstreetmap.org/way/22575721","source":"OpenStreetMap"}},{"type":"Feature","geometry":{"type":"Point","coordinates":[-2.239134,53.3406937]},"properties":{"name":"HMP/YOI Styal","layer":"prisons","note":"OpenStreetMap","osm_id":"way/22597424","osm_url":"https://www.openstreetmap.org/way/22597424","source":"OpenStreetMap"}},{"type":"Feature","geometry":{"type":"Point","coordinates":[-2.8755895,53.7748138]},"properties":{"name":"HMP Kirkham","layer":"prisons","note":"OpenStreetMap","osm_id":"way/230157356","osm_url":"https://www.openstreetmap.org/way/230157356","source":"OpenStreetMap"}},{"type":"Feature","geometry":{"type":"Point","coordinates":[-0.5389055,51.7256349]},"properties":{"name":"HMP The Mount","layer":"prisons","note":"OpenStreetMap","osm_id":"way/23059302","osm_url":"https://www.openstreetmap.org/way/23059302","source":"OpenStreetMap"}},{"type":"Feature","geometry":{"type":"Point","coordinates":[-1.0034489,51.8931926]},"properties":{"name":"HMP Grendon/Spring Hill","layer":"prisons","note":"OpenStreetMap","osm_id":"way/231763087","osm_url":"https://www.openstreetmap.org/way/231763087","source":"OpenStreetMap"}},{"type":"Feature","geometry":{"type":"Point","coordinates":[-2.2008078,53.0219298]},"properties":{"name":"Staffordshire Police Northern Area Custody Facility","layer":"prisons","note":"OpenStreetMap","osm_id":"way/243305372","osm_url":"https://www.openstreetmap.org/way/243305372","source":"OpenStreetMap"}},{"type":"Feature","geometry":{"type":"Point","coordinates":[0.8528838,51.3925716]},"properties":{"name":"HMP Swaleside","layer":"prisons","note":"His Majesty's Prison Service","osm_id":"way/24484555","osm_url":"https://www.openstreetmap.org/way/24484555","source":"OpenStreetMap","brand":"His Majesty's Prison Service"}},{"type":"Feature","geometry":{"type":"Point","coordinates":[0.850389,51.3885856]},"properties":{"name":"HMP/YOI Elmley","layer":"prisons","note":"His Majesty's Prison Service","osm_id":"way/24484556","osm_url":"https://www.openstreetmap.org/way/24484556","source":"OpenStreetMap","brand":"His Majesty's Prison Service"}},{"type":"Feature","geometry":{"type":"Point","coordinates":[0.84768,51.3945718]},"properties":{"name":"HMP Standford Hill","layer":"prisons","note":"His Majesty's Prison Service","osm_id":"way/24484557","osm_url":"https://www.openstreetmap.org/way/24484557","source":"OpenStreetMap","brand":"His Majesty's Prison Service"}},{"type":"Feature","geometry":{"type":"Point","coordinates":[-0.1159658,51.5450805]},"properties":{"name":"HM Prison Pentonville","layer":"prisons","note":"OpenStreetMap","osm_id":"way/25859278","osm_url":"https://www.openstreetmap.org/way/25859278","source":"OpenStreetMap"}},{"type":"Feature","geometry":{"type":"Point","coordinates":[-0.4912515,51.2742677]},"properties":{"name":"HMP/YOI Send","layer":"prisons","note":"OpenStreetMap","osm_id":"way/26153962","osm_url":"https://www.openstreetmap.org/way/26153962","source":"OpenStreetMap"}},{"type":"Feature","geometry":{"type":"Point","coordinates":[-8.6172686,52.6588986]},"properties":{"name":"Limerick Prison","layer":"prisons","note":"Prison Service","osm_id":"way/265226928","osm_url":"https://www.openstreetmap.org/way/265226928","source":"OpenStreetMap","brand":"Prison Service"}},{"type":"Feature","geometry":{"type":"Point","coordinates":[-3.1681691,51.4808495]},"properties":{"name":"H M Prison Cardiff","layer":"prisons","note":"His Majesty's Prison Service","osm_id":"way/26622812","osm_url":"https://www.openstreetmap.org/way/26622812","source":"OpenStreetMap","brand":"His Majesty's Prison Service"}},{"type":"Feature","geometry":{"type":"Point","coordinates":[-1.9376572,52.4931134]},"properties":{"name":"HMP Birmingham","layer":"prisons","note":"OpenStreetMap","osm_id":"way/27758549","osm_url":"https://www.openstreetmap.org/way/27758549","source":"OpenStreetMap"}},{"type":"Feature","geometry":{"type":"Point","coordinates":[-3.5324131,50.728427]},"properties":{"name":"HMP Exeter","layer":"prisons","note":"OpenStreetMap","osm_id":"way/28050278","osm_url":"https://www.openstreetmap.org/way/28050278","source":"OpenStreetMap"}},{"type":"Feature","geometry":{"type":"Point","coordinates":[-4.432108,55.5832422]},"properties":{"name":"HMP Kilmarnock","layer":"prisons","note":"OpenStreetMap","osm_id":"way/283684593","osm_url":"https://www.openstreetmap.org/way/283684593","source":"OpenStreetMap"}},{"type":"Feature","geometry":{"type":"Point","coordinates":[-2.4827166,51.4863033]},"properties":{"name":"Vinney Green Secure Unit","layer":"prisons","note":"OpenStreetMap","osm_id":"way/284436746","osm_url":"https://www.openstreetmap.org/way/284436746","source":"OpenStreetMap"}},{"type":"Feature","geometry":{"type":"Point","coordinates":[-0.5176571,53.2355149]},"properties":{"name":"HMP Lincoln","layer":"prisons","note":"OpenStreetMap","osm_id":"way/285852273","osm_url":"https://www.openstreetmap.org/way/285852273","source":"OpenStreetMap"}},{"type":"Feature","geometry":{"type":"Point","coordinates":[-1.293519,54.5778966]},"properties":{"name":"HMP Holme House","layer":"prisons","note":"OpenStreetMap","osm_id":"way/299509004","osm_url":"https://www.openstreetmap.org/way/299509004","source":"OpenStreetMap"}},{"type":"Feature","geometry":{"type":"Point","coordinates":[-1.7652407,52.8948685]},"properties":{"name":"HM Prison Sudbury","layer":"prisons","note":"His Majesty's Prison Service","osm_id":"way/302316247","osm_url":"https://www.openstreetmap.org/way/302316247","source":"OpenStreetMap","brand":"His Majesty's Prison Service"}},{"type":"Feature","geometry":{"type":"Point","coordinates":[-1.1317455,52.6275097]},"properties":{"name":"His Majesty's Prison Leicester","layer":"prisons","note":"His Majesty's Prison Service","osm_id":"way/3032266","osm_url":"https://www.openstreetmap.org/way/3032266","source":"OpenStreetMap","brand":"His Majesty's Prison Service"}},{"type":"Feature","geometry":{"type":"Point","coordinates":[-1.1282998,50.7808528]},"properties":{"name":"Haslar Immigration Removal Centre (Disused)","layer":"prisons","note":"OpenStreetMap","osm_id":"way/305737012","osm_url":"https://www.openstreetmap.org/way/305737012","source":"OpenStreetMap"}},{"type":"Feature","geometry":{"type":"Point","coordinates":[-4.1968784,55.9222918]},"properties":{"name":"HMP Low Moss","layer":"prisons","note":"Scottish Prison Service","osm_id":"way/30683534","osm_url":"https://www.openstreetmap.org/way/30683534","source":"OpenStreetMap","brand":"Scottish Prison Service"}},{"type":"Feature","geometry":{"type":"Point","coordinates":[-1.1561915,52.9849525]},"properties":{"name":"HMP Nottingham","layer":"prisons","note":"OpenStreetMap","osm_id":"way/30805772","osm_url":"https://www.openstreetmap.org/way/30805772","source":"OpenStreetMap"}},{"type":"Feature","geometry":{"type":"Point","coordinates":[-3.3161236,54.1984212]},"properties":{"name":"HMP Haverigg","layer":"prisons","note":"OpenStreetMap","osm_id":"way/314845267","osm_url":"https://www.openstreetmap.org/way/314845267","source":"OpenStreetMap"}},{"type":"Feature","geometry":{"type":"Point","coordinates":[-0.3133686,52.2803964]},"properties":{"name":"HM Prison Littlehey","layer":"prisons","note":"OpenStreetMap","osm_id":"way/31891953","osm_url":"https://www.openstreetmap.org/way/31891953","source":"OpenStreetMap"}},{"type":"Feature","geometry":{"type":"Point","coordinates":[-0.8743914,53.9852282]},"properties":{"name":"HM Prison Millsike","layer":"prisons","note":"Mitie","osm_id":"way/327857684","osm_url":"https://www.openstreetmap.org/way/327857684","source":"OpenStreetMap","brand":"Mitie"}},{"type":"Feature","geometry":{"type":"Point","coordinates":[-2.5757739,53.5189869]},"properties":{"name":"HMP Hindley","layer":"prisons","note":"OpenStreetMap","osm_id":"way/35933655","osm_url":"https://www.openstreetmap.org/way/35933655","source":"OpenStreetMap"}},{"type":"Feature","geometry":{"type":"Point","coordinates":[-0.8089738,52.0130369]},"properties":{"name":"Woodhill Prison","layer":"prisons","note":"OpenStreetMap","osm_id":"way/35959588","osm_url":"https://www.openstreetmap.org/way/35959588","source":"OpenStreetMap"}},{"type":"Feature","geometry":{"type":"Point","coordinates":[-1.0397939,53.0152451]},"properties":{"name":"HMP Lowdham Grange","layer":"prisons","note":"OpenStreetMap","osm_id":"way/36103916","osm_url":"https://www.openstreetmap.org/way/36103916","source":"OpenStreetMap"}},{"type":"Feature","geometry":{"type":"Point","coordinates":[-0.4159468,50.827543]},"properties":{"name":"Worthing Custody Centre","layer":"prisons","note":"OpenStreetMap","osm_id":"way/364765308","osm_url":"https://www.openstreetmap.org/way/364765308","source":"OpenStreetMap"}},{"type":"Feature","geometry":{"type":"Point","coordinates":[-3.5995478,55.8467219]},"properties":{"name":"HM Addiewell Prison","layer":"prisons","note":"OpenStreetMap","osm_id":"way/365406648","osm_url":"https://www.openstreetmap.org/way/365406648","source":"OpenStreetMap"}},{"type":"Feature","geometry":{"type":"Point","coordinates":[0.0931146,51.4957026]},"properties":{"name":"HMP Belmarsh","layer":"prisons","note":"OpenStreetMap","osm_id":"way/37711456","osm_url":"https://www.openstreetmap.org/way/37711456","source":"OpenStreetMap"}},{"type":"Feature","geometry":{"type":"Point","coordinates":[-2.9281556,53.0347662]},"properties":{"name":"HM Prison Berwyn","layer":"prisons","note":"His Majesty's Prison Service","osm_id":"way/379555135","osm_url":"https://www.openstreetmap.org/way/379555135","source":"OpenStreetMap","brand":"His Majesty's Prison Service"}},{"type":"Feature","geometry":{"type":"Point","coordinates":[-4.1312147,55.6100463]},"properties":{"name":"Dungavel Immigration Removal Centre","layer":"prisons","note":"GEO Group","osm_id":"way/381450014","osm_url":"https://www.openstreetmap.org/way/381450014","source":"OpenStreetMap","brand":"GEO Group"}},{"type":"Feature","geometry":{"type":"Point","coordinates":[-1.8043237,52.6531813]},"properties":{"name":"HMP & YOI Swinfen Hall","layer":"prisons","note":"OpenStreetMap","osm_id":"way/383327038","osm_url":"https://www.openstreetmap.org/way/383327038","source":"OpenStreetMap"}},{"type":"Feature","geometry":{"type":"Point","coordinates":[-1.7808662,52.8710077]},"properties":{"name":"Dovegate Prison","layer":"prisons","note":"OpenStreetMap","osm_id":"way/388896109","osm_url":"https://www.openstreetmap.org/way/388896109","source":"OpenStreetMap"}},{"type":"Feature","geometry":{"type":"Point","coordinates":[-1.5088573,53.6807792]},"properties":{"name":"HMP Wakefield RID Unit","layer":"prisons","note":"OpenStreetMap","osm_id":"way/397275685","osm_url":"https://www.openstreetmap.org/way/397275685","source":"OpenStreetMap"}},{"type":"Feature","geometry":{"type":"Point","coordinates":[-1.5080256,53.6810866]},"properties":{"name":"HMP Wakefield RID Unit","layer":"prisons","note":"OpenStreetMap","osm_id":"way/397275691","osm_url":"https://www.openstreetmap.org/way/397275691","source":"OpenStreetMap"}},{"type":"Feature","geometry":{"type":"Point","coordinates":[-1.2424946,52.3292915]},"properties":{"name":"HMP Rye Hill","layer":"prisons","note":"OpenStreetMap","osm_id":"way/399737267","osm_url":"https://www.openstreetmap.org/way/399737267","source":"OpenStreetMap"}},{"type":"Feature","geometry":{"type":"Point","coordinates":[-2.0871596,53.0225941]},"properties":{"name":"HMP/YOI Werrington","layer":"prisons","note":"OpenStreetMap","osm_id":"way/400632705","osm_url":"https://www.openstreetmap.org/way/400632705","source":"OpenStreetMap"}},{"type":"Feature","geometry":{"type":"Point","coordinates":[0.5235758,51.2792881]},"properties":{"name":"HM Prison Maidstone","layer":"prisons","note":"His Majesty's Prison Service","osm_id":"way/405929061","osm_url":"https://www.openstreetmap.org/way/405929061","source":"OpenStreetMap","brand":"His Majesty's Prison Service"}},{"type":"Feature","geometry":{"type":"Point","coordinates":[-1.0181742,51.5875219]},"properties":{"name":"HMP Huntercombe","layer":"prisons","note":"HM Prison Service","osm_id":"way/415075865","osm_url":"https://www.openstreetmap.org/way/415075865","source":"OpenStreetMap","brand":"HM Prison Service"}},{"type":"Feature","geometry":{"type":"Point","coordinates":[-2.3572943,49.4314869]},"properties":{"name":"Prison","layer":"prisons","note":"OpenStreetMap","osm_id":"way/420026585","osm_url":"https://www.openstreetmap.org/way/420026585","source":"OpenStreetMap"}},{"type":"Feature","geometry":{"type":"Point","coordinates":[1.4495475,52.0530076]},"properties":{"name":"HMP Hollesley Bay","layer":"prisons","note":"OpenStreetMap","osm_id":"way/421446741","osm_url":"https://www.openstreetmap.org/way/421446741","source":"OpenStreetMap"}},{"type":"Feature","geometry":{"type":"Point","coordinates":[-2.2192352,49.1789416]},"properties":{"name":"HMP La Moye","layer":"prisons","note":"OpenStreetMap","osm_id":"way/425800764","osm_url":"https://www.openstreetmap.org/way/425800764","source":"OpenStreetMap"}},{"type":"Feature","geometry":{"type":"Point","coordinates":[-0.1890842,51.1458086]},"properties":{"name":"HM Detention Centre, Brook House","layer":"prisons","note":"OpenStreetMap","osm_id":"way/426907939","osm_url":"https://www.openstreetmap.org/way/426907939","source":"OpenStreetMap"}},{"type":"Feature","geometry":{"type":"Point","coordinates":[-0.1771158,51.1456014]},"properties":{"name":"HM Detention Centre, Tinsley House","layer":"prisons","note":"OpenStreetMap","osm_id":"way/426907947","osm_url":"https://www.openstreetmap.org/way/426907947","source":"OpenStreetMap"}},{"type":"Feature","geometry":{"type":"Point","coordinates":[-0.4701542,52.1395639]},"properties":{"name":"HMP Bedford","layer":"prisons","note":"OpenStreetMap","osm_id":"way/4317186","osm_url":"https://www.openstreetmap.org/way/4317186","source":"OpenStreetMap"}},{"type":"Feature","geometry":{"type":"Point","coordinates":[-2.1173499,52.8114138]},"properties":{"name":"HM Prison Stafford","layer":"prisons","note":"OpenStreetMap","osm_id":"way/43205135","osm_url":"https://www.openstreetmap.org/way/43205135","source":"OpenStreetMap"}},{"type":"Feature","geometry":{"type":"Point","coordinates":[-0.1775666,51.4498756]},"properties":{"name":"HMP Wandsworth","layer":"prisons","note":"OpenStreetMap","osm_id":"way/4437826","osm_url":"https://www.openstreetmap.org/way/4437826","source":"OpenStreetMap"}},{"type":"Feature","geometry":{"type":"Point","coordinates":[1.3457311,52.7593675]},"properties":{"name":"His Majesty's Prison Bure","layer":"prisons","note":"His Majesty's Prison Service","osm_id":"way/453578604","osm_url":"https://www.openstreetmap.org/way/453578604","source":"OpenStreetMap","brand":"His Majesty's Prison Service"}},{"type":"Feature","geometry":{"type":"Point","coordinates":[-4.5287385,54.3558218]},"properties":{"name":"Isle of Man Prison","layer":"prisons","note":"Isle of Man Prison Service","osm_id":"way/457936369","osm_url":"https://www.openstreetmap.org/way/457936369","source":"OpenStreetMap","brand":"Isle of Man Prison Service"}},{"type":"Feature","geometry":{"type":"Point","coordinates":[-6.1853317,54.5143418]},"properties":{"name":"HMP Maghaberry Prison","layer":"prisons","note":"OpenStreetMap","osm_id":"way/457961087","osm_url":"https://www.openstreetmap.org/way/457961087","source":"OpenStreetMap"}},{"type":"Feature","geometry":{"type":"Point","coordinates":[-0.9716318,53.5483835]},"properties":{"name":"HMP/YOI Moorland","layer":"prisons","note":"His Majesty's Prison Service","osm_id":"way/465293058","osm_url":"https://www.openstreetmap.org/way/465293058","source":"OpenStreetMap","brand":"His Majesty's Prison Service"}},{"type":"Feature","geometry":{"type":"Point","coordinates":[-2.8999397,51.6995237]},"properties":{"name":"HMP Usk","layer":"prisons","note":"HM Prison and Probation Service","osm_id":"way/465396278","osm_url":"https://www.openstreetmap.org/way/465396278","source":"OpenStreetMap","brand":"HM Prison and Probation Service"}},{"type":"Feature","geometry":{"type":"Point","coordinates":[-1.9868547,52.3247665]},"properties":{"name":"Prison","layer":"prisons","note":"OpenStreetMap","osm_id":"way/467304791","osm_url":"https://www.openstreetmap.org/way/467304791","source":"OpenStreetMap"}},{"type":"Feature","geometry":{"type":"Point","coordinates":[-0.9613753,52.495369]},"properties":{"name":"Gartree Prison","layer":"prisons","note":"OpenStreetMap","osm_id":"way/476880225","osm_url":"https://www.openstreetmap.org/way/476880225","source":"OpenStreetMap"}},{"type":"Feature","geometry":{"type":"Point","coordinates":[-0.5782445,52.7477647]},"properties":{"name":"HMP Stocken","layer":"prisons","note":"OpenStreetMap","osm_id":"way/477279623","osm_url":"https://www.openstreetmap.org/way/477279623","source":"OpenStreetMap"}},{"type":"Feature","geometry":{"type":"Point","coordinates":[-0.9667704,53.5473523]},"properties":{"name":"HMP Lindholme","layer":"prisons","note":"His Majesty's Prison Service","osm_id":"way/48541977","osm_url":"https://www.openstreetmap.org/way/48541977","source":"OpenStreetMap","brand":"His Majesty's Prison Service"}},{"type":"Feature","geometry":{"type":"Point","coordinates":[-0.4851863,52.1953049]},"properties":{"name":"Yarl's Wood Immigration Removal Centre","layer":"prisons","note":"Serco","osm_id":"way/485720504","osm_url":"https://www.openstreetmap.org/way/485720504","source":"OpenStreetMap","brand":"Serco"}},{"type":"Feature","geometry":{"type":"Point","coordinates":[-3.26115,55.9276508]},"properties":{"name":"HMP Edinburgh","layer":"prisons","note":"OpenStreetMap","osm_id":"way/4891905","osm_url":"https://www.openstreetmap.org/way/4891905","source":"OpenStreetMap"}},{"type":"Feature","geometry":{"type":"Point","coordinates":[-0.6429288,51.3219096]},"properties":{"name":"HMP Coldingley","layer":"prisons","note":"OpenStreetMap","osm_id":"way/492830468","osm_url":"https://www.openstreetmap.org/way/492830468","source":"OpenStreetMap"}},{"type":"Feature","geometry":{"type":"Point","coordinates":[-0.2403749,51.5170655]},"properties":{"name":"HMP Wormwood Scrubs","layer":"prisons","note":"His Majesty's Prison Service","osm_id":"way/492831628","osm_url":"https://www.openstreetmap.org/way/492831628","source":"OpenStreetMap","brand":"His Majesty's Prison Service"}},{"type":"Feature","geometry":{"type":"Point","coordinates":[0.0667572,52.9392481]},"properties":{"name":"HMP North Sea Camp","layer":"prisons","note":"HMP","osm_id":"way/492835504","osm_url":"https://www.openstreetmap.org/way/492835504","source":"OpenStreetMap","brand":"HMP"}},{"type":"Feature","geometry":{"type":"Point","coordinates":[-2.4344594,50.562014]},"properties":{"name":"HMP The Verne","layer":"prisons","note":"His Majesty's Prison Service","osm_id":"way/492836876","osm_url":"https://www.openstreetmap.org/way/492836876","source":"OpenStreetMap","brand":"His Majesty's Prison Service"}},{"type":"Feature","geometry":{"type":"Point","coordinates":[-2.4402834,51.6278382]},"properties":{"name":"HMP Leyhill","layer":"prisons","note":"OpenStreetMap","osm_id":"way/492837767","osm_url":"https://www.openstreetmap.org/way/492837767","source":"OpenStreetMap"}},{"type":"Feature","geometry":{"type":"Point","coordinates":[0.0804434,52.5757187]},"properties":{"name":"HM Prison Whitemoor","layer":"prisons","note":"OpenStreetMap","osm_id":"way/49977450","osm_url":"https://www.openstreetmap.org/way/49977450","source":"OpenStreetMap"}},{"type":"Feature","geometry":{"type":"Point","coordinates":[-4.78179,55.9422157]},"properties":{"name":"HMP Greenock","layer":"prisons","note":"OpenStreetMap","osm_id":"way/505373688","osm_url":"https://www.openstreetmap.org/way/505373688","source":"OpenStreetMap"}},{"type":"Feature","geometry":{"type":"Point","coordinates":[-2.7580372,53.6807159]},"properties":{"name":"HMP Garth","layer":"prisons","note":"OpenStreetMap","osm_id":"way/5095749","osm_url":"https://www.openstreetmap.org/way/5095749","source":"OpenStreetMap"}},{"type":"Feature","geometry":{"type":"Point","coordinates":[-2.7494397,53.6784832]},"properties":{"name":"HMP Wymott","layer":"prisons","note":"OpenStreetMap","osm_id":"way/5095750","osm_url":"https://www.openstreetmap.org/way/5095750","source":"OpenStreetMap"}},{"type":"Feature","geometry":{"type":"Point","coordinates":[-1.5090674,53.6825873]},"properties":{"name":"HMP Wakefield","layer":"prisons","note":"OpenStreetMap","osm_id":"way/5197311","osm_url":"https://www.openstreetmap.org/way/5197311","source":"OpenStreetMap"}},{"type":"Feature","geometry":{"type":"Point","coordinates":[-0.0060532,50.8725152]},"properties":{"name":"HM Prison Lewes","layer":"prisons","note":"OpenStreetMap","osm_id":"way/54616296","osm_url":"https://www.openstreetmap.org/way/54616296","source":"OpenStreetMap"}},{"type":"Feature","geometry":{"type":"Point","coordinates":[0.4868598,51.7359827]},"properties":{"name":"HMP Chelmsford","layer":"prisons","note":"OpenStreetMap","osm_id":"way/55064403","osm_url":"https://www.openstreetmap.org/way/55064403","source":"OpenStreetMap"}},{"type":"Feature","geometry":{"type":"Point","coordinates":[-0.2951312,53.7496988]},"properties":{"name":"HMP Hull","layer":"prisons","note":"OpenStreetMap","osm_id":"way/55152625","osm_url":"https://www.openstreetmap.org/way/55152625","source":"OpenStreetMap"}},{"type":"Feature","geometry":{"type":"Point","coordinates":[-0.868427,53.9839046]},"properties":{"name":"HM Prison Full Sutton","layer":"prisons","note":"OpenStreetMap","osm_id":"way/55259137","osm_url":"https://www.openstreetmap.org/way/55259137","source":"OpenStreetMap"}},{"type":"Feature","geometry":{"type":"Point","coordinates":[-0.6411711,53.7693962]},"properties":{"name":"HM Prison Humber","layer":"prisons","note":"OpenStreetMap","osm_id":"way/55260370","osm_url":"https://www.openstreetmap.org/way/55260370","source":"OpenStreetMap"}},{"type":"Feature","geometry":{"type":"Point","coordinates":[-0.6347768,53.7684873]},"properties":{"name":"HM Prison Humber","layer":"prisons","note":"OpenStreetMap","osm_id":"way/55260386","osm_url":"https://www.openstreetmap.org/way/55260386","source":"OpenStreetMap"}},{"type":"Feature","geometry":{"type":"Point","coordinates":[-1.3085467,50.7150063]},"properties":{"name":"HMP Isle of Wight (Parkhurst)","layer":"prisons","note":"OpenStreetMap","osm_id":"way/5559242","osm_url":"https://www.openstreetmap.org/way/5559242","source":"OpenStreetMap"}},{"type":"Feature","geometry":{"type":"Point","coordinates":[-3.4300822,56.385014]},"properties":{"name":"HMP Perth","layer":"prisons","note":"Scottish Prison Service","osm_id":"way/55685441","osm_url":"https://www.openstreetmap.org/way/55685441","source":"OpenStreetMap","brand":"Scottish Prison Service"}},{"type":"Feature","geometry":{"type":"Point","coordinates":[0.5030795,51.1325149]},"properties":{"name":"HM Prison Blantyre House","layer":"prisons","note":"OpenStreetMap","osm_id":"way/56104301","osm_url":"https://www.openstreetmap.org/way/56104301","source":"OpenStreetMap"}},{"type":"Feature","geometry":{"type":"Point","coordinates":[-0.9611648,52.4959851]},"properties":{"name":"HMP Gartree","layer":"prisons","note":"OpenStreetMap","osm_id":"way/56229327","osm_url":"https://www.openstreetmap.org/way/56229327","source":"OpenStreetMap"}},{"type":"Feature","geometry":{"type":"Point","coordinates":[-1.3070348,50.7113654]},"properties":{"name":"HMP Isle of Wight (Albany)","layer":"prisons","note":"OpenStreetMap","osm_id":"way/563812239","osm_url":"https://www.openstreetmap.org/way/563812239","source":"OpenStreetMap"}},{"type":"Feature","geometry":{"type":"Point","coordinates":[-1.7253709,52.8821744]},"properties":{"name":"HMP/YOI Foston Hall","layer":"prisons","note":"OpenStreetMap","osm_id":"way/58001359","osm_url":"https://www.openstreetmap.org/way/58001359","source":"OpenStreetMap"}},{"type":"Feature","geometry":{"type":"Point","coordinates":[-5.9223706,54.5399199]},"properties":{"name":"HMP Prison Hydebank Wood","layer":"prisons","note":"OpenStreetMap","osm_id":"way/580909616","osm_url":"https://www.openstreetmap.org/way/580909616","source":"OpenStreetMap"}},{"type":"Feature","geometry":{"type":"Point","coordinates":[-5.9260297,54.5411149]},"properties":{"name":"Hydebank Wood Young Offenders Centre","layer":"prisons","note":"OpenStreetMap","osm_id":"way/580909618","osm_url":"https://www.openstreetmap.org/way/580909618","source":"OpenStreetMap"}},{"type":"Feature","geometry":{"type":"Point","coordinates":[-3.6533893,50.5115858]},"properties":{"name":"HMP Channings Wood","layer":"prisons","note":"OpenStreetMap","osm_id":"way/59132334","osm_url":"https://www.openstreetmap.org/way/59132334","source":"OpenStreetMap"}},{"type":"Feature","geometry":{"type":"Point","coordinates":[-0.9804412,53.5867497]},"properties":{"name":"HMP/YOI Hatfield","layer":"prisons","note":"His Majesty's Prison Service","osm_id":"way/59243344","osm_url":"https://www.openstreetmap.org/way/59243344","source":"OpenStreetMap","brand":"His Majesty's Prison Service"}},{"type":"Feature","geometry":{"type":"Point","coordinates":[-2.5406218,49.4773603]},"properties":{"name":"Les Nicolles Prison","layer":"prisons","note":"OpenStreetMap","osm_id":"way/593685276","osm_url":"https://www.openstreetmap.org/way/593685276","source":"OpenStreetMap"}},{"type":"Feature","geometry":{"type":"Point","coordinates":[-0.6912624,52.2849719]},"properties":{"name":"HMP Five Wells","layer":"prisons","note":"MoJ / G4S","osm_id":"way/593930047","osm_url":"https://www.openstreetmap.org/way/593930047","source":"OpenStreetMap","brand":"MoJ / G4S"}},{"type":"Feature","geometry":{"type":"Point","coordinates":[0.0964982,51.4968957]},"properties":{"name":"HMP/YOI Isis","layer":"prisons","note":"OpenStreetMap","osm_id":"way/609038685","osm_url":"https://www.openstreetmap.org/way/609038685","source":"OpenStreetMap"}},{"type":"Feature","geometry":{"type":"Point","coordinates":[-3.9960967,50.5496224]},"properties":{"name":"HMP Dartmoor","layer":"prisons","note":"His Majesty's Prison Service","osm_id":"way/61885998","osm_url":"https://www.openstreetmap.org/way/61885998","source":"OpenStreetMap","brand":"His Majesty's Prison Service"}},{"type":"Feature","geometry":{"type":"Point","coordinates":[-1.8542031,52.1081095]},"properties":{"name":"HMP Long Lartin","layer":"prisons","note":"OpenStreetMap","osm_id":"way/63228299","osm_url":"https://www.openstreetmap.org/way/63228299","source":"OpenStreetMap"}},{"type":"Feature","geometry":{"type":"Point","coordinates":[-6.9489442,55.1760429]},"properties":{"name":"HM Prison Magilligan","layer":"prisons","note":"Northern Ireland Prison Service","osm_id":"way/64180613","osm_url":"https://www.openstreetmap.org/way/64180613","source":"OpenStreetMap","brand":"Northern Ireland Prison Service"}},{"type":"Feature","geometry":{"type":"Point","coordinates":[-2.3968112,53.468611]},"properties":{"name":"Barton Moss Secure Care Centre","layer":"prisons","note":"OpenStreetMap","osm_id":"way/644321944","osm_url":"https://www.openstreetmap.org/way/644321944","source":"OpenStreetMap"}},{"type":"Feature","geometry":{"type":"Point","coordinates":[-1.3290871,53.9152668]},"properties":{"name":"HMP Wealstun","layer":"prisons","note":"OpenStreetMap","osm_id":"way/65021214","osm_url":"https://www.openstreetmap.org/way/65021214","source":"OpenStreetMap"}},{"type":"Feature","geometry":{"type":"Point","coordinates":[-1.3135703,51.8280838]},"properties":{"name":"Campsfield House Immigration Removal Centre","layer":"prisons","note":"OpenStreetMap","osm_id":"way/71893029","osm_url":"https://www.openstreetmap.org/way/71893029","source":"OpenStreetMap"}},{"type":"Feature","geometry":{"type":"Point","coordinates":[-2.5240729,53.4380997]},"properties":{"name":"HMP Risley","layer":"prisons","note":"OpenStreetMap","osm_id":"way/734149410","osm_url":"https://www.openstreetmap.org/way/734149410","source":"OpenStreetMap"}},{"type":"Feature","geometry":{"type":"Point","coordinates":[-0.9121142,52.9477636]},"properties":{"name":"HMP Whatton","layer":"prisons","note":"His Majesty's Prison Service","osm_id":"way/76084431","osm_url":"https://www.openstreetmap.org/way/76084431","source":"OpenStreetMap","brand":"His Majesty's Prison Service"}},{"type":"Feature","geometry":{"type":"Point","coordinates":[-0.1249252,51.4514894]},"properties":{"name":"HMP Brixton","layer":"prisons","note":"OpenStreetMap","osm_id":"way/76741384","osm_url":"https://www.openstreetmap.org/way/76741384","source":"OpenStreetMap"}},{"type":"Feature","geometry":{"type":"Point","coordinates":[-3.6260077,55.0677879]},"properties":{"name":"HMP Dumfries","layer":"prisons","note":"Scottish Prison Service","osm_id":"way/770309350","osm_url":"https://www.openstreetmap.org/way/770309350","source":"OpenStreetMap","brand":"Scottish Prison Service"}},{"type":"Feature","geometry":{"type":"Point","coordinates":[-1.3675344,53.9364343]},"properties":{"name":"HMYOI Wetherby","layer":"prisons","note":"OpenStreetMap","osm_id":"way/77047974","osm_url":"https://www.openstreetmap.org/way/77047974","source":"OpenStreetMap"}},{"type":"Feature","geometry":{"type":"Point","coordinates":[-3.8255054,55.8287706]},"properties":{"name":"HMP Shotts","layer":"prisons","note":"OpenStreetMap","osm_id":"way/781433176","osm_url":"https://www.openstreetmap.org/way/781433176","source":"OpenStreetMap"}},{"type":"Feature","geometry":{"type":"Point","coordinates":[-4.5071435,54.1446302]},"properties":{"name":"White Hoe Adolescent Secure Unit","layer":"prisons","note":"OpenStreetMap","osm_id":"way/79136955","osm_url":"https://www.openstreetmap.org/way/79136955","source":"OpenStreetMap"}},{"type":"Feature","geometry":{"type":"Point","coordinates":[-6.2885795,53.3502359]},"properties":{"name":"Arbour Hill Prison","layer":"prisons","note":"OpenStreetMap","osm_id":"way/806441882","osm_url":"https://www.openstreetmap.org/way/806441882","source":"OpenStreetMap"}},{"type":"Feature","geometry":{"type":"Point","coordinates":[-2.9354052,53.4621679]},"properties":{"name":"HMP Altcourse","layer":"prisons","note":"OpenStreetMap","osm_id":"way/81539487","osm_url":"https://www.openstreetmap.org/way/81539487","source":"OpenStreetMap"}},{"type":"Feature","geometry":{"type":"Point","coordinates":[-6.1907816,52.8158495]},"properties":{"name":"Shelton Abbey","layer":"prisons","note":"OpenStreetMap","osm_id":"way/816675411","osm_url":"https://www.openstreetmap.org/way/816675411","source":"OpenStreetMap"}},{"type":"Feature","geometry":{"type":"Point","coordinates":[-1.6126851,53.6359439]},"properties":{"name":"New Hall Prison and Young Offender Institution","layer":"prisons","note":"OpenStreetMap","osm_id":"way/82621259","osm_url":"https://www.openstreetmap.org/way/82621259","source":"OpenStreetMap"}},{"type":"Feature","geometry":{"type":"Point","coordinates":[-0.2598463,52.5866001]},"properties":{"name":"HMP Peterborough","layer":"prisons","note":"Sodexo Justice Services","osm_id":"way/882166283","osm_url":"https://www.openstreetmap.org/way/882166283","source":"OpenStreetMap","brand":"Sodexo Justice Services"}},{"type":"Feature","geometry":{"type":"Point","coordinates":[-2.7544121,53.6793597]},"properties":{"name":"Prison","layer":"prisons","note":"OpenStreetMap","osm_id":"way/882984583","osm_url":"https://www.openstreetmap.org/way/882984583","source":"OpenStreetMap"}},{"type":"Feature","geometry":{"type":"Point","coordinates":[-1.0937202,51.8487298]},"properties":{"name":"HMP Bullingdon","layer":"prisons","note":"OpenStreetMap","osm_id":"way/90534614","osm_url":"https://www.openstreetmap.org/way/90534614","source":"OpenStreetMap"}},{"type":"Feature","geometry":{"type":"Point","coordinates":[-3.1340716,56.4489042]},"properties":{"name":"HMP Castle Huntly","layer":"prisons","note":"OpenStreetMap","osm_id":"way/909436645","osm_url":"https://www.openstreetmap.org/way/909436645","source":"OpenStreetMap"}},{"type":"Feature","geometry":{"type":"Point","coordinates":[0.4942726,51.3635016]},"properties":{"name":"HMP Cookham Wood","layer":"prisons","note":"HM Prison & Probation Service","osm_id":"way/92124627","osm_url":"https://www.openstreetmap.org/way/92124627","source":"OpenStreetMap","brand":"HM Prison & Probation Service"}},{"type":"Feature","geometry":{"type":"Point","coordinates":[0.49303,51.3678346]},"properties":{"name":"HMP Rochester","layer":"prisons","note":"OpenStreetMap","osm_id":"way/92124656","osm_url":"https://www.openstreetmap.org/way/92124656","source":"OpenStreetMap"}},{"type":"Feature","geometry":{"type":"Point","coordinates":[0.49425,51.361401]},"properties":{"name":"Oasis Restore Secure School","layer":"prisons","note":"Oasis","osm_id":"way/92158409","osm_url":"https://www.openstreetmap.org/way/92158409","source":"OpenStreetMap","brand":"Oasis"}},{"type":"Feature","geometry":{"type":"Point","coordinates":[-2.7707121,54.0543878]},"properties":{"name":"HM Prison Lancaster Farms","layer":"prisons","note":"OpenStreetMap","osm_id":"way/95960598","osm_url":"https://www.openstreetmap.org/way/95960598","source":"OpenStreetMap"}},{"type":"Feature","geometry":{"type":"Point","coordinates":[-1.556008,54.8049124]},"properties":{"name":"HMP/YOI Low Newton","layer":"prisons","note":"OpenStreetMap","osm_id":"way/96209076","osm_url":"https://www.openstreetmap.org/way/96209076","source":"OpenStreetMap"}},{"type":"Feature","geometry":{"type":"Point","coordinates":[-1.5504443,54.8044649]},"properties":{"name":"HMP Frankland","layer":"prisons","note":"OpenStreetMap","osm_id":"way/96209080","osm_url":"https://www.openstreetmap.org/way/96209080","source":"OpenStreetMap"}},{"type":"Feature","geometry":{"type":"Point","coordinates":[-7.2843393,53.0387259]},"properties":{"name":"Midlands Prison","layer":"prisons","note":"OpenStreetMap","osm_id":"way/96260211","osm_url":"https://www.openstreetmap.org/way/96260211","source":"OpenStreetMap"}},{"type":"Feature","geometry":{"type":"Point","coordinates":[-7.2880546,53.0374479]},"properties":{"name":"Portlaoise Prison","layer":"prisons","note":"OpenStreetMap","osm_id":"way/96260217","osm_url":"https://www.openstreetmap.org/way/96260217","source":"OpenStreetMap"}},{"type":"Feature","geometry":{"type":"Point","coordinates":[-2.943448,51.6861586]},"properties":{"name":"HMP Prescoed","layer":"prisons","note":"HM Prison and Probation Service","osm_id":"way/96593324","osm_url":"https://www.openstreetmap.org/way/96593324","source":"OpenStreetMap","brand":"HM Prison and Probation Service"}},{"type":"Feature","geometry":{"type":"Point","coordinates":[-0.4362745,51.4395788]},"properties":{"name":"HMP/YOI Feltham","layer":"prisons","note":"OpenStreetMap","osm_id":"way/97109750","osm_url":"https://www.openstreetmap.org/way/97109750","source":"OpenStreetMap"}},{"type":"Feature","geometry":{"type":"Point","coordinates":[-2.4229943,50.5512377]},"properties":{"name":"Portland Prison and Young Offender Institution","layer":"prisons","note":"OpenStreetMap","osm_id":"way/972401812","osm_url":"https://www.openstreetmap.org/way/972401812","source":"OpenStreetMap"}},{"type":"Feature","geometry":{"type":"Point","coordinates":[-2.219047,50.9848741]},"properties":{"name":"HMP Guys Marsh","layer":"prisons","note":"OpenStreetMap","osm_id":"way/97285758","osm_url":"https://www.openstreetmap.org/way/97285758","source":"OpenStreetMap"}},{"type":"Feature","geometry":{"type":"Point","coordinates":[-1.5679833,54.7729214]},"properties":{"name":"His Majesty's Prison Durham","layer":"prisons","note":"OpenStreetMap","osm_id":"way/9733370","osm_url":"https://www.openstreetmap.org/way/9733370","source":"OpenStreetMap"}},{"type":"Feature","geometry":{"type":"Point","coordinates":[-1.8280998,54.8755295]},"properties":{"name":"Derwentside Immigration Removal Centre","layer":"prisons","note":"OpenStreetMap","osm_id":"way/977535538","osm_url":"https://www.openstreetmap.org/way/977535538","source":"OpenStreetMap"}},{"type":"Feature","geometry":{"type":"Point","coordinates":[0.0898497,51.4940297]},"properties":{"name":"HMP Thameside","layer":"prisons","note":"OpenStreetMap","osm_id":"way/98801124","osm_url":"https://www.openstreetmap.org/way/98801124","source":"OpenStreetMap"}}]}
