{"type":"FeatureCollection","features":[{"type":"Feature","geometry":{"type":"Point","coordinates":[-0.3611192,52.7631092]},"properties":{"name":"Escape 2 Play","layer":"theme-parks","note":"OpenStreetMap","osm_id":"node/10078342555","osm_url":"https://www.openstreetmap.org/node/10078342555","source":"OpenStreetMap"}},{"type":"Feature","geometry":{"type":"Point","coordinates":[-0.6389853,52.909025]},"properties":{"name":"VR Escape","layer":"theme-parks","note":"OpenStreetMap","osm_id":"node/10085073258","osm_url":"https://www.openstreetmap.org/node/10085073258","source":"OpenStreetMap"}},{"type":"Feature","geometry":{"type":"Point","coordinates":[-0.6420887,52.9122196]},"properties":{"name":"Urban Wolf Axe Throwing","layer":"theme-parks","note":"OpenStreetMap","osm_id":"node/10093405553","osm_url":"https://www.openstreetmap.org/node/10093405553","source":"OpenStreetMap"}},{"type":"Feature","geometry":{"type":"Point","coordinates":[-0.6529704,52.9097319]},"properties":{"name":"Fun Farm","layer":"theme-parks","note":"OpenStreetMap","osm_id":"node/10099239448","osm_url":"https://www.openstreetmap.org/node/10099239448","source":"OpenStreetMap"}},{"type":"Feature","geometry":{"type":"Point","coordinates":[-2.055249,50.6452071]},"properties":{"name":"Dorset Adventure Park","layer":"theme-parks","note":"OpenStreetMap","osm_id":"node/10577780557","osm_url":"https://www.openstreetmap.org/node/10577780557","source":"OpenStreetMap"}},{"type":"Feature","geometry":{"type":"Point","coordinates":[-1.0233293,52.3303493]},"properties":{"name":"Theme park","layer":"theme-parks","note":"OpenStreetMap","osm_id":"node/1066583029","osm_url":"https://www.openstreetmap.org/node/1066583029","source":"OpenStreetMap"}},{"type":"Feature","geometry":{"type":"Point","coordinates":[-5.9131173,54.5992198]},"properties":{"name":"PJ Land","layer":"theme-parks","note":"OpenStreetMap","osm_id":"node/11438374833","osm_url":"https://www.openstreetmap.org/node/11438374833","source":"OpenStreetMap"}},{"type":"Feature","geometry":{"type":"Point","coordinates":[-2.4713629,52.7094454]},"properties":{"name":"Jungleland","layer":"theme-parks","note":"OpenStreetMap","osm_id":"node/12048963673","osm_url":"https://www.openstreetmap.org/node/12048963673","source":"OpenStreetMap"}},{"type":"Feature","geometry":{"type":"Point","coordinates":[-4.7320973,51.7437201]},"properties":{"name":"Vintage Funfair","layer":"theme-parks","note":"Folly Farm","osm_id":"node/12120970801","osm_url":"https://www.openstreetmap.org/node/12120970801","source":"OpenStreetMap","brand":"Folly Farm"}},{"type":"Feature","geometry":{"type":"Point","coordinates":[-4.0794058,52.434308]},"properties":{"name":"Amusement Park","layer":"theme-parks","note":"OpenStreetMap","osm_id":"node/1244393487","osm_url":"https://www.openstreetmap.org/node/1244393487","source":"OpenStreetMap"}},{"type":"Feature","geometry":{"type":"Point","coordinates":[-3.3326428,57.7231768]},"properties":{"name":"Theme park","layer":"theme-parks","note":"OpenStreetMap","osm_id":"node/12546172352","osm_url":"https://www.openstreetmap.org/node/12546172352","source":"OpenStreetMap"}},{"type":"Feature","geometry":{"type":"Point","coordinates":[1.1200744,52.7126815]},"properties":{"name":"Roarr! Dinosaur Adventure","layer":"theme-parks","note":"OpenStreetMap","osm_id":"node/1311957110","osm_url":"https://www.openstreetmap.org/node/1311957110","source":"OpenStreetMap"}},{"type":"Feature","geometry":{"type":"Point","coordinates":[-9.5357821,51.7518072]},"properties":{"name":"Bamboo Park Glengariff","layer":"theme-parks","note":"OpenStreetMap","osm_id":"node/1328454956","osm_url":"https://www.openstreetmap.org/node/1328454956","source":"OpenStreetMap"}},{"type":"Feature","geometry":{"type":"Point","coordinates":[-0.7090768,52.3834744]},"properties":{"name":"Wicksteed Park","layer":"theme-parks","note":"OpenStreetMap","osm_id":"node/1363122636","osm_url":"https://www.openstreetmap.org/node/1363122636","source":"OpenStreetMap"}},{"type":"Feature","geometry":{"type":"Point","coordinates":[-0.6127668,51.3266882]},"properties":{"name":"Mizen's Railway","layer":"theme-parks","note":"Woking Miniature Railway Society","osm_id":"node/1594735986","osm_url":"https://www.openstreetmap.org/node/1594735986","source":"OpenStreetMap","brand":"Woking Miniature Railway Society"}},{"type":"Feature","geometry":{"type":"Point","coordinates":[-3.0408951,53.4400377]},"properties":{"name":"Funfair","layer":"theme-parks","note":"OpenStreetMap","osm_id":"node/1883475054","osm_url":"https://www.openstreetmap.org/node/1883475054","source":"OpenStreetMap"}},{"type":"Feature","geometry":{"type":"Point","coordinates":[-0.987796,50.7851541]},"properties":{"name":"Funland Hayling Island","layer":"theme-parks","note":"OpenStreetMap","osm_id":"node/2116376228","osm_url":"https://www.openstreetmap.org/node/2116376228","source":"OpenStreetMap"}},{"type":"Feature","geometry":{"type":"Point","coordinates":[-4.9279905,50.4137515]},"properties":{"name":"Spingfields Fun Park and Pony Centre","layer":"theme-parks","note":"OpenStreetMap","osm_id":"node/2121504125","osm_url":"https://www.openstreetmap.org/node/2121504125","source":"OpenStreetMap"}},{"type":"Feature","geometry":{"type":"Point","coordinates":[-1.5491327,50.9492349]},"properties":{"name":"Peppa Pig World","layer":"theme-parks","note":"OpenStreetMap","osm_id":"node/2200713986","osm_url":"https://www.openstreetmap.org/node/2200713986","source":"OpenStreetMap"}},{"type":"Feature","geometry":{"type":"Point","coordinates":[1.3374725,52.561088]},"properties":{"name":"Playbarn","layer":"theme-parks","note":"OpenStreetMap","osm_id":"node/3525938237","osm_url":"https://www.openstreetmap.org/node/3525938237","source":"OpenStreetMap"}},{"type":"Feature","geometry":{"type":"Point","coordinates":[-6.461576,53.6751604]},"properties":{"name":"Red Mountain Open Farm","layer":"theme-parks","note":"OpenStreetMap","osm_id":"node/4161416190","osm_url":"https://www.openstreetmap.org/node/4161416190","source":"OpenStreetMap"}},{"type":"Feature","geometry":{"type":"Point","coordinates":[-0.7283068,52.0507661]},"properties":{"name":"Eco Park","layer":"theme-parks","note":"OpenStreetMap","osm_id":"node/420376565","osm_url":"https://www.openstreetmap.org/node/420376565","source":"OpenStreetMap"}},{"type":"Feature","geometry":{"type":"Point","coordinates":[-0.76455,52.02783]},"properties":{"name":"Si5 Spy Missions","layer":"theme-parks","note":"OpenStreetMap","osm_id":"node/4270100319","osm_url":"https://www.openstreetmap.org/node/4270100319","source":"OpenStreetMap"}},{"type":"Feature","geometry":{"type":"Point","coordinates":[-3.2346009,50.8685672]},"properties":{"name":"Mansell Raceway","layer":"theme-parks","note":"OpenStreetMap","osm_id":"node/4499021388","osm_url":"https://www.openstreetmap.org/node/4499021388","source":"OpenStreetMap"}},{"type":"Feature","geometry":{"type":"Point","coordinates":[-0.7349962,52.3876947]},"properties":{"name":"Kids Play Ltd","layer":"theme-parks","note":"OpenStreetMap","osm_id":"node/4595202652","osm_url":"https://www.openstreetmap.org/node/4595202652","source":"OpenStreetMap"}},{"type":"Feature","geometry":{"type":"Point","coordinates":[-3.0172062,53.7683068]},"properties":{"name":"Funtastic Play","layer":"theme-parks","note":"OpenStreetMap","osm_id":"node/4623329926","osm_url":"https://www.openstreetmap.org/node/4623329926","source":"OpenStreetMap"}},{"type":"Feature","geometry":{"type":"Point","coordinates":[-0.331985,51.383343]},"properties":{"name":"Malden and District Society of Model Engineers Ltd","layer":"theme-parks","note":"OpenStreetMap","osm_id":"node/4657891552","osm_url":"https://www.openstreetmap.org/node/4657891552","source":"OpenStreetMap"}},{"type":"Feature","geometry":{"type":"Point","coordinates":[-2.2851015,52.3390985]},"properties":{"name":"Climbing Frame","layer":"theme-parks","note":"OpenStreetMap","osm_id":"node/4879537705","osm_url":"https://www.openstreetmap.org/node/4879537705","source":"OpenStreetMap"}},{"type":"Feature","geometry":{"type":"Point","coordinates":[-0.8397514,52.2404711]},"properties":{"name":"Boost Trampoline Parks","layer":"theme-parks","note":"OpenStreetMap","osm_id":"node/5196661089","osm_url":"https://www.openstreetmap.org/node/5196661089","source":"OpenStreetMap"}},{"type":"Feature","geometry":{"type":"Point","coordinates":[-0.770691,52.0213052]},"properties":{"name":"Kidsplay Activity Land","layer":"theme-parks","note":"OpenStreetMap","osm_id":"node/586668026","osm_url":"https://www.openstreetmap.org/node/586668026","source":"OpenStreetMap"}},{"type":"Feature","geometry":{"type":"Point","coordinates":[-0.772907,52.021792]},"properties":{"name":"Gambado","layer":"theme-parks","note":"OpenStreetMap","osm_id":"node/586669975","osm_url":"https://www.openstreetmap.org/node/586669975","source":"OpenStreetMap"}},{"type":"Feature","geometry":{"type":"Point","coordinates":[-5.1005691,56.2063549]},"properties":{"name":"Argyll Adventure","layer":"theme-parks","note":"OpenStreetMap","osm_id":"node/5909497234","osm_url":"https://www.openstreetmap.org/node/5909497234","source":"OpenStreetMap"}},{"type":"Feature","geometry":{"type":"Point","coordinates":[-1.9151257,52.4790946]},"properties":{"name":"LEGOLAND Discovery Centre","layer":"theme-parks","note":"LEGOLAND Discovery Centre","osm_id":"node/6058642405","osm_url":"https://www.openstreetmap.org/node/6058642405","source":"OpenStreetMap","brand":"LEGOLAND Discovery Centre"}},{"type":"Feature","geometry":{"type":"Point","coordinates":[-0.6657042,51.5800965]},"properties":{"name":"Odds Farm Park","layer":"theme-parks","note":"OpenStreetMap","osm_id":"node/6090716442","osm_url":"https://www.openstreetmap.org/node/6090716442","source":"OpenStreetMap"}},{"type":"Feature","geometry":{"type":"Point","coordinates":[-1.4534245,53.7876818]},"properties":{"name":"Go Ape - Treetop Adventure","layer":"theme-parks","note":"Go Ape","osm_id":"node/6515395869","osm_url":"https://www.openstreetmap.org/node/6515395869","source":"OpenStreetMap","brand":"Go Ape"}},{"type":"Feature","geometry":{"type":"Point","coordinates":[-6.674947,53.362115]},"properties":{"name":"Clonfert Pet Farm","layer":"theme-parks","note":"OpenStreetMap","osm_id":"node/732265584","osm_url":"https://www.openstreetmap.org/node/732265584","source":"OpenStreetMap"}},{"type":"Feature","geometry":{"type":"Point","coordinates":[-0.7349575,52.6695626]},"properties":{"name":"Mini Monsters","layer":"theme-parks","note":"OpenStreetMap","osm_id":"node/7553550789","osm_url":"https://www.openstreetmap.org/node/7553550789","source":"OpenStreetMap"}},{"type":"Feature","geometry":{"type":"Point","coordinates":[-0.9034807,52.4800751]},"properties":{"name":"Mini Mischiefs","layer":"theme-parks","note":"OpenStreetMap","osm_id":"node/7627120535","osm_url":"https://www.openstreetmap.org/node/7627120535","source":"OpenStreetMap"}},{"type":"Feature","geometry":{"type":"Point","coordinates":[-1.550945,50.9488297]},"properties":{"name":"Tornado Springs","layer":"theme-parks","note":"OpenStreetMap","osm_id":"node/7734349472","osm_url":"https://www.openstreetmap.org/node/7734349472","source":"OpenStreetMap"}},{"type":"Feature","geometry":{"type":"Point","coordinates":[-1.5555155,50.9482664]},"properties":{"name":"Lost Kingdom","layer":"theme-parks","note":"OpenStreetMap","osm_id":"node/7734478626","osm_url":"https://www.openstreetmap.org/node/7734478626","source":"OpenStreetMap"}},{"type":"Feature","geometry":{"type":"Point","coordinates":[-1.5519777,50.9499438]},"properties":{"name":"Critter Creek","layer":"theme-parks","note":"OpenStreetMap","osm_id":"node/7734478627","osm_url":"https://www.openstreetmap.org/node/7734478627","source":"OpenStreetMap"}},{"type":"Feature","geometry":{"type":"Point","coordinates":[-2.8764431,54.9352935]},"properties":{"name":"Walby Farm Park","layer":"theme-parks","note":"OpenStreetMap","osm_id":"node/8016085274","osm_url":"https://www.openstreetmap.org/node/8016085274","source":"OpenStreetMap"}},{"type":"Feature","geometry":{"type":"Point","coordinates":[-0.0106698,53.3826772]},"properties":{"name":"Play Factory Louth","layer":"theme-parks","note":"OpenStreetMap","osm_id":"node/8912396962","osm_url":"https://www.openstreetmap.org/node/8912396962","source":"OpenStreetMap"}},{"type":"Feature","geometry":{"type":"Point","coordinates":[1.4503087,52.710938]},"properties":{"name":"BeWILDerwood","layer":"theme-parks","note":"OpenStreetMap","osm_id":"node/895663047","osm_url":"https://www.openstreetmap.org/node/895663047","source":"OpenStreetMap"}},{"type":"Feature","geometry":{"type":"Point","coordinates":[-6.1785601,54.0271179]},"properties":{"name":"Sky Park Outdoor Adventures","layer":"theme-parks","note":"OpenStreetMap","osm_id":"node/8994373770","osm_url":"https://www.openstreetmap.org/node/8994373770","source":"OpenStreetMap"}},{"type":"Feature","geometry":{"type":"Point","coordinates":[0.3464529,53.1448302]},"properties":{"name":"Captain Kids Adventure World","layer":"theme-parks","note":"OpenStreetMap","osm_id":"node/9074852749","osm_url":"https://www.openstreetmap.org/node/9074852749","source":"OpenStreetMap"}},{"type":"Feature","geometry":{"type":"Point","coordinates":[-0.7083987,51.4083412]},"properties":{"name":"LaplandUK","layer":"theme-parks","note":"OpenStreetMap","osm_id":"node/9118245704","osm_url":"https://www.openstreetmap.org/node/9118245704","source":"OpenStreetMap"}},{"type":"Feature","geometry":{"type":"Point","coordinates":[-1.8050569,54.7899443]},"properties":{"name":"Hall Hill Farm","layer":"theme-parks","note":"OpenStreetMap","osm_id":"node/9311072857","osm_url":"https://www.openstreetmap.org/node/9311072857","source":"OpenStreetMap"}},{"type":"Feature","geometry":{"type":"Point","coordinates":[-7.1455889,52.1603293]},"properties":{"name":"Tramore Amusement & Leisure Park","layer":"theme-parks","note":"OpenStreetMap","osm_id":"relation/10656101","osm_url":"https://www.openstreetmap.org/relation/10656101","source":"OpenStreetMap"}},{"type":"Feature","geometry":{"type":"Point","coordinates":[-2.2766334,51.1881486]},"properties":{"name":"Theme park","layer":"theme-parks","note":"OpenStreetMap","osm_id":"relation/12843185","osm_url":"https://www.openstreetmap.org/relation/12843185","source":"OpenStreetMap"}},{"type":"Feature","geometry":{"type":"Point","coordinates":[-1.566809,50.6678358]},"properties":{"name":"The Needles Landmark Attraction","layer":"theme-parks","note":"OpenStreetMap","osm_id":"relation/14325322","osm_url":"https://www.openstreetmap.org/relation/14325322","source":"OpenStreetMap"}},{"type":"Feature","geometry":{"type":"Point","coordinates":[-3.4622142,56.4823859]},"properties":{"name":"Active Kids Adventure Park","layer":"theme-parks","note":"OpenStreetMap","osm_id":"relation/14349414","osm_url":"https://www.openstreetmap.org/relation/14349414","source":"OpenStreetMap"}},{"type":"Feature","geometry":{"type":"Point","coordinates":[-5.6748828,54.6645965]},"properties":{"name":"Pickie Fun Park","layer":"theme-parks","note":"OpenStreetMap","osm_id":"relation/15845377","osm_url":"https://www.openstreetmap.org/relation/15845377","source":"OpenStreetMap"}},{"type":"Feature","geometry":{"type":"Point","coordinates":[-8.8124448,52.6992886]},"properties":{"name":"Bunratty Folk Park","layer":"theme-parks","note":"OpenStreetMap","osm_id":"relation/18021468","osm_url":"https://www.openstreetmap.org/relation/18021468","source":"OpenStreetMap"}},{"type":"Feature","geometry":{"type":"Point","coordinates":[-6.4556074,53.5464822]},"properties":{"name":"Emerald Park","layer":"theme-parks","note":"OpenStreetMap","osm_id":"relation/18509680","osm_url":"https://www.openstreetmap.org/relation/18509680","source":"OpenStreetMap"}},{"type":"Feature","geometry":{"type":"Point","coordinates":[-1.471372,50.6808407]},"properties":{"name":"Tapnell Farm","layer":"theme-parks","note":"OpenStreetMap","osm_id":"relation/7654562","osm_url":"https://www.openstreetmap.org/relation/7654562","source":"OpenStreetMap"}},{"type":"Feature","geometry":{"type":"Point","coordinates":[-3.2740065,51.3917463]},"properties":{"name":"Barry Island Pleasure Park","layer":"theme-parks","note":"OpenStreetMap","osm_id":"way/100875732","osm_url":"https://www.openstreetmap.org/way/100875732","source":"OpenStreetMap"}},{"type":"Feature","geometry":{"type":"Point","coordinates":[-2.341525,53.4674246]},"properties":{"name":"LEGOLAND Discovery Centre","layer":"theme-parks","note":"LEGOLAND Discovery Centre","osm_id":"way/1052332564","osm_url":"https://www.openstreetmap.org/way/1052332564","source":"OpenStreetMap","brand":"LEGOLAND Discovery Centre"}},{"type":"Feature","geometry":{"type":"Point","coordinates":[-1.6554969,54.8377365]},"properties":{"name":"Holmside Park","layer":"theme-parks","note":"OpenStreetMap","osm_id":"way/1053413135","osm_url":"https://www.openstreetmap.org/way/1053413135","source":"OpenStreetMap"}},{"type":"Feature","geometry":{"type":"Point","coordinates":[-4.3844179,50.9806906]},"properties":{"name":"The Milky Way Adventure Park","layer":"theme-parks","note":"OpenStreetMap","osm_id":"way/106383061","osm_url":"https://www.openstreetmap.org/way/106383061","source":"OpenStreetMap"}},{"type":"Feature","geometry":{"type":"Point","coordinates":[0.716133,51.5326767]},"properties":{"name":"Adventure Island","layer":"theme-parks","note":"OpenStreetMap","osm_id":"way/106524886","osm_url":"https://www.openstreetmap.org/way/106524886","source":"OpenStreetMap"}},{"type":"Feature","geometry":{"type":"Point","coordinates":[-1.0890521,53.9976177]},"properties":{"name":"Web Adventure Park","layer":"theme-parks","note":"OpenStreetMap","osm_id":"way/1065794343","osm_url":"https://www.openstreetmap.org/way/1065794343","source":"OpenStreetMap"}},{"type":"Feature","geometry":{"type":"Point","coordinates":[-2.1116285,53.3647469]},"properties":{"name":"Vintage Family Funfair","layer":"theme-parks","note":"Keeling's Funfair","osm_id":"way/1075116161","osm_url":"https://www.openstreetmap.org/way/1075116161","source":"OpenStreetMap","brand":"Keeling's Funfair"}},{"type":"Feature","geometry":{"type":"Point","coordinates":[-4.4161289,50.4269969]},"properties":{"name":"Adrenalin Quarry","layer":"theme-parks","note":"OpenStreetMap","osm_id":"way/108037194","osm_url":"https://www.openstreetmap.org/way/108037194","source":"OpenStreetMap"}},{"type":"Feature","geometry":{"type":"Point","coordinates":[0.0440306,53.12515]},"properties":{"name":"Evergreens Miniature Railway","layer":"theme-parks","note":"OpenStreetMap","osm_id":"way/1105303071","osm_url":"https://www.openstreetmap.org/way/1105303071","source":"OpenStreetMap"}},{"type":"Feature","geometry":{"type":"Point","coordinates":[-4.1739637,51.1709484]},"properties":{"name":"Theme park","layer":"theme-parks","note":"OpenStreetMap","osm_id":"way/1106753347","osm_url":"https://www.openstreetmap.org/way/1106753347","source":"OpenStreetMap"}},{"type":"Feature","geometry":{"type":"Point","coordinates":[-7.2320975,53.8352802]},"properties":{"name":"The Cavan Centre","layer":"theme-parks","note":"OpenStreetMap","osm_id":"way/1132765973","osm_url":"https://www.openstreetmap.org/way/1132765973","source":"OpenStreetMap"}},{"type":"Feature","geometry":{"type":"Point","coordinates":[-4.0397786,55.8003523]},"properties":{"name":"M&D's Theme Park","layer":"theme-parks","note":"OpenStreetMap","osm_id":"way/116026897","osm_url":"https://www.openstreetmap.org/way/116026897","source":"OpenStreetMap"}},{"type":"Feature","geometry":{"type":"Point","coordinates":[1.009273,51.8459852]},"properties":{"name":"Wyvernwood","layer":"theme-parks","note":"OpenStreetMap","osm_id":"way/1168218480","osm_url":"https://www.openstreetmap.org/way/1168218480","source":"OpenStreetMap"}},{"type":"Feature","geometry":{"type":"Point","coordinates":[-2.2317596,57.0858367]},"properties":{"name":"The Den & the Glen","layer":"theme-parks","note":"OpenStreetMap","osm_id":"way/116882256","osm_url":"https://www.openstreetmap.org/way/116882256","source":"OpenStreetMap"}},{"type":"Feature","geometry":{"type":"Point","coordinates":[-3.7840293,53.100628]},"properties":{"name":"Zip World Betws-y-Coed","layer":"theme-parks","note":"OpenStreetMap","osm_id":"way/1193395133","osm_url":"https://www.openstreetmap.org/way/1193395133","source":"OpenStreetMap"}},{"type":"Feature","geometry":{"type":"Point","coordinates":[-4.5684784,51.7509495]},"properties":{"name":"Morfa Bay Adventure Park","layer":"theme-parks","note":"OpenStreetMap","osm_id":"way/1212741452","osm_url":"https://www.openstreetmap.org/way/1212741452","source":"OpenStreetMap"}},{"type":"Feature","geometry":{"type":"Point","coordinates":[0.346394,53.1435405]},"properties":{"name":"Pleasure Land","layer":"theme-parks","note":"Botton’s Amusement Park","osm_id":"way/121401654","osm_url":"https://www.openstreetmap.org/way/121401654","source":"OpenStreetMap","brand":"Botton’s Amusement Park"}},{"type":"Feature","geometry":{"type":"Point","coordinates":[-6.8032399,53.867177]},"properties":{"name":"Crystal Maze","layer":"theme-parks","note":"OpenStreetMap","osm_id":"way/1228382903","osm_url":"https://www.openstreetmap.org/way/1228382903","source":"OpenStreetMap"}},{"type":"Feature","geometry":{"type":"Point","coordinates":[0.590052,50.8554357]},"properties":{"name":"Flamingo Park","layer":"theme-parks","note":"OpenStreetMap","osm_id":"way/1242162083","osm_url":"https://www.openstreetmap.org/way/1242162083","source":"OpenStreetMap"}},{"type":"Feature","geometry":{"type":"Point","coordinates":[-3.2766291,51.3905872]},"properties":{"name":"Fun Park","layer":"theme-parks","note":"Barry Island Promenade","osm_id":"way/1243809483","osm_url":"https://www.openstreetmap.org/way/1243809483","source":"OpenStreetMap","brand":"Barry Island Promenade"}},{"type":"Feature","geometry":{"type":"Point","coordinates":[-2.0105922,52.8477313]},"properties":{"name":"Amerton Farm and Craft Centre","layer":"theme-parks","note":"OpenStreetMap","osm_id":"way/127110186","osm_url":"https://www.openstreetmap.org/way/127110186","source":"OpenStreetMap"}},{"type":"Feature","geometry":{"type":"Point","coordinates":[0.2647471,53.3420374]},"properties":{"name":"Mablethorpe Funfair","layer":"theme-parks","note":"OpenStreetMap","osm_id":"way/127331492","osm_url":"https://www.openstreetmap.org/way/127331492","source":"OpenStreetMap"}},{"type":"Feature","geometry":{"type":"Point","coordinates":[-6.654452,55.2048946]},"properties":{"name":"KiddieLand Amusements","layer":"theme-parks","note":"OpenStreetMap","osm_id":"way/1314610664","osm_url":"https://www.openstreetmap.org/way/1314610664","source":"OpenStreetMap"}},{"type":"Feature","geometry":{"type":"Point","coordinates":[-0.8060624,54.2095422]},"properties":{"name":"Flamingo Land","layer":"theme-parks","note":"OpenStreetMap","osm_id":"way/131497532","osm_url":"https://www.openstreetmap.org/way/131497532","source":"OpenStreetMap"}},{"type":"Feature","geometry":{"type":"Point","coordinates":[-2.4418659,51.6929413]},"properties":{"name":"Cattle Country Farm Park","layer":"theme-parks","note":"Cattle Country Farm Park","osm_id":"way/1360858200","osm_url":"https://www.openstreetmap.org/way/1360858200","source":"OpenStreetMap","brand":"Cattle Country Farm Park"}},{"type":"Feature","geometry":{"type":"Point","coordinates":[1.1186865,52.7121352]},"properties":{"name":"Roarr!","layer":"theme-parks","note":"OpenStreetMap","osm_id":"way/1366708204","osm_url":"https://www.openstreetmap.org/way/1366708204","source":"OpenStreetMap"}},{"type":"Feature","geometry":{"type":"Point","coordinates":[1.4510897,52.711188]},"properties":{"name":"BeWilderwood Norwich","layer":"theme-parks","note":"OpenStreetMap","osm_id":"way/1367203280","osm_url":"https://www.openstreetmap.org/way/1367203280","source":"OpenStreetMap"}},{"type":"Feature","geometry":{"type":"Point","coordinates":[-1.5449677,52.7417911]},"properties":{"name":"Conkers","layer":"theme-parks","note":"OpenStreetMap","osm_id":"way/137105580","osm_url":"https://www.openstreetmap.org/way/137105580","source":"OpenStreetMap"}},{"type":"Feature","geometry":{"type":"Point","coordinates":[-3.3786218,50.8767972]},"properties":{"name":"Diggerland","layer":"theme-parks","note":"OpenStreetMap","osm_id":"way/138219579","osm_url":"https://www.openstreetmap.org/way/138219579","source":"OpenStreetMap"}},{"type":"Feature","geometry":{"type":"Point","coordinates":[-9.0839565,53.2588454]},"properties":{"name":"Curry's Fun Park","layer":"theme-parks","note":"OpenStreetMap","osm_id":"way/141749935","osm_url":"https://www.openstreetmap.org/way/141749935","source":"OpenStreetMap"}},{"type":"Feature","geometry":{"type":"Point","coordinates":[-1.6775286,54.8015173]},"properties":{"name":"Diggerland","layer":"theme-parks","note":"OpenStreetMap","osm_id":"way/144172126","osm_url":"https://www.openstreetmap.org/way/144172126","source":"OpenStreetMap"}},{"type":"Feature","geometry":{"type":"Point","coordinates":[-0.3876141,53.8151737]},"properties":{"name":"Let Loose! Adventure Park","layer":"theme-parks","note":"OpenStreetMap","osm_id":"way/1445835698","osm_url":"https://www.openstreetmap.org/way/1445835698","source":"OpenStreetMap"}},{"type":"Feature","geometry":{"type":"Point","coordinates":[-1.8379769,52.6854795]},"properties":{"name":"Theme park","layer":"theme-parks","note":"OpenStreetMap","osm_id":"way/1453725294","osm_url":"https://www.openstreetmap.org/way/1453725294","source":"OpenStreetMap"}},{"type":"Feature","geometry":{"type":"Point","coordinates":[-3.6643905,50.5556744]},"properties":{"name":"Trago Family Fun Park","layer":"theme-parks","note":"Trago Mills SD Ltd","osm_id":"way/148974085","osm_url":"https://www.openstreetmap.org/way/148974085","source":"OpenStreetMap","brand":"Trago Mills SD Ltd"}},{"type":"Feature","geometry":{"type":"Point","coordinates":[-3.934469,53.0075719]},"properties":{"name":"ZipWorld Llechwedd","layer":"theme-parks","note":"ZipWorld","osm_id":"way/1503953569","osm_url":"https://www.openstreetmap.org/way/1503953569","source":"OpenStreetMap","brand":"ZipWorld"}},{"type":"Feature","geometry":{"type":"Point","coordinates":[-3.6725458,50.3554731]},"properties":{"name":"Woodlands Family Theme Park","layer":"theme-parks","note":"OpenStreetMap","osm_id":"way/150576346","osm_url":"https://www.openstreetmap.org/way/150576346","source":"OpenStreetMap"}},{"type":"Feature","geometry":{"type":"Point","coordinates":[-1.312005,50.5880384]},"properties":{"name":"Blackgang Chine Theme Park","layer":"theme-parks","note":"Vectis Ventures Ltd","osm_id":"way/151234025","osm_url":"https://www.openstreetmap.org/way/151234025","source":"OpenStreetMap","brand":"Vectis Ventures Ltd"}},{"type":"Feature","geometry":{"type":"Point","coordinates":[-1.69764,55.4150465]},"properties":{"name":"Lilidorei","layer":"theme-parks","note":"OpenStreetMap","osm_id":"way/1540970359","osm_url":"https://www.openstreetmap.org/way/1540970359","source":"OpenStreetMap"}},{"type":"Feature","geometry":{"type":"Point","coordinates":[-1.3837103,53.7187435]},"properties":{"name":"Diggerland Yorkshire","layer":"theme-parks","note":"Diggerland","osm_id":"way/157875245","osm_url":"https://www.openstreetmap.org/way/157875245","source":"OpenStreetMap","brand":"Diggerland"}},{"type":"Feature","geometry":{"type":"Point","coordinates":[-1.5522535,50.9483161]},"properties":{"name":"Paultons Park","layer":"theme-parks","note":"Paultons Park Ltd","osm_id":"way/159003552","osm_url":"https://www.openstreetmap.org/way/159003552","source":"OpenStreetMap","brand":"Paultons Park Ltd"}},{"type":"Feature","geometry":{"type":"Point","coordinates":[-3.0552463,53.7906695]},"properties":{"name":"Blackpool Pleasure Beach","layer":"theme-parks","note":"OpenStreetMap","osm_id":"way/162590644","osm_url":"https://www.openstreetmap.org/way/162590644","source":"OpenStreetMap"}},{"type":"Feature","geometry":{"type":"Point","coordinates":[-4.0042562,51.1887029]},"properties":{"name":"Combe Martin Wildlife and Dinosaur Park","layer":"theme-parks","note":"OpenStreetMap","osm_id":"way/163929134","osm_url":"https://www.openstreetmap.org/way/163929134","source":"OpenStreetMap"}},{"type":"Feature","geometry":{"type":"Point","coordinates":[-1.5697547,54.1743474]},"properties":{"name":"Lightwater Valley","layer":"theme-parks","note":"OpenStreetMap","osm_id":"way/163976350","osm_url":"https://www.openstreetmap.org/way/163976350","source":"OpenStreetMap"}},{"type":"Feature","geometry":{"type":"Point","coordinates":[-1.1710686,50.6322084]},"properties":{"name":"Pirates Cove Fun Park","layer":"theme-parks","note":"Summer Arcade","osm_id":"way/165067014","osm_url":"https://www.openstreetmap.org/way/165067014","source":"OpenStreetMap","brand":"Summer Arcade"}},{"type":"Feature","geometry":{"type":"Point","coordinates":[1.1554269,51.7875419]},"properties":{"name":"Pavilion Fun Park","layer":"theme-parks","note":"OpenStreetMap","osm_id":"way/173589462","osm_url":"https://www.openstreetmap.org/way/173589462","source":"OpenStreetMap"}},{"type":"Feature","geometry":{"type":"Point","coordinates":[0.4825422,52.9339301]},"properties":{"name":"Rainbow Park","layer":"theme-parks","note":"OpenStreetMap","osm_id":"way/176721420","osm_url":"https://www.openstreetmap.org/way/176721420","source":"OpenStreetMap"}},{"type":"Feature","geometry":{"type":"Point","coordinates":[1.735984,52.5932523]},"properties":{"name":"Pleasure Beach","layer":"theme-parks","note":"OpenStreetMap","osm_id":"way/179321094","osm_url":"https://www.openstreetmap.org/way/179321094","source":"OpenStreetMap"}},{"type":"Feature","geometry":{"type":"Point","coordinates":[-8.2936249,51.8026541]},"properties":{"name":"Piper's Amusements","layer":"theme-parks","note":"OpenStreetMap","osm_id":"way/179687125","osm_url":"https://www.openstreetmap.org/way/179687125","source":"OpenStreetMap"}},{"type":"Feature","geometry":{"type":"Point","coordinates":[-0.1223126,50.8679879]},"properties":{"name":"Phileas Foggs World of Adventures","layer":"theme-parks","note":"OpenStreetMap","osm_id":"way/181524079","osm_url":"https://www.openstreetmap.org/way/181524079","source":"OpenStreetMap"}},{"type":"Feature","geometry":{"type":"Point","coordinates":[-1.01203,53.9621931]},"properties":{"name":"Murton Park","layer":"theme-parks","note":"OpenStreetMap","osm_id":"way/182783805","osm_url":"https://www.openstreetmap.org/way/182783805","source":"OpenStreetMap"}},{"type":"Feature","geometry":{"type":"Point","coordinates":[-0.3866669,54.283774]},"properties":{"name":"Luna Park","layer":"theme-parks","note":"Luna Park Leisure Limited","osm_id":"way/185590965","osm_url":"https://www.openstreetmap.org/way/185590965","source":"OpenStreetMap","brand":"Luna Park Leisure Limited"}},{"type":"Feature","geometry":{"type":"Point","coordinates":[-2.4445107,52.6684156]},"properties":{"name":"Wonderland","layer":"theme-parks","note":"OpenStreetMap","osm_id":"way/186694569","osm_url":"https://www.openstreetmap.org/way/186694569","source":"OpenStreetMap"}},{"type":"Feature","geometry":{"type":"Point","coordinates":[-2.9799393,51.3478353]},"properties":{"name":"Olympia Arcade","layer":"theme-parks","note":"OpenStreetMap","osm_id":"way/200146586","osm_url":"https://www.openstreetmap.org/way/200146586","source":"OpenStreetMap"}},{"type":"Feature","geometry":{"type":"Point","coordinates":[-1.2213171,53.0072787]},"properties":{"name":"Red Kangaroo","layer":"theme-parks","note":"OpenStreetMap","osm_id":"way/220442834","osm_url":"https://www.openstreetmap.org/way/220442834","source":"OpenStreetMap"}},{"type":"Feature","geometry":{"type":"Point","coordinates":[-6.2740287,52.9739646]},"properties":{"name":"Clara Lara Funpark","layer":"theme-parks","note":"OpenStreetMap","osm_id":"way/229201729","osm_url":"https://www.openstreetmap.org/way/229201729","source":"OpenStreetMap"}},{"type":"Feature","geometry":{"type":"Point","coordinates":[-0.3178782,51.3494716]},"properties":{"name":"Chessington World of Adventures","layer":"theme-parks","note":"Merlin","osm_id":"way/23248424","osm_url":"https://www.openstreetmap.org/way/23248424","source":"OpenStreetMap","brand":"Merlin"}},{"type":"Feature","geometry":{"type":"Point","coordinates":[-0.8574814,52.7839137]},"properties":{"name":"Twin Lakes Adventure Park","layer":"theme-parks","note":"OpenStreetMap","osm_id":"way/235214165","osm_url":"https://www.openstreetmap.org/way/235214165","source":"OpenStreetMap"}},{"type":"Feature","geometry":{"type":"Point","coordinates":[-0.7079794,52.3819561]},"properties":{"name":"Wicksteed Park","layer":"theme-parks","note":"OpenStreetMap","osm_id":"way/23659476","osm_url":"https://www.openstreetmap.org/way/23659476","source":"OpenStreetMap"}},{"type":"Feature","geometry":{"type":"Point","coordinates":[-1.000979,54.0211661]},"properties":{"name":"Piglet's Adventure Farm Park","layer":"theme-parks","note":"OpenStreetMap","osm_id":"way/241053722","osm_url":"https://www.openstreetmap.org/way/241053722","source":"OpenStreetMap"}},{"type":"Feature","geometry":{"type":"Point","coordinates":[-2.0765009,52.5214732]},"properties":{"name":"The Black Country Living Museum","layer":"theme-parks","note":"OpenStreetMap","osm_id":"way/24989632","osm_url":"https://www.openstreetmap.org/way/24989632","source":"OpenStreetMap"}},{"type":"Feature","geometry":{"type":"Point","coordinates":[-0.8582536,52.2748905]},"properties":{"name":"Berserk","layer":"theme-parks","note":"OpenStreetMap","osm_id":"way/256131807","osm_url":"https://www.openstreetmap.org/way/256131807","source":"OpenStreetMap"}},{"type":"Feature","geometry":{"type":"Point","coordinates":[-1.5647494,53.1176374]},"properties":{"name":"Gulliver's Kingdom","layer":"theme-parks","note":"OpenStreetMap","osm_id":"way/256617820","osm_url":"https://www.openstreetmap.org/way/256617820","source":"OpenStreetMap"}},{"type":"Feature","geometry":{"type":"Point","coordinates":[-1.8831947,52.9882648]},"properties":{"name":"Alton Towers Resort","layer":"theme-parks","note":"Merlin Entertainments","osm_id":"way/25798916","osm_url":"https://www.openstreetmap.org/way/25798916","source":"OpenStreetMap","brand":"Merlin Entertainments"}},{"type":"Feature","geometry":{"type":"Point","coordinates":[-9.5383153,53.8015133]},"properties":{"name":"Pirates Haven","layer":"theme-parks","note":"OpenStreetMap","osm_id":"way/258841572","osm_url":"https://www.openstreetmap.org/way/258841572","source":"OpenStreetMap"}},{"type":"Feature","geometry":{"type":"Point","coordinates":[-3.5455806,53.305503]},"properties":{"name":"Knightly's Fun Park","layer":"theme-parks","note":"OpenStreetMap","osm_id":"way/259042025","osm_url":"https://www.openstreetmap.org/way/259042025","source":"OpenStreetMap"}},{"type":"Feature","geometry":{"type":"Point","coordinates":[-2.6187265,53.4059739]},"properties":{"name":"Gulliver's World","layer":"theme-parks","note":"OpenStreetMap","osm_id":"way/26790861","osm_url":"https://www.openstreetmap.org/way/26790861","source":"OpenStreetMap"}},{"type":"Feature","geometry":{"type":"Point","coordinates":[-2.9764286,53.5493295]},"properties":{"name":"Farmer Ted's Farm Park","layer":"theme-parks","note":"OpenStreetMap","osm_id":"way/271608889","osm_url":"https://www.openstreetmap.org/way/271608889","source":"OpenStreetMap"}},{"type":"Feature","geometry":{"type":"Point","coordinates":[-1.536404,54.8061991]},"properties":{"name":"Adventure Valley","layer":"theme-parks","note":"OpenStreetMap","osm_id":"way/285330228","osm_url":"https://www.openstreetmap.org/way/285330228","source":"OpenStreetMap"}},{"type":"Feature","geometry":{"type":"Point","coordinates":[-0.6515252,51.4633918]},"properties":{"name":"Legoland Windsor","layer":"theme-parks","note":"LEGOLAND","osm_id":"way/28911088","osm_url":"https://www.openstreetmap.org/way/28911088","source":"OpenStreetMap","brand":"LEGOLAND"}},{"type":"Feature","geometry":{"type":"Point","coordinates":[-2.4203862,50.6370876]},"properties":{"name":"Fantasy Island Fun Park","layer":"theme-parks","note":"OpenStreetMap","osm_id":"way/289198641","osm_url":"https://www.openstreetmap.org/way/289198641","source":"OpenStreetMap"}},{"type":"Feature","geometry":{"type":"Point","coordinates":[-2.4465923,50.6256405]},"properties":{"name":"Leisure Ranch","layer":"theme-parks","note":"OpenStreetMap","osm_id":"way/289990023","osm_url":"https://www.openstreetmap.org/way/289990023","source":"OpenStreetMap"}},{"type":"Feature","geometry":{"type":"Point","coordinates":[-2.4464742,50.6260264]},"properties":{"name":"Sandworld","layer":"theme-parks","note":"OpenStreetMap","osm_id":"way/289991334","osm_url":"https://www.openstreetmap.org/way/289991334","source":"OpenStreetMap"}},{"type":"Feature","geometry":{"type":"Point","coordinates":[-1.6918624,52.8065002]},"properties":{"name":"National Forest Adventure Farm","layer":"theme-parks","note":"OpenStreetMap","osm_id":"way/297608569","osm_url":"https://www.openstreetmap.org/way/297608569","source":"OpenStreetMap"}},{"type":"Feature","geometry":{"type":"Point","coordinates":[-8.7242395,52.7085926]},"properties":{"name":"Shooting Range","layer":"theme-parks","note":"OpenStreetMap","osm_id":"way/300006841","osm_url":"https://www.openstreetmap.org/way/300006841","source":"OpenStreetMap"}},{"type":"Feature","geometry":{"type":"Point","coordinates":[-6.3636571,53.7053482]},"properties":{"name":"Funtasia","layer":"theme-parks","note":"OpenStreetMap","osm_id":"way/301226552","osm_url":"https://www.openstreetmap.org/way/301226552","source":"OpenStreetMap"}},{"type":"Feature","geometry":{"type":"Point","coordinates":[-1.3093348,53.3470988]},"properties":{"name":"Gulliver's Valley Resort","layer":"theme-parks","note":"OpenStreetMap","osm_id":"way/302785591","osm_url":"https://www.openstreetmap.org/way/302785591","source":"OpenStreetMap"}},{"type":"Feature","geometry":{"type":"Point","coordinates":[-2.2773245,53.4017995]},"properties":{"name":"Seasonal Fairground","layer":"theme-parks","note":"OpenStreetMap","osm_id":"way/309064458","osm_url":"https://www.openstreetmap.org/way/309064458","source":"OpenStreetMap"}},{"type":"Feature","geometry":{"type":"Point","coordinates":[-1.1540511,50.7314838]},"properties":{"name":"Peter Pans (funfair)","layer":"theme-parks","note":"OpenStreetMap","osm_id":"way/312918472","osm_url":"https://www.openstreetmap.org/way/312918472","source":"OpenStreetMap"}},{"type":"Feature","geometry":{"type":"Point","coordinates":[-3.5331992,53.3042444]},"properties":{"name":"Tir Prince Funland Amusement Park","layer":"theme-parks","note":"OpenStreetMap","osm_id":"way/324050752","osm_url":"https://www.openstreetmap.org/way/324050752","source":"OpenStreetMap"}},{"type":"Feature","geometry":{"type":"Point","coordinates":[-0.5142569,51.4032739]},"properties":{"name":"Thorpe Park","layer":"theme-parks","note":"Merlin Entertainments","osm_id":"way/32765688","osm_url":"https://www.openstreetmap.org/way/32765688","source":"OpenStreetMap","brand":"Merlin Entertainments"}},{"type":"Feature","geometry":{"type":"Point","coordinates":[-6.6539464,55.2034129]},"properties":{"name":"Curry's Fun Park","layer":"theme-parks","note":"OpenStreetMap","osm_id":"way/330210154","osm_url":"https://www.openstreetmap.org/way/330210154","source":"OpenStreetMap"}},{"type":"Feature","geometry":{"type":"Point","coordinates":[-1.9026776,52.4522453]},"properties":{"name":"Fun Park","layer":"theme-parks","note":"OpenStreetMap","osm_id":"way/331324129","osm_url":"https://www.openstreetmap.org/way/331324129","source":"OpenStreetMap"}},{"type":"Feature","geometry":{"type":"Point","coordinates":[-1.9579817,50.6102071]},"properties":{"name":"Santa-Fe Fun Park","layer":"theme-parks","note":"OpenStreetMap","osm_id":"way/331901935","osm_url":"https://www.openstreetmap.org/way/331901935","source":"OpenStreetMap"}},{"type":"Feature","geometry":{"type":"Point","coordinates":[-1.0662571,53.1092443]},"properties":{"name":"Wheelgate Park","layer":"theme-parks","note":"OpenStreetMap","osm_id":"way/333264508","osm_url":"https://www.openstreetmap.org/way/333264508","source":"OpenStreetMap"}},{"type":"Feature","geometry":{"type":"Point","coordinates":[-0.6616095,50.7854155]},"properties":{"name":"Butlins Bognor Regis","layer":"theme-parks","note":"OpenStreetMap","osm_id":"way/34069014","osm_url":"https://www.openstreetmap.org/way/34069014","source":"OpenStreetMap"}},{"type":"Feature","geometry":{"type":"Point","coordinates":[1.3427299,51.9559991]},"properties":{"name":"Ocean Boulevard","layer":"theme-parks","note":"OpenStreetMap","osm_id":"way/343276676","osm_url":"https://www.openstreetmap.org/way/343276676","source":"OpenStreetMap"}},{"type":"Feature","geometry":{"type":"Point","coordinates":[-4.0706162,51.211996]},"properties":{"name":"Watermouth Castle","layer":"theme-parks","note":"OpenStreetMap","osm_id":"way/350890589","osm_url":"https://www.openstreetmap.org/way/350890589","source":"OpenStreetMap"}},{"type":"Feature","geometry":{"type":"Point","coordinates":[-1.57829,52.2821045]},"properties":{"name":"Amusement Park","layer":"theme-parks","note":"OpenStreetMap","osm_id":"way/354672689","osm_url":"https://www.openstreetmap.org/way/354672689","source":"OpenStreetMap"}},{"type":"Feature","geometry":{"type":"Point","coordinates":[-0.5417821,50.8031778]},"properties":{"name":"Harbour Park","layer":"theme-parks","note":"OpenStreetMap","osm_id":"way/369531604","osm_url":"https://www.openstreetmap.org/way/369531604","source":"OpenStreetMap"}},{"type":"Feature","geometry":{"type":"Point","coordinates":[-0.8102972,53.303949]},"properties":{"name":"Sundown Adventureland","layer":"theme-parks","note":"OpenStreetMap","osm_id":"way/369599100","osm_url":"https://www.openstreetmap.org/way/369599100","source":"OpenStreetMap"}},{"type":"Feature","geometry":{"type":"Point","coordinates":[1.3778535,51.3851617]},"properties":{"name":"Dreamland Margate","layer":"theme-parks","note":"Sands Heritage Limited","osm_id":"way/370175525","osm_url":"https://www.openstreetmap.org/way/370175525","source":"OpenStreetMap","brand":"Sands Heritage Limited"}},{"type":"Feature","geometry":{"type":"Point","coordinates":[-4.0267521,56.1619497]},"properties":{"name":"Briarlands Farm","layer":"theme-parks","note":"OpenStreetMap","osm_id":"way/373172991","osm_url":"https://www.openstreetmap.org/way/373172991","source":"OpenStreetMap"}},{"type":"Feature","geometry":{"type":"Point","coordinates":[-8.7257884,52.7095462]},"properties":{"name":"Woodcock Hill Airsoft & Adventure Centre","layer":"theme-parks","note":"Woodcock Hill Airsoft & Adventure Centre Co Clare","osm_id":"way/376180175","osm_url":"https://www.openstreetmap.org/way/376180175","source":"OpenStreetMap","brand":"Woodcock Hill Airsoft & Adventure Centre Co Clare"}},{"type":"Feature","geometry":{"type":"Point","coordinates":[-4.2436051,51.0154001]},"properties":{"name":"The BIG Sheep","layer":"theme-parks","note":"OpenStreetMap","osm_id":"way/387222964","osm_url":"https://www.openstreetmap.org/way/387222964","source":"OpenStreetMap"}},{"type":"Feature","geometry":{"type":"Point","coordinates":[-0.730075,52.0487269]},"properties":{"name":"Gulliver's Dinosaur and Farm Park","layer":"theme-parks","note":"Gulliver's Theme Parks","osm_id":"way/391153488","osm_url":"https://www.openstreetmap.org/way/391153488","source":"OpenStreetMap","brand":"Gulliver's Theme Parks"}},{"type":"Feature","geometry":{"type":"Point","coordinates":[-1.8569194,54.275153]},"properties":{"name":"The Forbidden Corner","layer":"theme-parks","note":"OpenStreetMap","osm_id":"way/39249624","osm_url":"https://www.openstreetmap.org/way/39249624","source":"OpenStreetMap"}},{"type":"Feature","geometry":{"type":"Point","coordinates":[-3.0098072,51.2857698]},"properties":{"name":"Brean Theme Park","layer":"theme-parks","note":"OpenStreetMap","osm_id":"way/394210603","osm_url":"https://www.openstreetmap.org/way/394210603","source":"OpenStreetMap"}},{"type":"Feature","geometry":{"type":"Point","coordinates":[-0.6448228,51.6137759]},"properties":{"name":"Bekonscot Model Village","layer":"theme-parks","note":"OpenStreetMap","osm_id":"way/40110523","osm_url":"https://www.openstreetmap.org/way/40110523","source":"OpenStreetMap"}},{"type":"Feature","geometry":{"type":"Point","coordinates":[-2.5993756,56.5519938]},"properties":{"name":"West Links Park","layer":"theme-parks","note":"OpenStreetMap","osm_id":"way/408340855","osm_url":"https://www.openstreetmap.org/way/408340855","source":"OpenStreetMap"}},{"type":"Feature","geometry":{"type":"Point","coordinates":[-6.5978078,55.111547]},"properties":{"name":"Damhead Miniature Railway","layer":"theme-parks","note":"Coleraine and District Society of Model Engineers Ltd","osm_id":"way/416450214","osm_url":"https://www.openstreetmap.org/way/416450214","source":"OpenStreetMap","brand":"Coleraine and District Society of Model Engineers Ltd"}},{"type":"Feature","geometry":{"type":"Point","coordinates":[-5.8431729,54.888592]},"properties":{"name":"Carnfunnock Family Fun Zone","layer":"theme-parks","note":"OpenStreetMap","osm_id":"way/416453530","osm_url":"https://www.openstreetmap.org/way/416453530","source":"OpenStreetMap"}},{"type":"Feature","geometry":{"type":"Point","coordinates":[-8.2766716,54.4812674]},"properties":{"name":"Bundoran Adventure Park","layer":"theme-parks","note":"Bundoran Adventure Park","osm_id":"way/418784021","osm_url":"https://www.openstreetmap.org/way/418784021","source":"OpenStreetMap","brand":"Bundoran Adventure Park"}},{"type":"Feature","geometry":{"type":"Point","coordinates":[-5.6059744,54.6093403]},"properties":{"name":"Drumawhey Junction Railway","layer":"theme-parks","note":"Belfast & County Down Miniature Railway Society","osm_id":"way/421660802","osm_url":"https://www.openstreetmap.org/way/421660802","source":"OpenStreetMap","brand":"Belfast & County Down Miniature Railway Society"}},{"type":"Feature","geometry":{"type":"Point","coordinates":[-3.0180825,53.6486283]},"properties":{"name":"Southport Pleasureland","layer":"theme-parks","note":"OpenStreetMap","osm_id":"way/42249600","osm_url":"https://www.openstreetmap.org/way/42249600","source":"OpenStreetMap"}},{"type":"Feature","geometry":{"type":"Point","coordinates":[-4.9306726,50.4892856]},"properties":{"name":"Camel Creek Adventure Park","layer":"theme-parks","note":"OpenStreetMap","osm_id":"way/428804528","osm_url":"https://www.openstreetmap.org/way/428804528","source":"OpenStreetMap"}},{"type":"Feature","geometry":{"type":"Point","coordinates":[-9.2823915,53.8484034]},"properties":{"name":"Funster Playcentre","layer":"theme-parks","note":"OpenStreetMap","osm_id":"way/449435436","osm_url":"https://www.openstreetmap.org/way/449435436","source":"OpenStreetMap"}},{"type":"Feature","geometry":{"type":"Point","coordinates":[-2.4026869,50.9946089]},"properties":{"name":"Gartell Light Railway","layer":"theme-parks","note":"OpenStreetMap","osm_id":"way/453763986","osm_url":"https://www.openstreetmap.org/way/453763986","source":"OpenStreetMap"}},{"type":"Feature","geometry":{"type":"Point","coordinates":[-1.3035794,50.7312995]},"properties":{"name":"Theme park","layer":"theme-parks","note":"OpenStreetMap","osm_id":"way/462303731","osm_url":"https://www.openstreetmap.org/way/462303731","source":"OpenStreetMap"}},{"type":"Feature","geometry":{"type":"Point","coordinates":[-0.7309629,52.0510355]},"properties":{"name":"Gulliver's Land","layer":"theme-parks","note":"OpenStreetMap","osm_id":"way/46605120","osm_url":"https://www.openstreetmap.org/way/46605120","source":"OpenStreetMap"}},{"type":"Feature","geometry":{"type":"Point","coordinates":[-0.6448557,52.5016822]},"properties":{"name":"Adrenaline Alley","layer":"theme-parks","note":"OpenStreetMap","osm_id":"way/478526006","osm_url":"https://www.openstreetmap.org/way/478526006","source":"OpenStreetMap"}},{"type":"Feature","geometry":{"type":"Point","coordinates":[-1.2696504,51.3681725]},"properties":{"name":"Four Kingdoms","layer":"theme-parks","note":"OpenStreetMap","osm_id":"way/478685774","osm_url":"https://www.openstreetmap.org/way/478685774","source":"OpenStreetMap"}},{"type":"Feature","geometry":{"type":"Point","coordinates":[-2.5000975,57.0502079]},"properties":{"name":"Bellfield Amusements","layer":"theme-parks","note":"OpenStreetMap","osm_id":"way/486040737","osm_url":"https://www.openstreetmap.org/way/486040737","source":"OpenStreetMap"}},{"type":"Feature","geometry":{"type":"Point","coordinates":[-2.2592052,53.5302432]},"properties":{"name":"Heaton Park Fair Ground","layer":"theme-parks","note":"OpenStreetMap","osm_id":"way/486643267","osm_url":"https://www.openstreetmap.org/way/486643267","source":"OpenStreetMap"}},{"type":"Feature","geometry":{"type":"Point","coordinates":[-2.2817263,52.3373602]},"properties":{"name":"Danter's Treasure Island Amusement Park","layer":"theme-parks","note":"OpenStreetMap","osm_id":"way/488976360","osm_url":"https://www.openstreetmap.org/way/488976360","source":"OpenStreetMap"}},{"type":"Feature","geometry":{"type":"Point","coordinates":[-2.2838108,52.3381531]},"properties":{"name":"Playland Fun Park","layer":"theme-parks","note":"OpenStreetMap","osm_id":"way/496240664","osm_url":"https://www.openstreetmap.org/way/496240664","source":"OpenStreetMap"}},{"type":"Feature","geometry":{"type":"Point","coordinates":[-1.9903252,55.756787]},"properties":{"name":"Family Fun Centre","layer":"theme-parks","note":"OpenStreetMap","osm_id":"way/533311035","osm_url":"https://www.openstreetmap.org/way/533311035","source":"OpenStreetMap"}},{"type":"Feature","geometry":{"type":"Point","coordinates":[-4.1948389,53.1808712]},"properties":{"name":"Greenwood Family Park","layer":"theme-parks","note":"OpenStreetMap","osm_id":"way/535718368","osm_url":"https://www.openstreetmap.org/way/535718368","source":"OpenStreetMap"}},{"type":"Feature","geometry":{"type":"Point","coordinates":[0.1621202,50.9115963]},"properties":{"name":"Blackberry Farm Park","layer":"theme-parks","note":"OpenStreetMap","osm_id":"way/549957277","osm_url":"https://www.openstreetmap.org/way/549957277","source":"OpenStreetMap"}},{"type":"Feature","geometry":{"type":"Point","coordinates":[-3.4151261,50.7036054]},"properties":{"name":"Crealy Adventure Park","layer":"theme-parks","note":"OpenStreetMap","osm_id":"way/56139715","osm_url":"https://www.openstreetmap.org/way/56139715","source":"OpenStreetMap"}},{"type":"Feature","geometry":{"type":"Point","coordinates":[-1.2415565,50.6873801]},"properties":{"name":"Robin Hill","layer":"theme-parks","note":"OpenStreetMap","osm_id":"way/5667125","osm_url":"https://www.openstreetmap.org/way/5667125","source":"OpenStreetMap"}},{"type":"Feature","geometry":{"type":"Point","coordinates":[-1.0613884,53.109046]},"properties":{"name":"White Post Farm","layer":"theme-parks","note":"OpenStreetMap","osm_id":"way/567586354","osm_url":"https://www.openstreetmap.org/way/567586354","source":"OpenStreetMap"}},{"type":"Feature","geometry":{"type":"Point","coordinates":[-2.6264109,51.4439295]},"properties":{"name":"City Mazes","layer":"theme-parks","note":"OpenStreetMap","osm_id":"way/570510049","osm_url":"https://www.openstreetmap.org/way/570510049","source":"OpenStreetMap"}},{"type":"Feature","geometry":{"type":"Point","coordinates":[0.9949009,51.0238733]},"properties":{"name":"Dymchurch Amusements","layer":"theme-parks","note":"OpenStreetMap","osm_id":"way/597703937","osm_url":"https://www.openstreetmap.org/way/597703937","source":"OpenStreetMap"}},{"type":"Feature","geometry":{"type":"Point","coordinates":[1.744623,52.5074431]},"properties":{"name":"Pleasurewood Hills","layer":"theme-parks","note":"OpenStreetMap","osm_id":"way/5989183","osm_url":"https://www.openstreetmap.org/way/5989183","source":"OpenStreetMap"}},{"type":"Feature","geometry":{"type":"Point","coordinates":[-4.1477973,50.3643955]},"properties":{"name":"Theme park","layer":"theme-parks","note":"OpenStreetMap","osm_id":"way/601365883","osm_url":"https://www.openstreetmap.org/way/601365883","source":"OpenStreetMap"}},{"type":"Feature","geometry":{"type":"Point","coordinates":[1.685964,52.4516852]},"properties":{"name":"East Anglia Transport Museum","layer":"theme-parks","note":"The East Anglia Transport Museum Society Ltd.","osm_id":"way/614189968","osm_url":"https://www.openstreetmap.org/way/614189968","source":"OpenStreetMap","brand":"The East Anglia Transport Museum Society Ltd."}},{"type":"Feature","geometry":{"type":"Point","coordinates":[-0.1859192,54.0834904]},"properties":{"name":"Bayside Fun Park","layer":"theme-parks","note":"OpenStreetMap","osm_id":"way/614823994","osm_url":"https://www.openstreetmap.org/way/614823994","source":"OpenStreetMap"}},{"type":"Feature","geometry":{"type":"Point","coordinates":[-4.2352506,51.0432554]},"properties":{"name":"Pebble Ridge Adventure Golf and Go Karts","layer":"theme-parks","note":"OpenStreetMap","osm_id":"way/617505193","osm_url":"https://www.openstreetmap.org/way/617505193","source":"OpenStreetMap"}},{"type":"Feature","geometry":{"type":"Point","coordinates":[-0.8077157,50.7346151]},"properties":{"name":"West Sands Fun Fair","layer":"theme-parks","note":"OpenStreetMap","osm_id":"way/620365571","osm_url":"https://www.openstreetmap.org/way/620365571","source":"OpenStreetMap"}},{"type":"Feature","geometry":{"type":"Point","coordinates":[-1.4174733,55.0015026]},"properties":{"name":"Ocean Beach Pleasure Park","layer":"theme-parks","note":"OpenStreetMap","osm_id":"way/64957465","osm_url":"https://www.openstreetmap.org/way/64957465","source":"OpenStreetMap"}},{"type":"Feature","geometry":{"type":"Point","coordinates":[-1.3445966,53.4325217]},"properties":{"name":"Fun Park","layer":"theme-parks","note":"OpenStreetMap","osm_id":"way/667548574","osm_url":"https://www.openstreetmap.org/way/667548574","source":"OpenStreetMap"}},{"type":"Feature","geometry":{"type":"Point","coordinates":[-1.4631509,54.9954946]},"properties":{"name":"Inflata Nation","layer":"theme-parks","note":"OpenStreetMap","osm_id":"way/681507505","osm_url":"https://www.openstreetmap.org/way/681507505","source":"OpenStreetMap"}},{"type":"Feature","geometry":{"type":"Point","coordinates":[-3.6132457,51.5464403]},"properties":{"name":"Bridgend Minature Railway","layer":"theme-parks","note":"Bridgend Minature Railway","osm_id":"way/725389333","osm_url":"https://www.openstreetmap.org/way/725389333","source":"OpenStreetMap","brand":"Bridgend Minature Railway"}},{"type":"Feature","geometry":{"type":"Point","coordinates":[-2.6818831,53.0409573]},"properties":{"name":"BeWILDerwood","layer":"theme-parks","note":"OpenStreetMap","osm_id":"way/730778065","osm_url":"https://www.openstreetmap.org/way/730778065","source":"OpenStreetMap"}},{"type":"Feature","geometry":{"type":"Point","coordinates":[0.2330701,50.8630447]},"properties":{"name":"Knockhatch Adventure Park","layer":"theme-parks","note":"OpenStreetMap","osm_id":"way/733052310","osm_url":"https://www.openstreetmap.org/way/733052310","source":"OpenStreetMap"}},{"type":"Feature","geometry":{"type":"Point","coordinates":[-2.9803554,51.3477812]},"properties":{"name":"Goldengate Amusements","layer":"theme-parks","note":"OpenStreetMap","osm_id":"way/751734201","osm_url":"https://www.openstreetmap.org/way/751734201","source":"OpenStreetMap"}},{"type":"Feature","geometry":{"type":"Point","coordinates":[0.3469948,53.1914802]},"properties":{"name":"Fantasy Island","layer":"theme-parks","note":"OpenStreetMap","osm_id":"way/76912242","osm_url":"https://www.openstreetmap.org/way/76912242","source":"OpenStreetMap"}},{"type":"Feature","geometry":{"type":"Point","coordinates":[-2.9866009,51.347791]},"properties":{"name":"Grand Pier Main Pavilion","layer":"theme-parks","note":"OpenStreetMap","osm_id":"way/78065425","osm_url":"https://www.openstreetmap.org/way/78065425","source":"OpenStreetMap"}},{"type":"Feature","geometry":{"type":"Point","coordinates":[0.3026317,50.7761162]},"properties":{"name":"Treasure Island & Adventure Golf","layer":"theme-parks","note":"OpenStreetMap","osm_id":"way/821625182","osm_url":"https://www.openstreetmap.org/way/821625182","source":"OpenStreetMap"}},{"type":"Feature","geometry":{"type":"Point","coordinates":[0.3117879,50.780458]},"properties":{"name":"Fort Fun","layer":"theme-parks","note":"OpenStreetMap","osm_id":"way/821625184","osm_url":"https://www.openstreetmap.org/way/821625184","source":"OpenStreetMap"}},{"type":"Feature","geometry":{"type":"Point","coordinates":[1.1553314,51.7872881]},"properties":{"name":"The Pavilion Waterpark","layer":"theme-parks","note":"OpenStreetMap","osm_id":"way/832254734","osm_url":"https://www.openstreetmap.org/way/832254734","source":"OpenStreetMap"}},{"type":"Feature","geometry":{"type":"Point","coordinates":[-2.2940219,52.3785674]},"properties":{"name":"Safari Park Theme Park","layer":"theme-parks","note":"West Midlands Safari PArk","osm_id":"way/840774693","osm_url":"https://www.openstreetmap.org/way/840774693","source":"OpenStreetMap","brand":"West Midlands Safari PArk"}},{"type":"Feature","geometry":{"type":"Point","coordinates":[-1.2754841,54.7338089]},"properties":{"name":"Tweddle Farm","layer":"theme-parks","note":"OpenStreetMap","osm_id":"way/846893594","osm_url":"https://www.openstreetmap.org/way/846893594","source":"OpenStreetMap"}},{"type":"Feature","geometry":{"type":"Point","coordinates":[-1.1013391,50.7856632]},"properties":{"name":"Clarence Pier","layer":"theme-parks","note":"OpenStreetMap","osm_id":"way/87013679","osm_url":"https://www.openstreetmap.org/way/87013679","source":"OpenStreetMap"}},{"type":"Feature","geometry":{"type":"Point","coordinates":[-4.7607335,51.6881042]},"properties":{"name":"Heatherton World of Activities","layer":"theme-parks","note":"OpenStreetMap","osm_id":"way/910651159","osm_url":"https://www.openstreetmap.org/way/910651159","source":"OpenStreetMap"}},{"type":"Feature","geometry":{"type":"Point","coordinates":[-4.7501516,51.6841758]},"properties":{"name":"Dinosaur Park","layer":"theme-parks","note":"OpenStreetMap","osm_id":"way/910656398","osm_url":"https://www.openstreetmap.org/way/910656398","source":"OpenStreetMap"}},{"type":"Feature","geometry":{"type":"Point","coordinates":[0.4768513,51.3819261]},"properties":{"name":"Diggerland Kent","layer":"theme-parks","note":"OpenStreetMap","osm_id":"way/91301480","osm_url":"https://www.openstreetmap.org/way/91301480","source":"OpenStreetMap"}},{"type":"Feature","geometry":{"type":"Point","coordinates":[-0.2907114,54.1842881]},"properties":{"name":"Theme park","layer":"theme-parks","note":"OpenStreetMap","osm_id":"way/925898790","osm_url":"https://www.openstreetmap.org/way/925898790","source":"OpenStreetMap"}},{"type":"Feature","geometry":{"type":"Point","coordinates":[-3.8134312,57.2776743]},"properties":{"name":"Landmark Forest Adventure Park","layer":"theme-parks","note":"OpenStreetMap","osm_id":"way/93350877","osm_url":"https://www.openstreetmap.org/way/93350877","source":"OpenStreetMap"}},{"type":"Feature","geometry":{"type":"Point","coordinates":[-0.2819073,51.7242852]},"properties":{"name":"Willows Activity Farm","layer":"theme-parks","note":"OpenStreetMap","osm_id":"way/966857889","osm_url":"https://www.openstreetmap.org/way/966857889","source":"OpenStreetMap"}},{"type":"Feature","geometry":{"type":"Point","coordinates":[-2.0800266,57.1511041]},"properties":{"name":"Codona's Amusement Park","layer":"theme-parks","note":"OpenStreetMap","osm_id":"way/9704202","osm_url":"https://www.openstreetmap.org/way/9704202","source":"OpenStreetMap"}},{"type":"Feature","geometry":{"type":"Point","coordinates":[-1.7144676,52.6112572]},"properties":{"name":"Drayton Manor Resort","layer":"theme-parks","note":"OpenStreetMap","osm_id":"way/9712254","osm_url":"https://www.openstreetmap.org/way/9712254","source":"OpenStreetMap"}},{"type":"Feature","geometry":{"type":"Point","coordinates":[-3.8606967,55.6941413]},"properties":{"name":"Clyde Valley Family Park","layer":"theme-parks","note":"OpenStreetMap","osm_id":"way/98615541","osm_url":"https://www.openstreetmap.org/way/98615541","source":"OpenStreetMap"}}]}
