{"type":"FeatureCollection","features":[{"type":"Feature","geometry":{"type":"Point","coordinates":[-3.2200965,58.646416]},"properties":{"name":"Animal Centre","layer":"zoos","note":"OpenStreetMap","osm_id":"node/10099203430","osm_url":"https://www.openstreetmap.org/node/10099203430","source":"OpenStreetMap"}},{"type":"Feature","geometry":{"type":"Point","coordinates":[-2.0958634,53.3308736]},"properties":{"name":"Adlington Petting Farm","layer":"zoos","note":"OpenStreetMap","osm_id":"node/10761058345","osm_url":"https://www.openstreetmap.org/node/10761058345","source":"OpenStreetMap"}},{"type":"Feature","geometry":{"type":"Point","coordinates":[-4.2729244,52.9248042]},"properties":{"name":"Dwyfor Ranch Rabbit farm and Animal Park","layer":"zoos","note":"OpenStreetMap","osm_id":"node/11222043323","osm_url":"https://www.openstreetmap.org/node/11222043323","source":"OpenStreetMap"}},{"type":"Feature","geometry":{"type":"Point","coordinates":[-6.6282208,55.1745765]},"properties":{"name":"North Coast Alpacas","layer":"zoos","note":"OpenStreetMap","osm_id":"node/11411870932","osm_url":"https://www.openstreetmap.org/node/11411870932","source":"OpenStreetMap"}},{"type":"Feature","geometry":{"type":"Point","coordinates":[-2.8703164,50.7945021]},"properties":{"name":"Foxdown Childrens Farm","layer":"zoos","note":"OpenStreetMap","osm_id":"node/11417915178","osm_url":"https://www.openstreetmap.org/node/11417915178","source":"OpenStreetMap"}},{"type":"Feature","geometry":{"type":"Point","coordinates":[-6.2465704,53.3709396]},"properties":{"name":"Zoo","layer":"zoos","note":"OpenStreetMap","osm_id":"node/11548988477","osm_url":"https://www.openstreetmap.org/node/11548988477","source":"OpenStreetMap"}},{"type":"Feature","geometry":{"type":"Point","coordinates":[-1.2220782,54.5313796]},"properties":{"name":"Newham Grange Leisure Farm","layer":"zoos","note":"OpenStreetMap","osm_id":"node/116079047","osm_url":"https://www.openstreetmap.org/node/116079047","source":"OpenStreetMap"}},{"type":"Feature","geometry":{"type":"Point","coordinates":[-7.1957577,52.6456093]},"properties":{"name":"Hawkeye School of Falconry","layer":"zoos","note":"Hawkeye Falconry","osm_id":"node/11667146272","osm_url":"https://www.openstreetmap.org/node/11667146272","source":"OpenStreetMap","brand":"Hawkeye Falconry"}},{"type":"Feature","geometry":{"type":"Point","coordinates":[-1.2809931,54.2255023]},"properties":{"name":"Monk Park Farm","layer":"zoos","note":"OpenStreetMap","osm_id":"node/12049819368","osm_url":"https://www.openstreetmap.org/node/12049819368","source":"OpenStreetMap"}},{"type":"Feature","geometry":{"type":"Point","coordinates":[-2.4459893,52.6678625]},"properties":{"name":"Exotic Zoo Wildlife Park","layer":"zoos","note":"OpenStreetMap","osm_id":"node/12064556169","osm_url":"https://www.openstreetmap.org/node/12064556169","source":"OpenStreetMap"}},{"type":"Feature","geometry":{"type":"Point","coordinates":[-3.2533666,51.5718149]},"properties":{"name":"The Meadows Wildlife Park","layer":"zoos","note":"OpenStreetMap","osm_id":"node/12083994727","osm_url":"https://www.openstreetmap.org/node/12083994727","source":"OpenStreetMap"}},{"type":"Feature","geometry":{"type":"Point","coordinates":[-3.3356753,59.0478755]},"properties":{"name":"Skaill Falconry","layer":"zoos","note":"OpenStreetMap","osm_id":"node/12892577759","osm_url":"https://www.openstreetmap.org/node/12892577759","source":"OpenStreetMap"}},{"type":"Feature","geometry":{"type":"Point","coordinates":[-5.9440112,54.6557105]},"properties":{"name":"Rainforest House","layer":"zoos","note":"OpenStreetMap","osm_id":"node/13241633064","osm_url":"https://www.openstreetmap.org/node/13241633064","source":"OpenStreetMap"}},{"type":"Feature","geometry":{"type":"Point","coordinates":[0.2375653,51.6258833]},"properties":{"name":"Old Macdonald Farm","layer":"zoos","note":"OpenStreetMap","osm_id":"node/1333615707","osm_url":"https://www.openstreetmap.org/node/1333615707","source":"OpenStreetMap"}},{"type":"Feature","geometry":{"type":"Point","coordinates":[-2.6707216,50.9755654]},"properties":{"name":"Somerset Reindeer Ranch","layer":"zoos","note":"OpenStreetMap","osm_id":"node/13376344499","osm_url":"https://www.openstreetmap.org/node/13376344499","source":"OpenStreetMap"}},{"type":"Feature","geometry":{"type":"Point","coordinates":[-0.2889072,52.1713561]},"properties":{"name":"Knotts of Tempsford","layer":"zoos","note":"OpenStreetMap","osm_id":"node/13448727348","osm_url":"https://www.openstreetmap.org/node/13448727348","source":"OpenStreetMap"}},{"type":"Feature","geometry":{"type":"Point","coordinates":[-1.3264842,60.0650378]},"properties":{"name":"The Outpost","layer":"zoos","note":"OpenStreetMap","osm_id":"node/13595570602","osm_url":"https://www.openstreetmap.org/node/13595570602","source":"OpenStreetMap"}},{"type":"Feature","geometry":{"type":"Point","coordinates":[-2.8923845,53.4406311]},"properties":{"name":"Croxteth Park Farm","layer":"zoos","note":"OpenStreetMap","osm_id":"node/14078720101","osm_url":"https://www.openstreetmap.org/node/14078720101","source":"OpenStreetMap"}},{"type":"Feature","geometry":{"type":"Point","coordinates":[-2.8486458,53.490313]},"properties":{"name":"Acorn Farm","layer":"zoos","note":"OpenStreetMap","osm_id":"node/14084168901","osm_url":"https://www.openstreetmap.org/node/14084168901","source":"OpenStreetMap"}},{"type":"Feature","geometry":{"type":"Point","coordinates":[-3.3078449,51.4151005]},"properties":{"name":"Welsh Hawking Centre","layer":"zoos","note":"OpenStreetMap","osm_id":"node/1869355120","osm_url":"https://www.openstreetmap.org/node/1869355120","source":"OpenStreetMap"}},{"type":"Feature","geometry":{"type":"Point","coordinates":[-0.6632424,52.6820752]},"properties":{"name":"Rutland Falconry & Owl Centre","layer":"zoos","note":"OpenStreetMap","osm_id":"node/19777989","osm_url":"https://www.openstreetmap.org/node/19777989","source":"OpenStreetMap"}},{"type":"Feature","geometry":{"type":"Point","coordinates":[-1.7011356,55.1305257]},"properties":{"name":"Whitehouse Farm Centre","layer":"zoos","note":"OpenStreetMap","osm_id":"node/2101245203","osm_url":"https://www.openstreetmap.org/node/2101245203","source":"OpenStreetMap"}},{"type":"Feature","geometry":{"type":"Point","coordinates":[-2.4513993,53.6044618]},"properties":{"name":"Smithills Open Farm","layer":"zoos","note":"OpenStreetMap","osm_id":"node/2246006836","osm_url":"https://www.openstreetmap.org/node/2246006836","source":"OpenStreetMap"}},{"type":"Feature","geometry":{"type":"Point","coordinates":[-6.3799516,53.4887577]},"properties":{"name":"Pet Farm","layer":"zoos","note":"OpenStreetMap","osm_id":"node/2280189152","osm_url":"https://www.openstreetmap.org/node/2280189152","source":"OpenStreetMap"}},{"type":"Feature","geometry":{"type":"Point","coordinates":[-0.7243149,50.9939982]},"properties":{"name":"Cowdray Model Farm","layer":"zoos","note":"OpenStreetMap","osm_id":"node/2376360336","osm_url":"https://www.openstreetmap.org/node/2376360336","source":"OpenStreetMap"}},{"type":"Feature","geometry":{"type":"Point","coordinates":[-4.9041689,50.4061693]},"properties":{"name":"Screech Owl Sanctuary","layer":"zoos","note":"OpenStreetMap","osm_id":"node/2428639662","osm_url":"https://www.openstreetmap.org/node/2428639662","source":"OpenStreetMap"}},{"type":"Feature","geometry":{"type":"Point","coordinates":[-4.2435651,50.5140782]},"properties":{"name":"The Tamar Valley Donkey Park","layer":"zoos","note":"OpenStreetMap","osm_id":"node/2478967737","osm_url":"https://www.openstreetmap.org/node/2478967737","source":"OpenStreetMap"}},{"type":"Feature","geometry":{"type":"Point","coordinates":[-1.5750492,53.3995147]},"properties":{"name":"Zoo","layer":"zoos","note":"OpenStreetMap","osm_id":"node/2537141950","osm_url":"https://www.openstreetmap.org/node/2537141950","source":"OpenStreetMap"}},{"type":"Feature","geometry":{"type":"Point","coordinates":[-0.7729805,51.8177968]},"properties":{"name":"Oak Farm Animal Park","layer":"zoos","note":"OpenStreetMap","osm_id":"node/259196915","osm_url":"https://www.openstreetmap.org/node/259196915","source":"OpenStreetMap"}},{"type":"Feature","geometry":{"type":"Point","coordinates":[-3.0107617,51.3228594]},"properties":{"name":"Brean Down Bird Garden","layer":"zoos","note":"OpenStreetMap","osm_id":"node/2844541523","osm_url":"https://www.openstreetmap.org/node/2844541523","source":"OpenStreetMap"}},{"type":"Feature","geometry":{"type":"Point","coordinates":[-3.6901915,51.7962594]},"properties":{"name":"Wales Ape and Monkey Sanctuary","layer":"zoos","note":"OpenStreetMap","osm_id":"node/290767032","osm_url":"https://www.openstreetmap.org/node/290767032","source":"OpenStreetMap"}},{"type":"Feature","geometry":{"type":"Point","coordinates":[-0.8132239,51.3453331]},"properties":{"name":"Trilakes Animal Park","layer":"zoos","note":"OpenStreetMap","osm_id":"node/291971667","osm_url":"https://www.openstreetmap.org/node/291971667","source":"OpenStreetMap"}},{"type":"Feature","geometry":{"type":"Point","coordinates":[-4.0353871,54.8404896]},"properties":{"name":"Galloway Wildlife Conservation Park","layer":"zoos","note":"OpenStreetMap","osm_id":"node/3016931292","osm_url":"https://www.openstreetmap.org/node/3016931292","source":"OpenStreetMap"}},{"type":"Feature","geometry":{"type":"Point","coordinates":[-3.4988344,50.5366849]},"properties":{"name":"Shaldon Zoo (Shaldon Wildlife Trust)","layer":"zoos","note":"OpenStreetMap","osm_id":"node/3061337537","osm_url":"https://www.openstreetmap.org/node/3061337537","source":"OpenStreetMap"}},{"type":"Feature","geometry":{"type":"Point","coordinates":[-0.298459,53.7658404]},"properties":{"name":"Animal Education centre","layer":"zoos","note":"Hull City Council","osm_id":"node/3417564961","osm_url":"https://www.openstreetmap.org/node/3417564961","source":"OpenStreetMap","brand":"Hull City Council"}},{"type":"Feature","geometry":{"type":"Point","coordinates":[-6.2991627,49.9113406]},"properties":{"name":"Zoo","layer":"zoos","note":"OpenStreetMap","osm_id":"node/3745871563","osm_url":"https://www.openstreetmap.org/node/3745871563","source":"OpenStreetMap"}},{"type":"Feature","geometry":{"type":"Point","coordinates":[0.346382,53.1484676]},"properties":{"name":"Natureland Seal Sanctuary","layer":"zoos","note":"OpenStreetMap","osm_id":"node/3750129300","osm_url":"https://www.openstreetmap.org/node/3750129300","source":"OpenStreetMap"}},{"type":"Feature","geometry":{"type":"Point","coordinates":[-0.4919451,51.0305685]},"properties":{"name":"Fishers Farm Park","layer":"zoos","note":"OpenStreetMap","osm_id":"node/4143187380","osm_url":"https://www.openstreetmap.org/node/4143187380","source":"OpenStreetMap"}},{"type":"Feature","geometry":{"type":"Point","coordinates":[-0.3166278,51.3495078]},"properties":{"name":"Amazu","layer":"zoos","note":"OpenStreetMap","osm_id":"node/4213593185","osm_url":"https://www.openstreetmap.org/node/4213593185","source":"OpenStreetMap"}},{"type":"Feature","geometry":{"type":"Point","coordinates":[-0.3864747,51.5927205]},"properties":{"name":"Aviary","layer":"zoos","note":"OpenStreetMap","osm_id":"node/4324851538","osm_url":"https://www.openstreetmap.org/node/4324851538","source":"OpenStreetMap"}},{"type":"Feature","geometry":{"type":"Point","coordinates":[-4.4139301,50.3654006]},"properties":{"name":"The Monkey Sanctuary","layer":"zoos","note":"OpenStreetMap","osm_id":"node/4957673324","osm_url":"https://www.openstreetmap.org/node/4957673324","source":"OpenStreetMap"}},{"type":"Feature","geometry":{"type":"Point","coordinates":[-3.0999222,54.8517577]},"properties":{"name":"Knox Wood Wildlife Centre","layer":"zoos","note":"OpenStreetMap","osm_id":"node/5098343898","osm_url":"https://www.openstreetmap.org/node/5098343898","source":"OpenStreetMap"}},{"type":"Feature","geometry":{"type":"Point","coordinates":[-2.2562848,53.5364959]},"properties":{"name":"Heaton Park Animal Centre","layer":"zoos","note":"OpenStreetMap","osm_id":"node/5358331600","osm_url":"https://www.openstreetmap.org/node/5358331600","source":"OpenStreetMap"}},{"type":"Feature","geometry":{"type":"Point","coordinates":[-0.6987851,51.5350092]},"properties":{"name":"Zoo","layer":"zoos","note":"OpenStreetMap","osm_id":"node/5443945792","osm_url":"https://www.openstreetmap.org/node/5443945792","source":"OpenStreetMap"}},{"type":"Feature","geometry":{"type":"Point","coordinates":[0.4473896,51.6010527]},"properties":{"name":"Imperial Birds of Prey Academy","layer":"zoos","note":"OpenStreetMap","osm_id":"node/6013223423","osm_url":"https://www.openstreetmap.org/node/6013223423","source":"OpenStreetMap"}},{"type":"Feature","geometry":{"type":"Point","coordinates":[-1.224643,50.6277785]},"properties":{"name":"Isle of Wight Donkey Sanctuary","layer":"zoos","note":"OpenStreetMap","osm_id":"node/6124961769","osm_url":"https://www.openstreetmap.org/node/6124961769","source":"OpenStreetMap"}},{"type":"Feature","geometry":{"type":"Point","coordinates":[-2.6179558,51.8623626]},"properties":{"name":"Coppett Hill Butterfly Site","layer":"zoos","note":"OpenStreetMap","osm_id":"node/6764421834","osm_url":"https://www.openstreetmap.org/node/6764421834","source":"OpenStreetMap"}},{"type":"Feature","geometry":{"type":"Point","coordinates":[-4.2704009,55.8287957]},"properties":{"name":"Reptile House","layer":"zoos","note":"OpenStreetMap","osm_id":"node/747304238","osm_url":"https://www.openstreetmap.org/node/747304238","source":"OpenStreetMap"}},{"type":"Feature","geometry":{"type":"Point","coordinates":[-4.0956136,52.9504527]},"properties":{"name":"Bywyd Gwyllt Glaslyn Wildlife","layer":"zoos","note":"Bywyd Gwyllt Glaslyn Wildlife CIC","osm_id":"node/7734599493","osm_url":"https://www.openstreetmap.org/node/7734599493","source":"OpenStreetMap","brand":"Bywyd Gwyllt Glaslyn Wildlife CIC"}},{"type":"Feature","geometry":{"type":"Point","coordinates":[-7.2312524,52.6556602]},"properties":{"name":"National Reptile Zoo","layer":"zoos","note":"OpenStreetMap","osm_id":"node/8180190929","osm_url":"https://www.openstreetmap.org/node/8180190929","source":"OpenStreetMap"}},{"type":"Feature","geometry":{"type":"Point","coordinates":[-1.8759707,50.7187029]},"properties":{"name":"Bournemouth Aviary","layer":"zoos","note":"OpenStreetMap","osm_id":"node/850601031","osm_url":"https://www.openstreetmap.org/node/850601031","source":"OpenStreetMap"}},{"type":"Feature","geometry":{"type":"Point","coordinates":[-1.5211973,50.7069271]},"properties":{"name":"Reptilarium","layer":"zoos","note":"OpenStreetMap","osm_id":"node/9483088561","osm_url":"https://www.openstreetmap.org/node/9483088561","source":"OpenStreetMap"}},{"type":"Feature","geometry":{"type":"Point","coordinates":[-6.9618328,52.8337369]},"properties":{"name":"Zoo","layer":"zoos","note":"OpenStreetMap","osm_id":"node/9553206582","osm_url":"https://www.openstreetmap.org/node/9553206582","source":"OpenStreetMap"}},{"type":"Feature","geometry":{"type":"Point","coordinates":[-2.54083,55.4458215]},"properties":{"name":"Jacksons at Jedburgh","layer":"zoos","note":"OpenStreetMap","osm_id":"node/9782470192","osm_url":"https://www.openstreetmap.org/node/9782470192","source":"OpenStreetMap"}},{"type":"Feature","geometry":{"type":"Point","coordinates":[-5.7109545,50.0625635]},"properties":{"name":"Greeb Farm","layer":"zoos","note":"OpenStreetMap","osm_id":"node/9867091772","osm_url":"https://www.openstreetmap.org/node/9867091772","source":"OpenStreetMap"}},{"type":"Feature","geometry":{"type":"Point","coordinates":[-1.2412083,50.6881268]},"properties":{"name":"The Falconry Experience","layer":"zoos","note":"OpenStreetMap","osm_id":"node/9917982774","osm_url":"https://www.openstreetmap.org/node/9917982774","source":"OpenStreetMap"}},{"type":"Feature","geometry":{"type":"Point","coordinates":[-4.1046577,51.5848433]},"properties":{"name":"Animal Park","layer":"zoos","note":"OpenStreetMap","osm_id":"relation/10349100","osm_url":"https://www.openstreetmap.org/relation/10349100","source":"OpenStreetMap"}},{"type":"Feature","geometry":{"type":"Point","coordinates":[-6.1681752,53.4883722]},"properties":{"name":"Newbridge Traditional Farm","layer":"zoos","note":"OpenStreetMap","osm_id":"relation/11733633","osm_url":"https://www.openstreetmap.org/relation/11733633","source":"OpenStreetMap"}},{"type":"Feature","geometry":{"type":"Point","coordinates":[-1.0347669,53.5001945]},"properties":{"name":"Yorkshire Wildlife Park","layer":"zoos","note":"OpenStreetMap","osm_id":"relation/14187082","osm_url":"https://www.openstreetmap.org/relation/14187082","source":"OpenStreetMap"}},{"type":"Feature","geometry":{"type":"Point","coordinates":[1.1271235,52.0214026]},"properties":{"name":"Jimmy’s Farm & Wildlife Park","layer":"zoos","note":"OpenStreetMap","osm_id":"relation/16154792","osm_url":"https://www.openstreetmap.org/relation/16154792","source":"OpenStreetMap"}},{"type":"Feature","geometry":{"type":"Point","coordinates":[-3.5794789,50.4260076]},"properties":{"name":"Paignton Zoo","layer":"zoos","note":"Paignton Zoo","osm_id":"relation/16748822","osm_url":"https://www.openstreetmap.org/relation/16748822","source":"OpenStreetMap","brand":"Paignton Zoo"}},{"type":"Feature","geometry":{"type":"Point","coordinates":[-2.8837533,53.2262896]},"properties":{"name":"Chester Zoo","layer":"zoos","note":"OpenStreetMap","osm_id":"relation/229842","osm_url":"https://www.openstreetmap.org/relation/229842","source":"OpenStreetMap"}},{"type":"Feature","geometry":{"type":"Point","coordinates":[-0.1552372,51.5353021]},"properties":{"name":"London Zoo","layer":"zoos","note":"Zoological Society of London (ZSL)","osm_id":"relation/231792","osm_url":"https://www.openstreetmap.org/relation/231792","source":"OpenStreetMap","brand":"Zoological Society of London (ZSL)"}},{"type":"Feature","geometry":{"type":"Point","coordinates":[-1.4518838,51.2219688]},"properties":{"name":"Finkley Down Farm","layer":"zoos","note":"OpenStreetMap","osm_id":"relation/2557264","osm_url":"https://www.openstreetmap.org/relation/2557264","source":"OpenStreetMap"}},{"type":"Feature","geometry":{"type":"Point","coordinates":[-3.6629485,55.9630326]},"properties":{"name":"Newparks Farm","layer":"zoos","note":"OpenStreetMap","osm_id":"relation/2863020","osm_url":"https://www.openstreetmap.org/relation/2863020","source":"OpenStreetMap"}},{"type":"Feature","geometry":{"type":"Point","coordinates":[-1.2786859,50.9936762]},"properties":{"name":"Marwell Zoo","layer":"zoos","note":"OpenStreetMap","osm_id":"relation/4039449","osm_url":"https://www.openstreetmap.org/relation/4039449","source":"OpenStreetMap"}},{"type":"Feature","geometry":{"type":"Point","coordinates":[-2.8837533,53.2262896]},"properties":{"name":"Chester Zoo","layer":"zoos","note":"OpenStreetMap","osm_id":"relation/4799623","osm_url":"https://www.openstreetmap.org/relation/4799623","source":"OpenStreetMap"}},{"type":"Feature","geometry":{"type":"Point","coordinates":[-4.0394173,56.1639739]},"properties":{"name":"Blair Drummond Safari Park","layer":"zoos","note":"OpenStreetMap","osm_id":"relation/7662354","osm_url":"https://www.openstreetmap.org/relation/7662354","source":"OpenStreetMap"}},{"type":"Feature","geometry":{"type":"Point","coordinates":[-4.1756987,55.8476457]},"properties":{"name":"Tollcross Children's Farm","layer":"zoos","note":"Glasgow City Council","osm_id":"relation/7751669","osm_url":"https://www.openstreetmap.org/relation/7751669","source":"OpenStreetMap","brand":"Glasgow City Council"}},{"type":"Feature","geometry":{"type":"Point","coordinates":[-6.3072529,53.3566814]},"properties":{"name":"Dublin Zoo","layer":"zoos","note":"OpenStreetMap","osm_id":"relation/8808835","osm_url":"https://www.openstreetmap.org/relation/8808835","source":"OpenStreetMap"}},{"type":"Feature","geometry":{"type":"Point","coordinates":[1.6988587,52.4125938]},"properties":{"name":"Africa Alive","layer":"zoos","note":"OpenStreetMap","osm_id":"relation/9456325","osm_url":"https://www.openstreetmap.org/relation/9456325","source":"OpenStreetMap"}},{"type":"Feature","geometry":{"type":"Point","coordinates":[-3.268959,55.9454547]},"properties":{"name":"Edinburgh Zoo","layer":"zoos","note":"OpenStreetMap","osm_id":"relation/952934","osm_url":"https://www.openstreetmap.org/relation/952934","source":"OpenStreetMap"}},{"type":"Feature","geometry":{"type":"Point","coordinates":[-2.7417105,52.8811744]},"properties":{"name":"Shropshire Falconry","layer":"zoos","note":"OpenStreetMap","osm_id":"way/1003970041","osm_url":"https://www.openstreetmap.org/way/1003970041","source":"OpenStreetMap"}},{"type":"Feature","geometry":{"type":"Point","coordinates":[-2.521294,53.4439842]},"properties":{"name":"Wild Wings Birds of Prey","layer":"zoos","note":"OpenStreetMap","osm_id":"way/1004983797","osm_url":"https://www.openstreetmap.org/way/1004983797","source":"OpenStreetMap"}},{"type":"Feature","geometry":{"type":"Point","coordinates":[-1.6170742,50.862991]},"properties":{"name":"New Forest Reptile Centre","layer":"zoos","note":"Forestry England","osm_id":"way/1007358918","osm_url":"https://www.openstreetmap.org/way/1007358918","source":"OpenStreetMap","brand":"Forestry England"}},{"type":"Feature","geometry":{"type":"Point","coordinates":[-1.9493718,54.3215053]},"properties":{"name":"Zoo","layer":"zoos","note":"OpenStreetMap","osm_id":"way/1025893872","osm_url":"https://www.openstreetmap.org/way/1025893872","source":"OpenStreetMap"}},{"type":"Feature","geometry":{"type":"Point","coordinates":[-0.3182775,51.646718]},"properties":{"name":"Aldenham Country Park Farm","layer":"zoos","note":"OpenStreetMap","osm_id":"way/1030809373","osm_url":"https://www.openstreetmap.org/way/1030809373","source":"OpenStreetMap"}},{"type":"Feature","geometry":{"type":"Point","coordinates":[-0.7689407,53.0452133]},"properties":{"name":"Fernwood Conservation Area","layer":"zoos","note":"Fernwood Conservation Group","osm_id":"way/1046686851","osm_url":"https://www.openstreetmap.org/way/1046686851","source":"OpenStreetMap","brand":"Fernwood Conservation Group"}},{"type":"Feature","geometry":{"type":"Point","coordinates":[-0.7686643,53.0450987]},"properties":{"name":"Bug Hotel","layer":"zoos","note":"Fernwood Conservation Group","osm_id":"way/1051923777","osm_url":"https://www.openstreetmap.org/way/1051923777","source":"OpenStreetMap","brand":"Fernwood Conservation Group"}},{"type":"Feature","geometry":{"type":"Point","coordinates":[0.0446624,51.4859165]},"properties":{"name":"Zoo","layer":"zoos","note":"OpenStreetMap","osm_id":"way/1052225133","osm_url":"https://www.openstreetmap.org/way/1052225133","source":"OpenStreetMap"}},{"type":"Feature","geometry":{"type":"Point","coordinates":[1.707339,52.4708431]},"properties":{"name":"Oulton Broad Mini Zoo","layer":"zoos","note":"OpenStreetMap","osm_id":"way/1055977248","osm_url":"https://www.openstreetmap.org/way/1055977248","source":"OpenStreetMap"}},{"type":"Feature","geometry":{"type":"Point","coordinates":[0.831425,51.8608868]},"properties":{"name":"Colchester Zoo","layer":"zoos","note":"OpenStreetMap","osm_id":"way/106947352","osm_url":"https://www.openstreetmap.org/way/106947352","source":"OpenStreetMap"}},{"type":"Feature","geometry":{"type":"Point","coordinates":[-0.5414429,51.8455041]},"properties":{"name":"Siberian Tiger","layer":"zoos","note":"OpenStreetMap","osm_id":"way/107256021","osm_url":"https://www.openstreetmap.org/way/107256021","source":"OpenStreetMap"}},{"type":"Feature","geometry":{"type":"Point","coordinates":[-0.549155,51.8521241]},"properties":{"name":"Penguin Enclosure","layer":"zoos","note":"OpenStreetMap","osm_id":"way/1074864494","osm_url":"https://www.openstreetmap.org/way/1074864494","source":"OpenStreetMap"}},{"type":"Feature","geometry":{"type":"Point","coordinates":[-2.4808886,51.6717785]},"properties":{"name":"Whitcliff Park (Deer Park)","layer":"zoos","note":"OpenStreetMap","osm_id":"way/1078232502","osm_url":"https://www.openstreetmap.org/way/1078232502","source":"OpenStreetMap"}},{"type":"Feature","geometry":{"type":"Point","coordinates":[-0.5478913,51.8464884]},"properties":{"name":"Reticulated Giraffe","layer":"zoos","note":"OpenStreetMap","osm_id":"way/108218563","osm_url":"https://www.openstreetmap.org/way/108218563","source":"OpenStreetMap"}},{"type":"Feature","geometry":{"type":"Point","coordinates":[-2.3954435,53.3205059]},"properties":{"name":"Gauntlet Birds of Prey","layer":"zoos","note":"OpenStreetMap","osm_id":"way/1082779698","osm_url":"https://www.openstreetmap.org/way/1082779698","source":"OpenStreetMap"}},{"type":"Feature","geometry":{"type":"Point","coordinates":[-1.7013497,55.2716436]},"properties":{"name":"Northumberland Zoo","layer":"zoos","note":"OpenStreetMap","osm_id":"way/1084457673","osm_url":"https://www.openstreetmap.org/way/1084457673","source":"OpenStreetMap"}},{"type":"Feature","geometry":{"type":"Point","coordinates":[-1.8348612,52.0968235]},"properties":{"name":"All Things Wild","layer":"zoos","note":"OpenStreetMap","osm_id":"way/1093588034","osm_url":"https://www.openstreetmap.org/way/1093588034","source":"OpenStreetMap"}},{"type":"Feature","geometry":{"type":"Point","coordinates":[-5.2026406,50.0935336]},"properties":{"name":"Cornish Seal Sanctuary","layer":"zoos","note":"OpenStreetMap","osm_id":"way/1095429270","osm_url":"https://www.openstreetmap.org/way/1095429270","source":"OpenStreetMap"}},{"type":"Feature","geometry":{"type":"Point","coordinates":[-2.7807898,54.0455264]},"properties":{"name":"Butterfly House and Mini Zoo","layer":"zoos","note":"OpenStreetMap","osm_id":"way/1108013590","osm_url":"https://www.openstreetmap.org/way/1108013590","source":"OpenStreetMap"}},{"type":"Feature","geometry":{"type":"Point","coordinates":[0.2507367,53.357187]},"properties":{"name":"The Seal Sanctuary","layer":"zoos","note":"OpenStreetMap","osm_id":"way/111497504","osm_url":"https://www.openstreetmap.org/way/111497504","source":"OpenStreetMap"}},{"type":"Feature","geometry":{"type":"Point","coordinates":[-3.013065,53.8153827]},"properties":{"name":"Blackpool Zoo","layer":"zoos","note":"OpenStreetMap","osm_id":"way/111825274","osm_url":"https://www.openstreetmap.org/way/111825274","source":"OpenStreetMap"}},{"type":"Feature","geometry":{"type":"Point","coordinates":[-5.7952131,54.7205582]},"properties":{"name":"Kilcreggan Urban Farm","layer":"zoos","note":"OpenStreetMap","osm_id":"way/1126784831","osm_url":"https://www.openstreetmap.org/way/1126784831","source":"OpenStreetMap"}},{"type":"Feature","geometry":{"type":"Point","coordinates":[-1.7436323,54.8033856]},"properties":{"name":"Potter's Tropical Village","layer":"zoos","note":"OpenStreetMap","osm_id":"way/1128312734","osm_url":"https://www.openstreetmap.org/way/1128312734","source":"OpenStreetMap"}},{"type":"Feature","geometry":{"type":"Point","coordinates":[-1.9103544,52.4496027]},"properties":{"name":"Birmingham Wildlife Conservation Park","layer":"zoos","note":"OpenStreetMap","osm_id":"way/115343590","osm_url":"https://www.openstreetmap.org/way/115343590","source":"OpenStreetMap"}},{"type":"Feature","geometry":{"type":"Point","coordinates":[-0.3260111,52.4098762]},"properties":{"name":"Hamerton Zoo Park","layer":"zoos","note":"OpenStreetMap","osm_id":"way/116518261","osm_url":"https://www.openstreetmap.org/way/116518261","source":"OpenStreetMap"}},{"type":"Feature","geometry":{"type":"Point","coordinates":[-1.0709688,52.6142344]},"properties":{"name":"Stoughton Grange Farm Park","layer":"zoos","note":"OpenStreetMap","osm_id":"way/1187545727","osm_url":"https://www.openstreetmap.org/way/1187545727","source":"OpenStreetMap"}},{"type":"Feature","geometry":{"type":"Point","coordinates":[-6.1618234,53.4449774]},"properties":{"name":"The Butterfly House","layer":"zoos","note":"OpenStreetMap","osm_id":"way/1192136443","osm_url":"https://www.openstreetmap.org/way/1192136443","source":"OpenStreetMap"}},{"type":"Feature","geometry":{"type":"Point","coordinates":[-9.4294041,51.7209288]},"properties":{"name":"Hairy Henry Therapeutic Riding and Care Farm","layer":"zoos","note":"Sandra and Tim","osm_id":"way/1193185872","osm_url":"https://www.openstreetmap.org/way/1193185872","source":"OpenStreetMap","brand":"Sandra and Tim"}},{"type":"Feature","geometry":{"type":"Point","coordinates":[-1.971432,52.5215138]},"properties":{"name":"Rabbit Village","layer":"zoos","note":"OpenStreetMap","osm_id":"way/1206912294","osm_url":"https://www.openstreetmap.org/way/1206912294","source":"OpenStreetMap"}},{"type":"Feature","geometry":{"type":"Point","coordinates":[-1.4597664,51.9440958]},"properties":{"name":"Heythrop Zoological Gardens","layer":"zoos","note":"Amazing Animals","osm_id":"way/1209174963","osm_url":"https://www.openstreetmap.org/way/1209174963","source":"OpenStreetMap","brand":"Amazing Animals"}},{"type":"Feature","geometry":{"type":"Point","coordinates":[-2.1211145,52.7000445]},"properties":{"name":"Rodbaston Animal Zone","layer":"zoos","note":"South Staffordshire College","osm_id":"way/1216743472","osm_url":"https://www.openstreetmap.org/way/1216743472","source":"OpenStreetMap","brand":"South Staffordshire College"}},{"type":"Feature","geometry":{"type":"Point","coordinates":[-2.4564223,52.7293303]},"properties":{"name":"Hoo Zoo & Dinosaur World","layer":"zoos","note":"OpenStreetMap","osm_id":"way/1216744088","osm_url":"https://www.openstreetmap.org/way/1216744088","source":"OpenStreetMap"}},{"type":"Feature","geometry":{"type":"Point","coordinates":[-9.3915038,52.0300702]},"properties":{"name":"Kennedy's Pet Farm","layer":"zoos","note":"OpenStreetMap","osm_id":"way/1232483338","osm_url":"https://www.openstreetmap.org/way/1232483338","source":"OpenStreetMap"}},{"type":"Feature","geometry":{"type":"Point","coordinates":[-1.5679441,53.351692]},"properties":{"name":"Mayfield Alpacas","layer":"zoos","note":"OpenStreetMap","osm_id":"way/124274569","osm_url":"https://www.openstreetmap.org/way/124274569","source":"OpenStreetMap"}},{"type":"Feature","geometry":{"type":"Point","coordinates":[-3.2688695,51.650583]},"properties":{"name":"Colliers Adventure Farm","layer":"zoos","note":"OpenStreetMap","osm_id":"way/1243301060","osm_url":"https://www.openstreetmap.org/way/1243301060","source":"OpenStreetMap"}},{"type":"Feature","geometry":{"type":"Point","coordinates":[-6.475233,54.4617265]},"properties":{"name":"C&J's Animal Park","layer":"zoos","note":"OpenStreetMap","osm_id":"way/1246985837","osm_url":"https://www.openstreetmap.org/way/1246985837","source":"OpenStreetMap"}},{"type":"Feature","geometry":{"type":"Point","coordinates":[-3.0233458,53.1968412]},"properties":{"name":"Greenacres Animal Park","layer":"zoos","note":"OpenStreetMap","osm_id":"way/125649594","osm_url":"https://www.openstreetmap.org/way/125649594","source":"OpenStreetMap"}},{"type":"Feature","geometry":{"type":"Point","coordinates":[-2.0532039,53.394803]},"properties":{"name":"The Garden House","layer":"zoos","note":"OpenStreetMap","osm_id":"way/1257195264","osm_url":"https://www.openstreetmap.org/way/1257195264","source":"OpenStreetMap"}},{"type":"Feature","geometry":{"type":"Point","coordinates":[-1.5001917,50.8869989]},"properties":{"name":"The New Forest Wildlife Park","layer":"zoos","note":"OpenStreetMap","osm_id":"way/125911141","osm_url":"https://www.openstreetmap.org/way/125911141","source":"OpenStreetMap"}},{"type":"Feature","geometry":{"type":"Point","coordinates":[-0.2618502,51.0179933]},"properties":{"name":"Wallaby Enclosure","layer":"zoos","note":"OpenStreetMap","osm_id":"way/1264203272","osm_url":"https://www.openstreetmap.org/way/1264203272","source":"OpenStreetMap"}},{"type":"Feature","geometry":{"type":"Point","coordinates":[-0.8004288,51.5327423]},"properties":{"name":"BCA Zoo","layer":"zoos","note":"OpenStreetMap","osm_id":"way/1266985837","osm_url":"https://www.openstreetmap.org/way/1266985837","source":"OpenStreetMap"}},{"type":"Feature","geometry":{"type":"Point","coordinates":[-1.7714889,50.8362309]},"properties":{"name":"Liberty's Owl, Raptor and Reptile Centre","layer":"zoos","note":"OpenStreetMap","osm_id":"way/127096591","osm_url":"https://www.openstreetmap.org/way/127096591","source":"OpenStreetMap"}},{"type":"Feature","geometry":{"type":"Point","coordinates":[-2.8081619,51.377532]},"properties":{"name":"North Somerset Bird of Prey Centre","layer":"zoos","note":"OpenStreetMap","osm_id":"way/1272909984","osm_url":"https://www.openstreetmap.org/way/1272909984","source":"OpenStreetMap"}},{"type":"Feature","geometry":{"type":"Point","coordinates":[0.5912736,51.649734]},"properties":{"name":"Call of the Wild Zoo","layer":"zoos","note":"OpenStreetMap","osm_id":"way/1275883424","osm_url":"https://www.openstreetmap.org/way/1275883424","source":"OpenStreetMap"}},{"type":"Feature","geometry":{"type":"Point","coordinates":[-1.8381569,51.938884]},"properties":{"name":"Cotswold Farm Park","layer":"zoos","note":"Cotswold Farm Park Ltd","osm_id":"way/1289464734","osm_url":"https://www.openstreetmap.org/way/1289464734","source":"OpenStreetMap","brand":"Cotswold Farm Park Ltd"}},{"type":"Feature","geometry":{"type":"Point","coordinates":[-6.3188302,54.733673]},"properties":{"name":"World of Owls","layer":"zoos","note":"OpenStreetMap","osm_id":"way/1305968887","osm_url":"https://www.openstreetmap.org/way/1305968887","source":"OpenStreetMap"}},{"type":"Feature","geometry":{"type":"Point","coordinates":[-2.8613041,57.4621729]},"properties":{"name":"Huntly Falconry Centre","layer":"zoos","note":"OpenStreetMap","osm_id":"way/1306607132","osm_url":"https://www.openstreetmap.org/way/1306607132","source":"OpenStreetMap"}},{"type":"Feature","geometry":{"type":"Point","coordinates":[-3.2215122,56.1550291]},"properties":{"name":"Elite Falconry","layer":"zoos","note":"OpenStreetMap","osm_id":"way/1306616665","osm_url":"https://www.openstreetmap.org/way/1306616665","source":"OpenStreetMap"}},{"type":"Feature","geometry":{"type":"Point","coordinates":[1.3266219,51.2610412]},"properties":{"name":"Sandwich Wildlife Park","layer":"zoos","note":"OpenStreetMap","osm_id":"way/1310507096","osm_url":"https://www.openstreetmap.org/way/1310507096","source":"OpenStreetMap"}},{"type":"Feature","geometry":{"type":"Point","coordinates":[-0.9203504,52.2778987]},"properties":{"name":"Buckton Fields Amphibian Area","layer":"zoos","note":"OpenStreetMap","osm_id":"way/1321434179","osm_url":"https://www.openstreetmap.org/way/1321434179","source":"OpenStreetMap"}},{"type":"Feature","geometry":{"type":"Point","coordinates":[0.5901292,51.4520907]},"properties":{"name":"The Fenn Bell Conservation Project","layer":"zoos","note":"OpenStreetMap","osm_id":"way/1326121563","osm_url":"https://www.openstreetmap.org/way/1326121563","source":"OpenStreetMap"}},{"type":"Feature","geometry":{"type":"Point","coordinates":[-0.0012483,53.0976436]},"properties":{"name":"ARK Wildlife & Dinosaur Park","layer":"zoos","note":"OpenStreetMap","osm_id":"way/1327954630","osm_url":"https://www.openstreetmap.org/way/1327954630","source":"OpenStreetMap"}},{"type":"Feature","geometry":{"type":"Point","coordinates":[-7.7870812,53.7341799]},"properties":{"name":"Zoo","layer":"zoos","note":"OpenStreetMap","osm_id":"way/1328882874","osm_url":"https://www.openstreetmap.org/way/1328882874","source":"OpenStreetMap"}},{"type":"Feature","geometry":{"type":"Point","coordinates":[-6.4637669,53.5461272]},"properties":{"name":"Petting Farm","layer":"zoos","note":"OpenStreetMap","osm_id":"way/1335247967","osm_url":"https://www.openstreetmap.org/way/1335247967","source":"OpenStreetMap"}},{"type":"Feature","geometry":{"type":"Point","coordinates":[-4.1865967,53.2350885]},"properties":{"name":"Pili Palas","layer":"zoos","note":"OpenStreetMap","osm_id":"way/1342398541","osm_url":"https://www.openstreetmap.org/way/1342398541","source":"OpenStreetMap"}},{"type":"Feature","geometry":{"type":"Point","coordinates":[-0.1102336,53.2184096]},"properties":{"name":"Wolds Wildlife Park","layer":"zoos","note":"OpenStreetMap","osm_id":"way/1342672181","osm_url":"https://www.openstreetmap.org/way/1342672181","source":"OpenStreetMap"}},{"type":"Feature","geometry":{"type":"Point","coordinates":[-5.9437036,54.6573931]},"properties":{"name":"Belfast Zoo","layer":"zoos","note":"Belfast City Council","osm_id":"way/135051475","osm_url":"https://www.openstreetmap.org/way/135051475","source":"OpenStreetMap","brand":"Belfast City Council"}},{"type":"Feature","geometry":{"type":"Point","coordinates":[-4.3019381,51.8146189]},"properties":{"name":"The British Bird of Prey Centre","layer":"zoos","note":"British Bird of Prey Centre","osm_id":"way/1350649948","osm_url":"https://www.openstreetmap.org/way/1350649948","source":"OpenStreetMap","brand":"British Bird of Prey Centre"}},{"type":"Feature","geometry":{"type":"Point","coordinates":[-0.9212928,51.7656717]},"properties":{"name":"Tiggywinkles Wildlife Teaching Hospital","layer":"zoos","note":"OpenStreetMap","osm_id":"way/1353160716","osm_url":"https://www.openstreetmap.org/way/1353160716","source":"OpenStreetMap"}},{"type":"Feature","geometry":{"type":"Point","coordinates":[-5.6612476,54.6599182]},"properties":{"name":"Ward Park Aviary","layer":"zoos","note":"Ards and North Down Borough Council","osm_id":"way/1355232017","osm_url":"https://www.openstreetmap.org/way/1355232017","source":"OpenStreetMap","brand":"Ards and North Down Borough Council"}},{"type":"Feature","geometry":{"type":"Point","coordinates":[-1.8822787,52.3353735]},"properties":{"name":"Attwell Farm Park","layer":"zoos","note":"OpenStreetMap","osm_id":"way/1360145427","osm_url":"https://www.openstreetmap.org/way/1360145427","source":"OpenStreetMap"}},{"type":"Feature","geometry":{"type":"Point","coordinates":[-2.2602886,57.1704711]},"properties":{"name":"Wynford Farm Park","layer":"zoos","note":"OpenStreetMap","osm_id":"way/1367672562","osm_url":"https://www.openstreetmap.org/way/1367672562","source":"OpenStreetMap"}},{"type":"Feature","geometry":{"type":"Point","coordinates":[-3.0677849,58.6379163]},"properties":{"name":"Puffin Croft Petting Farm","layer":"zoos","note":"OpenStreetMap","osm_id":"way/1389644712","osm_url":"https://www.openstreetmap.org/way/1389644712","source":"OpenStreetMap"}},{"type":"Feature","geometry":{"type":"Point","coordinates":[-5.4269471,50.1781733]},"properties":{"name":"Paradise Park","layer":"zoos","note":"OpenStreetMap","osm_id":"way/1396818857","osm_url":"https://www.openstreetmap.org/way/1396818857","source":"OpenStreetMap"}},{"type":"Feature","geometry":{"type":"Point","coordinates":[-0.4466579,51.8490769]},"properties":{"name":"Woodside Animal Farm & Leisure PArk","layer":"zoos","note":"OpenStreetMap","osm_id":"way/1417640681","osm_url":"https://www.openstreetmap.org/way/1417640681","source":"OpenStreetMap"}},{"type":"Feature","geometry":{"type":"Point","coordinates":[-0.2418191,54.0625359]},"properties":{"name":"Bridlington Animal Park","layer":"zoos","note":"OpenStreetMap","osm_id":"way/1420175280","osm_url":"https://www.openstreetmap.org/way/1420175280","source":"OpenStreetMap"}},{"type":"Feature","geometry":{"type":"Point","coordinates":[-0.0005494,51.7110894]},"properties":{"name":"Lee Valley Animal Adventure Park","layer":"zoos","note":"OpenStreetMap","osm_id":"way/1422258355","osm_url":"https://www.openstreetmap.org/way/1422258355","source":"OpenStreetMap"}},{"type":"Feature","geometry":{"type":"Point","coordinates":[-1.5047543,53.8405194]},"properties":{"name":"Tropical World","layer":"zoos","note":"Leeds City Council","osm_id":"way/142846269","osm_url":"https://www.openstreetmap.org/way/142846269","source":"OpenStreetMap","brand":"Leeds City Council"}},{"type":"Feature","geometry":{"type":"Point","coordinates":[0.6913939,51.7259966]},"properties":{"name":"Promanade Park Zoo","layer":"zoos","note":"OpenStreetMap","osm_id":"way/1463521751","osm_url":"https://www.openstreetmap.org/way/1463521751","source":"OpenStreetMap"}},{"type":"Feature","geometry":{"type":"Point","coordinates":[-2.6004524,56.5844273]},"properties":{"name":"David's Hill Alpacas","layer":"zoos","note":"OpenStreetMap","osm_id":"way/1473345529","osm_url":"https://www.openstreetmap.org/way/1473345529","source":"OpenStreetMap"}},{"type":"Feature","geometry":{"type":"Point","coordinates":[-1.9242444,53.0614542]},"properties":{"name":"Peak Wildlife Park","layer":"zoos","note":"OpenStreetMap","osm_id":"way/148376354","osm_url":"https://www.openstreetmap.org/way/148376354","source":"OpenStreetMap"}},{"type":"Feature","geometry":{"type":"Point","coordinates":[0.3207815,52.3305228]},"properties":{"name":"South Angle Farm Park","layer":"zoos","note":"OpenStreetMap","osm_id":"way/1484314167","osm_url":"https://www.openstreetmap.org/way/1484314167","source":"OpenStreetMap"}},{"type":"Feature","geometry":{"type":"Point","coordinates":[-5.0682773,50.4118563]},"properties":{"name":"Newquay Zoo","layer":"zoos","note":"OpenStreetMap","osm_id":"way/148769597","osm_url":"https://www.openstreetmap.org/way/148769597","source":"OpenStreetMap"}},{"type":"Feature","geometry":{"type":"Point","coordinates":[-7.9818185,53.1008839]},"properties":{"name":"Zoo","layer":"zoos","note":"OpenStreetMap","osm_id":"way/1494418485","osm_url":"https://www.openstreetmap.org/way/1494418485","source":"OpenStreetMap"}},{"type":"Feature","geometry":{"type":"Point","coordinates":[-2.4312728,50.5590235]},"properties":{"name":"Fancy's Family Farm","layer":"zoos","note":"OpenStreetMap","osm_id":"way/1533224001","osm_url":"https://www.openstreetmap.org/way/1533224001","source":"OpenStreetMap"}},{"type":"Feature","geometry":{"type":"Point","coordinates":[-3.997762,50.4086175]},"properties":{"name":"Dartmoor Zoo","layer":"zoos","note":"OpenStreetMap","osm_id":"way/153913358","osm_url":"https://www.openstreetmap.org/way/153913358","source":"OpenStreetMap"}},{"type":"Feature","geometry":{"type":"Point","coordinates":[-1.8866734,52.6247281]},"properties":{"name":"Oak Tree Children's Farm","layer":"zoos","note":"OpenStreetMap","osm_id":"way/1540352757","osm_url":"https://www.openstreetmap.org/way/1540352757","source":"OpenStreetMap"}},{"type":"Feature","geometry":{"type":"Point","coordinates":[-0.4439133,51.6907765]},"properties":{"name":"Langleybury Childrens' Farm","layer":"zoos","note":"OpenStreetMap","osm_id":"way/154276446","osm_url":"https://www.openstreetmap.org/way/154276446","source":"OpenStreetMap"}},{"type":"Feature","geometry":{"type":"Point","coordinates":[-2.8988473,53.777005]},"properties":{"name":"Wild Discovery Zoo","layer":"zoos","note":"OpenStreetMap","osm_id":"way/1557952644","osm_url":"https://www.openstreetmap.org/way/1557952644","source":"OpenStreetMap"}},{"type":"Feature","geometry":{"type":"Point","coordinates":[-0.7624597,51.8326789]},"properties":{"name":"RSPB Kingsbrook Meadows","layer":"zoos","note":"OpenStreetMap","osm_id":"way/1561738361","osm_url":"https://www.openstreetmap.org/way/1561738361","source":"OpenStreetMap"}},{"type":"Feature","geometry":{"type":"Point","coordinates":[-2.444204,50.625988]},"properties":{"name":"Sealife Centre","layer":"zoos","note":"Merlin","osm_id":"way/159735924","osm_url":"https://www.openstreetmap.org/way/159735924","source":"OpenStreetMap","brand":"Merlin"}},{"type":"Feature","geometry":{"type":"Point","coordinates":[-2.2018916,52.9529608]},"properties":{"name":"Trentham Monkey Forest","layer":"zoos","note":"OpenStreetMap","osm_id":"way/159955124","osm_url":"https://www.openstreetmap.org/way/159955124","source":"OpenStreetMap"}},{"type":"Feature","geometry":{"type":"Point","coordinates":[-4.0441166,52.4855719]},"properties":{"name":"Borth Animalarium","layer":"zoos","note":"OpenStreetMap","osm_id":"way/160146790","osm_url":"https://www.openstreetmap.org/way/160146790","source":"OpenStreetMap"}},{"type":"Feature","geometry":{"type":"Point","coordinates":[-4.5724259,50.4053414]},"properties":{"name":"Porfell Wildlife Park & Sanctuary","layer":"zoos","note":"OpenStreetMap","osm_id":"way/164652143","osm_url":"https://www.openstreetmap.org/way/164652143","source":"OpenStreetMap"}},{"type":"Feature","geometry":{"type":"Point","coordinates":[-1.75359,51.8800624]},"properties":{"name":"Birdland Park and Gardens","layer":"zoos","note":"OpenStreetMap","osm_id":"way/166160770","osm_url":"https://www.openstreetmap.org/way/166160770","source":"OpenStreetMap"}},{"type":"Feature","geometry":{"type":"Point","coordinates":[-2.0750835,49.2284696]},"properties":{"name":"Jersey Zoo","layer":"zoos","note":"Durrell Wildlife Conservation Trust","osm_id":"way/166535849","osm_url":"https://www.openstreetmap.org/way/166535849","source":"OpenStreetMap","brand":"Durrell Wildlife Conservation Trust"}},{"type":"Feature","geometry":{"type":"Point","coordinates":[-0.0622968,51.7440212]},"properties":{"name":"Hertfordshire Zoo","layer":"zoos","note":"Hertfordshire Zoo","osm_id":"way/16947013","osm_url":"https://www.openstreetmap.org/way/16947013","source":"OpenStreetMap","brand":"Hertfordshire Zoo"}},{"type":"Feature","geometry":{"type":"Point","coordinates":[-3.6644311,50.5540857]},"properties":{"name":"Theden Animal Park","layer":"zoos","note":"Trago Mills","osm_id":"way/170090225","osm_url":"https://www.openstreetmap.org/way/170090225","source":"OpenStreetMap","brand":"Trago Mills"}},{"type":"Feature","geometry":{"type":"Point","coordinates":[-3.6806322,51.8341425]},"properties":{"name":"Dan-Yr-Ogof Farm","layer":"zoos","note":"OpenStreetMap","osm_id":"way/171028737","osm_url":"https://www.openstreetmap.org/way/171028737","source":"OpenStreetMap"}},{"type":"Feature","geometry":{"type":"Point","coordinates":[-3.2373065,54.6850545]},"properties":{"name":"Lake District Wildlife Park","layer":"zoos","note":"OpenStreetMap","osm_id":"way/177127523","osm_url":"https://www.openstreetmap.org/way/177127523","source":"OpenStreetMap"}},{"type":"Feature","geometry":{"type":"Point","coordinates":[-8.9353306,53.8613223]},"properties":{"name":"Kiltimagh Pet Farm","layer":"zoos","note":"OpenStreetMap","osm_id":"way/178374987","osm_url":"https://www.openstreetmap.org/way/178374987","source":"OpenStreetMap"}},{"type":"Feature","geometry":{"type":"Point","coordinates":[-1.5282303,52.6524184]},"properties":{"name":"Twycross Zoo","layer":"zoos","note":"OpenStreetMap","osm_id":"way/189048464","osm_url":"https://www.openstreetmap.org/way/189048464","source":"OpenStreetMap"}},{"type":"Feature","geometry":{"type":"Point","coordinates":[1.0265538,52.4434127]},"properties":{"name":"Banham Zoo","layer":"zoos","note":"OpenStreetMap","osm_id":"way/193161365","osm_url":"https://www.openstreetmap.org/way/193161365","source":"OpenStreetMap"}},{"type":"Feature","geometry":{"type":"Point","coordinates":[-3.6313259,50.4979018]},"properties":{"name":"The Devon Bird of Prey Centre","layer":"zoos","note":"OpenStreetMap","osm_id":"way/197393887","osm_url":"https://www.openstreetmap.org/way/197393887","source":"OpenStreetMap"}},{"type":"Feature","geometry":{"type":"Point","coordinates":[-8.5606952,53.2520934]},"properties":{"name":"Turoe Pet Farm","layer":"zoos","note":"OpenStreetMap","osm_id":"way/200238689","osm_url":"https://www.openstreetmap.org/way/200238689","source":"OpenStreetMap"}},{"type":"Feature","geometry":{"type":"Point","coordinates":[-0.3789223,53.2693291]},"properties":{"name":"Lincoln Zoo","layer":"zoos","note":"OpenStreetMap","osm_id":"way/206402969","osm_url":"https://www.openstreetmap.org/way/206402969","source":"OpenStreetMap"}},{"type":"Feature","geometry":{"type":"Point","coordinates":[-3.5588089,55.8652113]},"properties":{"name":"Five Sisters Zoo Park","layer":"zoos","note":"OpenStreetMap","osm_id":"way/213219546","osm_url":"https://www.openstreetmap.org/way/213219546","source":"OpenStreetMap"}},{"type":"Feature","geometry":{"type":"Point","coordinates":[0.0508901,53.3842172]},"properties":{"name":"Rushmoor Country Park","layer":"zoos","note":"OpenStreetMap","osm_id":"way/216888898","osm_url":"https://www.openstreetmap.org/way/216888898","source":"OpenStreetMap"}},{"type":"Feature","geometry":{"type":"Point","coordinates":[-0.1846953,51.0937277]},"properties":{"name":"Tilgate Zoo","layer":"zoos","note":"OpenStreetMap","osm_id":"way/219676544","osm_url":"https://www.openstreetmap.org/way/219676544","source":"OpenStreetMap"}},{"type":"Feature","geometry":{"type":"Point","coordinates":[0.3338239,53.2030309]},"properties":{"name":"Hardys Animal Farm","layer":"zoos","note":"OpenStreetMap","osm_id":"way/219779713","osm_url":"https://www.openstreetmap.org/way/219779713","source":"OpenStreetMap"}},{"type":"Feature","geometry":{"type":"Point","coordinates":[-1.2634006,50.705727]},"properties":{"name":"Monkey Haven","layer":"zoos","note":"The Leaf Foundation","osm_id":"way/220864074","osm_url":"https://www.openstreetmap.org/way/220864074","source":"OpenStreetMap","brand":"The Leaf Foundation"}},{"type":"Feature","geometry":{"type":"Point","coordinates":[-0.3478336,51.5122668]},"properties":{"name":"Hanwell Zoo","layer":"zoos","note":"OpenStreetMap","osm_id":"way/221351281","osm_url":"https://www.openstreetmap.org/way/221351281","source":"OpenStreetMap"}},{"type":"Feature","geometry":{"type":"Point","coordinates":[-1.2189577,51.4819659]},"properties":{"name":"The Living Rain Forest","layer":"zoos","note":"OpenStreetMap","osm_id":"way/223099543","osm_url":"https://www.openstreetmap.org/way/223099543","source":"OpenStreetMap"}},{"type":"Feature","geometry":{"type":"Point","coordinates":[0.1925665,51.3695249]},"properties":{"name":"Eagle Heights Wildlife Centre","layer":"zoos","note":"OpenStreetMap","osm_id":"way/223752022","osm_url":"https://www.openstreetmap.org/way/223752022","source":"OpenStreetMap"}},{"type":"Feature","geometry":{"type":"Point","coordinates":[-0.1109173,51.10687]},"properties":{"name":"Zoo","layer":"zoos","note":"OpenStreetMap","osm_id":"way/226610776","osm_url":"https://www.openstreetmap.org/way/226610776","source":"OpenStreetMap"}},{"type":"Feature","geometry":{"type":"Point","coordinates":[-0.0874152,51.5606489]},"properties":{"name":"Animal Enclosure","layer":"zoos","note":"OpenStreetMap","osm_id":"way/230363142","osm_url":"https://www.openstreetmap.org/way/230363142","source":"OpenStreetMap"}},{"type":"Feature","geometry":{"type":"Point","coordinates":[-1.5842724,51.7780655]},"properties":{"name":"Crocodiles of the World","layer":"zoos","note":"OpenStreetMap","osm_id":"way/231462687","osm_url":"https://www.openstreetmap.org/way/231462687","source":"OpenStreetMap"}},{"type":"Feature","geometry":{"type":"Point","coordinates":[1.1509048,51.2685253]},"properties":{"name":"Howletts Wild Animal Park","layer":"zoos","note":"OpenStreetMap","osm_id":"way/23281184","osm_url":"https://www.openstreetmap.org/way/23281184","source":"OpenStreetMap"}},{"type":"Feature","geometry":{"type":"Point","coordinates":[-2.8685647,51.3620071]},"properties":{"name":"Puxton Park","layer":"zoos","note":"OpenStreetMap","osm_id":"way/234991877","osm_url":"https://www.openstreetmap.org/way/234991877","source":"OpenStreetMap"}},{"type":"Feature","geometry":{"type":"Point","coordinates":[-3.7475681,53.2948119]},"properties":{"name":"Welsh Mountain Zoo","layer":"zoos","note":"OpenStreetMap","osm_id":"way/238502641","osm_url":"https://www.openstreetmap.org/way/238502641","source":"OpenStreetMap"}},{"type":"Feature","geometry":{"type":"Point","coordinates":[0.1641835,50.8244344]},"properties":{"name":"Drusillas Park","layer":"zoos","note":"OpenStreetMap","osm_id":"way/239051036","osm_url":"https://www.openstreetmap.org/way/239051036","source":"OpenStreetMap"}},{"type":"Feature","geometry":{"type":"Point","coordinates":[-4.3930559,55.8472319]},"properties":{"name":"Nature Corner","layer":"zoos","note":"OpenStreetMap","osm_id":"way/23997452","osm_url":"https://www.openstreetmap.org/way/23997452","source":"OpenStreetMap"}},{"type":"Feature","geometry":{"type":"Point","coordinates":[-0.5489293,51.8421164]},"properties":{"name":"Common Hippo","layer":"zoos","note":"ZSL","osm_id":"way/240628730","osm_url":"https://www.openstreetmap.org/way/240628730","source":"OpenStreetMap","brand":"ZSL"}},{"type":"Feature","geometry":{"type":"Point","coordinates":[-1.6714668,53.6934303]},"properties":{"name":"Ponderosa Zoo","layer":"zoos","note":"OpenStreetMap","osm_id":"way/24402894","osm_url":"https://www.openstreetmap.org/way/24402894","source":"OpenStreetMap"}},{"type":"Feature","geometry":{"type":"Point","coordinates":[-2.8798382,51.3382893]},"properties":{"name":"Court Farm Country Park","layer":"zoos","note":"OpenStreetMap","osm_id":"way/258848185","osm_url":"https://www.openstreetmap.org/way/258848185","source":"OpenStreetMap"}},{"type":"Feature","geometry":{"type":"Point","coordinates":[-2.2616704,51.1916395]},"properties":{"name":"Longleat Safari Park","layer":"zoos","note":"OpenStreetMap","osm_id":"way/26690197","osm_url":"https://www.openstreetmap.org/way/26690197","source":"OpenStreetMap"}},{"type":"Feature","geometry":{"type":"Point","coordinates":[-2.8701934,53.632891]},"properties":{"name":"Windmill Animal Farm","layer":"zoos","note":"OpenStreetMap","osm_id":"way/271004891","osm_url":"https://www.openstreetmap.org/way/271004891","source":"OpenStreetMap"}},{"type":"Feature","geometry":{"type":"Point","coordinates":[-2.2175003,50.6948176]},"properties":{"name":"Monkey World","layer":"zoos","note":"OpenStreetMap","osm_id":"way/276147139","osm_url":"https://www.openstreetmap.org/way/276147139","source":"OpenStreetMap"}},{"type":"Feature","geometry":{"type":"Point","coordinates":[-1.2202914,50.655799]},"properties":{"name":"Amazon World","layer":"zoos","note":"OpenStreetMap","osm_id":"way/28628778","osm_url":"https://www.openstreetmap.org/way/28628778","source":"OpenStreetMap"}},{"type":"Feature","geometry":{"type":"Point","coordinates":[-3.0264678,50.7796416]},"properties":{"name":"Axe Valley Wildlife Park","layer":"zoos","note":"OpenStreetMap","osm_id":"way/290266264","osm_url":"https://www.openstreetmap.org/way/290266264","source":"OpenStreetMap"}},{"type":"Feature","geometry":{"type":"Point","coordinates":[-0.1897156,51.5670812]},"properties":{"name":"Golders Hill Park Zoo","layer":"zoos","note":"OpenStreetMap","osm_id":"way/29127976","osm_url":"https://www.openstreetmap.org/way/29127976","source":"OpenStreetMap"}},{"type":"Feature","geometry":{"type":"Point","coordinates":[-0.0473249,51.1738443]},"properties":{"name":"British Wildlife Centre","layer":"zoos","note":"OpenStreetMap","osm_id":"way/296434326","osm_url":"https://www.openstreetmap.org/way/296434326","source":"OpenStreetMap"}},{"type":"Feature","geometry":{"type":"Point","coordinates":[-1.5929655,54.9907359]},"properties":{"name":"Pets' Corner","layer":"zoos","note":"OpenStreetMap","osm_id":"way/300111091","osm_url":"https://www.openstreetmap.org/way/300111091","source":"OpenStreetMap"}},{"type":"Feature","geometry":{"type":"Point","coordinates":[-1.2047195,53.3558132]},"properties":{"name":"Tropical Butterfly House","layer":"zoos","note":"OpenStreetMap","osm_id":"way/302573295","osm_url":"https://www.openstreetmap.org/way/302573295","source":"OpenStreetMap"}},{"type":"Feature","geometry":{"type":"Point","coordinates":[-1.4272743,54.2534872]},"properties":{"name":"Thirsk Birds of Prey Centre","layer":"zoos","note":"OpenStreetMap","osm_id":"way/310380140","osm_url":"https://www.openstreetmap.org/way/310380140","source":"OpenStreetMap"}},{"type":"Feature","geometry":{"type":"Point","coordinates":[-8.3108844,51.8928201]},"properties":{"name":"Fota Wildlife Park","layer":"zoos","note":"Zoological Society of Ireland","osm_id":"way/31344800","osm_url":"https://www.openstreetmap.org/way/31344800","source":"OpenStreetMap","brand":"Zoological Society of Ireland"}},{"type":"Feature","geometry":{"type":"Point","coordinates":[1.2302015,51.2807931]},"properties":{"name":"Wingham Wildlife Park","layer":"zoos","note":"OpenStreetMap","osm_id":"way/313920643","osm_url":"https://www.openstreetmap.org/way/313920643","source":"OpenStreetMap"}},{"type":"Feature","geometry":{"type":"Point","coordinates":[-0.1626125,54.1037578]},"properties":{"name":"Sewerby Zoo","layer":"zoos","note":"OpenStreetMap","osm_id":"way/316870160","osm_url":"https://www.openstreetmap.org/way/316870160","source":"OpenStreetMap"}},{"type":"Feature","geometry":{"type":"Point","coordinates":[-0.5896718,52.0012027]},"properties":{"name":"Woburn Safari Park","layer":"zoos","note":"OpenStreetMap","osm_id":"way/331937315","osm_url":"https://www.openstreetmap.org/way/331937315","source":"OpenStreetMap"}},{"type":"Feature","geometry":{"type":"Point","coordinates":[-4.731791,51.7426078]},"properties":{"name":"Folly Farm","layer":"zoos","note":"Folly Farm Leisure Limited","osm_id":"way/334783362","osm_url":"https://www.openstreetmap.org/way/334783362","source":"OpenStreetMap","brand":"Folly Farm Leisure Limited"}},{"type":"Feature","geometry":{"type":"Point","coordinates":[-2.9593786,53.6603457]},"properties":{"name":"Botanic Gardens Aviary","layer":"zoos","note":"OpenStreetMap","osm_id":"way/337657886","osm_url":"https://www.openstreetmap.org/way/337657886","source":"OpenStreetMap"}},{"type":"Feature","geometry":{"type":"Point","coordinates":[-2.8092548,53.4424651]},"properties":{"name":"Knowsley Safari","layer":"zoos","note":"OpenStreetMap","osm_id":"way/338544089","osm_url":"https://www.openstreetmap.org/way/338544089","source":"OpenStreetMap"}},{"type":"Feature","geometry":{"type":"Point","coordinates":[-2.886624,53.2616847]},"properties":{"name":"Pelican Cove","layer":"zoos","note":"OpenStreetMap","osm_id":"way/339314727","osm_url":"https://www.openstreetmap.org/way/339314727","source":"OpenStreetMap"}},{"type":"Feature","geometry":{"type":"Point","coordinates":[-2.5990627,53.3607923]},"properties":{"name":"Walton Hall Zoo","layer":"zoos","note":"OpenStreetMap","osm_id":"way/34310102","osm_url":"https://www.openstreetmap.org/way/34310102","source":"OpenStreetMap"}},{"type":"Feature","geometry":{"type":"Point","coordinates":[-0.0396993,52.3640817]},"properties":{"name":"The Raptor Foundation","layer":"zoos","note":"OpenStreetMap","osm_id":"way/35390173","osm_url":"https://www.openstreetmap.org/way/35390173","source":"OpenStreetMap"}},{"type":"Feature","geometry":{"type":"Point","coordinates":[1.6384727,52.6530908]},"properties":{"name":"Thrigby Hall Wildlife Gardens","layer":"zoos","note":"OpenStreetMap","osm_id":"way/376242213","osm_url":"https://www.openstreetmap.org/way/376242213","source":"OpenStreetMap"}},{"type":"Feature","geometry":{"type":"Point","coordinates":[-0.5432546,51.847316]},"properties":{"name":"Whipsnade Zoo","layer":"zoos","note":"ZSL","osm_id":"way/37640477","osm_url":"https://www.openstreetmap.org/way/37640477","source":"OpenStreetMap","brand":"ZSL"}},{"type":"Feature","geometry":{"type":"Point","coordinates":[-0.2896911,51.3470579]},"properties":{"name":"Hobbledown","layer":"zoos","note":"OpenStreetMap","osm_id":"way/377585341","osm_url":"https://www.openstreetmap.org/way/377585341","source":"OpenStreetMap"}},{"type":"Feature","geometry":{"type":"Point","coordinates":[-0.3085553,54.217022]},"properties":{"name":"Filey Zoo","layer":"zoos","note":"OpenStreetMap","osm_id":"way/382333902","osm_url":"https://www.openstreetmap.org/way/382333902","source":"OpenStreetMap"}},{"type":"Feature","geometry":{"type":"Point","coordinates":[1.298087,52.9223362]},"properties":{"name":"Amazona Zoo","layer":"zoos","note":"Cabbell-Manners family","osm_id":"way/382790370","osm_url":"https://www.openstreetmap.org/way/382790370","source":"OpenStreetMap","brand":"Cabbell-Manners family"}},{"type":"Feature","geometry":{"type":"Point","coordinates":[-2.177543,51.8208535]},"properties":{"name":"Prinknash Bird and Deer Park","layer":"zoos","note":"OpenStreetMap","osm_id":"way/38434824","osm_url":"https://www.openstreetmap.org/way/38434824","source":"OpenStreetMap"}},{"type":"Feature","geometry":{"type":"Point","coordinates":[-3.0858302,56.3028673]},"properties":{"name":"Scottish Deer Centre","layer":"zoos","note":"OpenStreetMap","osm_id":"way/389541158","osm_url":"https://www.openstreetmap.org/way/389541158","source":"OpenStreetMap"}},{"type":"Feature","geometry":{"type":"Point","coordinates":[-4.5142002,54.3180774]},"properties":{"name":"The Curraghs Wildlife Park","layer":"zoos","note":"OpenStreetMap","osm_id":"way/39658905","osm_url":"https://www.openstreetmap.org/way/39658905","source":"OpenStreetMap"}},{"type":"Feature","geometry":{"type":"Point","coordinates":[-3.7672333,50.4818618]},"properties":{"name":"Zoo","layer":"zoos","note":"OpenStreetMap","osm_id":"way/398064748","osm_url":"https://www.openstreetmap.org/way/398064748","source":"OpenStreetMap"}},{"type":"Feature","geometry":{"type":"Point","coordinates":[-3.9253295,51.1486735]},"properties":{"name":"Exmoor Zoo","layer":"zoos","note":"OpenStreetMap","osm_id":"way/404418905","osm_url":"https://www.openstreetmap.org/way/404418905","source":"OpenStreetMap"}},{"type":"Feature","geometry":{"type":"Point","coordinates":[-2.614077,51.5316187]},"properties":{"name":"Bristol Zoo Project","layer":"zoos","note":"Bristol, Clifton & West of England Zoological Society","osm_id":"way/421510133","osm_url":"https://www.openstreetmap.org/way/421510133","source":"OpenStreetMap","brand":"Bristol, Clifton & West of England Zoological Society"}},{"type":"Feature","geometry":{"type":"Point","coordinates":[-0.3150908,51.3482988]},"properties":{"name":"Trail of the Kings","layer":"zoos","note":"OpenStreetMap","osm_id":"way/421564288","osm_url":"https://www.openstreetmap.org/way/421564288","source":"OpenStreetMap"}},{"type":"Feature","geometry":{"type":"Point","coordinates":[1.5766601,52.5662111]},"properties":{"name":"Pettitts Animal Adventure Park","layer":"zoos","note":"OpenStreetMap","osm_id":"way/421600040","osm_url":"https://www.openstreetmap.org/way/421600040","source":"OpenStreetMap"}},{"type":"Feature","geometry":{"type":"Point","coordinates":[-0.2449762,51.0947947]},"properties":{"name":"Zoo","layer":"zoos","note":"OpenStreetMap","osm_id":"way/422307759","osm_url":"https://www.openstreetmap.org/way/422307759","source":"OpenStreetMap"}},{"type":"Feature","geometry":{"type":"Point","coordinates":[-0.2441658,51.0940587]},"properties":{"name":"Zoo","layer":"zoos","note":"OpenStreetMap","osm_id":"way/422308687","osm_url":"https://www.openstreetmap.org/way/422308687","source":"OpenStreetMap"}},{"type":"Feature","geometry":{"type":"Point","coordinates":[-9.4203433,52.9587565]},"properties":{"name":"Moher Hill Open Farm","layer":"zoos","note":"OpenStreetMap","osm_id":"way/435818839","osm_url":"https://www.openstreetmap.org/way/435818839","source":"OpenStreetMap"}},{"type":"Feature","geometry":{"type":"Point","coordinates":[-2.4053209,51.7406227]},"properties":{"name":"Slimbridge Wetland Centre","layer":"zoos","note":"Wildfowl and Wetlands Trust","osm_id":"way/440958233","osm_url":"https://www.openstreetmap.org/way/440958233","source":"OpenStreetMap","brand":"Wildfowl and Wetlands Trust"}},{"type":"Feature","geometry":{"type":"Point","coordinates":[-2.1681336,53.5532683]},"properties":{"name":"Lancaster Park & Animal Farm","layer":"zoos","note":"OpenStreetMap","osm_id":"way/444091415","osm_url":"https://www.openstreetmap.org/way/444091415","source":"OpenStreetMap"}},{"type":"Feature","geometry":{"type":"Point","coordinates":[-1.1389087,52.6497197]},"properties":{"name":"Pets Corner","layer":"zoos","note":"Leicester City Council","osm_id":"way/451113856","osm_url":"https://www.openstreetmap.org/way/451113856","source":"OpenStreetMap","brand":"Leicester City Council"}},{"type":"Feature","geometry":{"type":"Point","coordinates":[-3.9251178,55.3729386]},"properties":{"name":"Clarks Little Ark Petting Zoo","layer":"zoos","note":"OpenStreetMap","osm_id":"way/469610504","osm_url":"https://www.openstreetmap.org/way/469610504","source":"OpenStreetMap"}},{"type":"Feature","geometry":{"type":"Point","coordinates":[0.2707923,52.0917217]},"properties":{"name":"Linton Zoo","layer":"zoos","note":"OpenStreetMap","osm_id":"way/4731565","osm_url":"https://www.openstreetmap.org/way/4731565","source":"OpenStreetMap"}},{"type":"Feature","geometry":{"type":"Point","coordinates":[-3.3484855,51.1600502]},"properties":{"name":"Tropiquaria","layer":"zoos","note":"Tropiquaria","osm_id":"way/473434585","osm_url":"https://www.openstreetmap.org/way/473434585","source":"OpenStreetMap","brand":"Tropiquaria"}},{"type":"Feature","geometry":{"type":"Point","coordinates":[-4.6910345,55.4268715]},"properties":{"name":"Heads of Ayr Farm Park","layer":"zoos","note":"OpenStreetMap","osm_id":"way/477759283","osm_url":"https://www.openstreetmap.org/way/477759283","source":"OpenStreetMap"}},{"type":"Feature","geometry":{"type":"Point","coordinates":[-4.353228,53.1606496]},"properties":{"name":"Anglesey Alpacas","layer":"zoos","note":"OpenStreetMap","osm_id":"way/478706206","osm_url":"https://www.openstreetmap.org/way/478706206","source":"OpenStreetMap"}},{"type":"Feature","geometry":{"type":"Point","coordinates":[1.1367353,52.188698]},"properties":{"name":"Suffolk Owl Sanctuary","layer":"zoos","note":"OpenStreetMap","osm_id":"way/487690508","osm_url":"https://www.openstreetmap.org/way/487690508","source":"OpenStreetMap"}},{"type":"Feature","geometry":{"type":"Point","coordinates":[0.1340262,51.6140542]},"properties":{"name":"Foxburrows Children's Farm","layer":"zoos","note":"London Borough of Redbridge","osm_id":"way/488344015","osm_url":"https://www.openstreetmap.org/way/488344015","source":"OpenStreetMap","brand":"London Borough of Redbridge"}},{"type":"Feature","geometry":{"type":"Point","coordinates":[-3.9639526,56.3528279]},"properties":{"name":"Auchingarrich Wildlife Centre","layer":"zoos","note":"OpenStreetMap","osm_id":"way/492212550","osm_url":"https://www.openstreetmap.org/way/492212550","source":"OpenStreetMap"}},{"type":"Feature","geometry":{"type":"Point","coordinates":[-1.954647,51.9483942]},"properties":{"name":"Pheasantry","layer":"zoos","note":"OpenStreetMap","osm_id":"way/495523367","osm_url":"https://www.openstreetmap.org/way/495523367","source":"OpenStreetMap"}},{"type":"Feature","geometry":{"type":"Point","coordinates":[0.0358298,52.1145873]},"properties":{"name":"Shepreth Wildlife Park","layer":"zoos","note":"OpenStreetMap","osm_id":"way/5015900","osm_url":"https://www.openstreetmap.org/way/5015900","source":"OpenStreetMap"}},{"type":"Feature","geometry":{"type":"Point","coordinates":[0.2606576,53.2630034]},"properties":{"name":"Radcliffe Donkey Sanctuary","layer":"zoos","note":"OpenStreetMap","osm_id":"way/503273114","osm_url":"https://www.openstreetmap.org/way/503273114","source":"OpenStreetMap"}},{"type":"Feature","geometry":{"type":"Point","coordinates":[-0.0606664,51.4425506]},"properties":{"name":"Menagerie","layer":"zoos","note":"OpenStreetMap","osm_id":"way/5095289","osm_url":"https://www.openstreetmap.org/way/5095289","source":"OpenStreetMap"}},{"type":"Feature","geometry":{"type":"Point","coordinates":[-7.8100312,52.6795644]},"properties":{"name":"Aviary Pheasant Island","layer":"zoos","note":"OpenStreetMap","osm_id":"way/511336322","osm_url":"https://www.openstreetmap.org/way/511336322","source":"OpenStreetMap"}},{"type":"Feature","geometry":{"type":"Point","coordinates":[0.4493258,51.601495]},"properties":{"name":"Barleylands Farm Park","layer":"zoos","note":"OpenStreetMap","osm_id":"way/515308792","osm_url":"https://www.openstreetmap.org/way/515308792","source":"OpenStreetMap"}},{"type":"Feature","geometry":{"type":"Point","coordinates":[-3.3769234,50.8207552]},"properties":{"name":"Yarak Bird of Prey Centre","layer":"zoos","note":"OpenStreetMap","osm_id":"way/525183698","osm_url":"https://www.openstreetmap.org/way/525183698","source":"OpenStreetMap"}},{"type":"Feature","geometry":{"type":"Point","coordinates":[-6.2716786,53.2786276]},"properties":{"name":"Zoo","layer":"zoos","note":"Dun Laoghaire-Rathdown County Council","osm_id":"way/529484755","osm_url":"https://www.openstreetmap.org/way/529484755","source":"OpenStreetMap","brand":"Dun Laoghaire-Rathdown County Council"}},{"type":"Feature","geometry":{"type":"Point","coordinates":[-6.2719752,53.2788433]},"properties":{"name":"Zoo","layer":"zoos","note":"Dun Laoghaire-Rathdown County Council","osm_id":"way/529484756","osm_url":"https://www.openstreetmap.org/way/529484756","source":"OpenStreetMap","brand":"Dun Laoghaire-Rathdown County Council"}},{"type":"Feature","geometry":{"type":"Point","coordinates":[-1.1392506,50.6612037]},"properties":{"name":"The Wildheart Animal Sanctuary","layer":"zoos","note":"The Wildheart Trust","osm_id":"way/545829966","osm_url":"https://www.openstreetmap.org/way/545829966","source":"OpenStreetMap","brand":"The Wildheart Trust"}},{"type":"Feature","geometry":{"type":"Point","coordinates":[-2.7537223,54.1929332]},"properties":{"name":"Lakeland Wildlife Oasis","layer":"zoos","note":"OpenStreetMap","osm_id":"way/549563128","osm_url":"https://www.openstreetmap.org/way/549563128","source":"OpenStreetMap"}},{"type":"Feature","geometry":{"type":"Point","coordinates":[0.6059055,51.5466476]},"properties":{"name":"Hadleigh Castle Rare Breeds Centre","layer":"zoos","note":"The Salvation Army","osm_id":"way/555564630","osm_url":"https://www.openstreetmap.org/way/555564630","source":"OpenStreetMap","brand":"The Salvation Army"}},{"type":"Feature","geometry":{"type":"Point","coordinates":[-1.2066614,51.427112]},"properties":{"name":"Bucklebury Farm Park","layer":"zoos","note":"OpenStreetMap","osm_id":"way/55689601","osm_url":"https://www.openstreetmap.org/way/55689601","source":"OpenStreetMap"}},{"type":"Feature","geometry":{"type":"Point","coordinates":[-1.2943736,50.6866672]},"properties":{"name":"Frequent Flyers Falconry & Wildlife Centre","layer":"zoos","note":"OpenStreetMap","osm_id":"way/564429989","osm_url":"https://www.openstreetmap.org/way/564429989","source":"OpenStreetMap"}},{"type":"Feature","geometry":{"type":"Point","coordinates":[-2.2919281,53.4472033]},"properties":{"name":"Pets corner","layer":"zoos","note":"OpenStreetMap","osm_id":"way/567587115","osm_url":"https://www.openstreetmap.org/way/567587115","source":"OpenStreetMap"}},{"type":"Feature","geometry":{"type":"Point","coordinates":[-0.287657,54.2097919]},"properties":{"name":"Memorial Gardens Aviary","layer":"zoos","note":"OpenStreetMap","osm_id":"way/571089415","osm_url":"https://www.openstreetmap.org/way/571089415","source":"OpenStreetMap"}},{"type":"Feature","geometry":{"type":"Point","coordinates":[-1.1083956,51.4956334]},"properties":{"name":"Beale Park","layer":"zoos","note":"OpenStreetMap","osm_id":"way/57719018","osm_url":"https://www.openstreetmap.org/way/57719018","source":"OpenStreetMap"}},{"type":"Feature","geometry":{"type":"Point","coordinates":[-3.9757982,57.1100354]},"properties":{"name":"Highland Wildlife Park","layer":"zoos","note":"The Royal Zoological Society of Scotland","osm_id":"way/579520457","osm_url":"https://www.openstreetmap.org/way/579520457","source":"OpenStreetMap","brand":"The Royal Zoological Society of Scotland"}},{"type":"Feature","geometry":{"type":"Point","coordinates":[-1.3782558,51.6682806]},"properties":{"name":"Millets Wildside Falconry and Wildlife Centre","layer":"zoos","note":"Millets Farm Centre","osm_id":"way/580843343","osm_url":"https://www.openstreetmap.org/way/580843343","source":"OpenStreetMap","brand":"Millets Farm Centre"}},{"type":"Feature","geometry":{"type":"Point","coordinates":[-3.7210138,55.8657963]},"properties":{"name":"Scottish Owl Centre","layer":"zoos","note":"OpenStreetMap","osm_id":"way/584473162","osm_url":"https://www.openstreetmap.org/way/584473162","source":"OpenStreetMap"}},{"type":"Feature","geometry":{"type":"Point","coordinates":[-7.693712,54.9663585]},"properties":{"name":"Tropical World","layer":"zoos","note":"OpenStreetMap","osm_id":"way/585630196","osm_url":"https://www.openstreetmap.org/way/585630196","source":"OpenStreetMap"}},{"type":"Feature","geometry":{"type":"Point","coordinates":[1.1162053,51.3326145]},"properties":{"name":"Wildwood","layer":"zoos","note":"Wildwood Trust","osm_id":"way/601110116","osm_url":"https://www.openstreetmap.org/way/601110116","source":"OpenStreetMap","brand":"Wildwood Trust"}},{"type":"Feature","geometry":{"type":"Point","coordinates":[-0.1566111,51.4811923]},"properties":{"name":"Battersea Park Children's Zoo","layer":"zoos","note":"OpenStreetMap","osm_id":"way/60693939","osm_url":"https://www.openstreetmap.org/way/60693939","source":"OpenStreetMap"}},{"type":"Feature","geometry":{"type":"Point","coordinates":[-1.6534283,51.7711841]},"properties":{"name":"Cotswold Wildlife Park","layer":"zoos","note":"OpenStreetMap","osm_id":"way/60704774","osm_url":"https://www.openstreetmap.org/way/60704774","source":"OpenStreetMap"}},{"type":"Feature","geometry":{"type":"Point","coordinates":[-0.296694,53.7660953]},"properties":{"name":"Zoo","layer":"zoos","note":"OpenStreetMap","osm_id":"way/625737648","osm_url":"https://www.openstreetmap.org/way/625737648","source":"OpenStreetMap"}},{"type":"Feature","geometry":{"type":"Point","coordinates":[-2.8312344,56.6494229]},"properties":{"name":"Murton Farm","layer":"zoos","note":"OpenStreetMap","osm_id":"way/649128577","osm_url":"https://www.openstreetmap.org/way/649128577","source":"OpenStreetMap"}},{"type":"Feature","geometry":{"type":"Point","coordinates":[-2.0788248,52.5150775]},"properties":{"name":"Dudley Zoo & Castle","layer":"zoos","note":"Dudley and West Midlands Zoological Society","osm_id":"way/653250087","osm_url":"https://www.openstreetmap.org/way/653250087","source":"OpenStreetMap","brand":"Dudley and West Midlands Zoological Society"}},{"type":"Feature","geometry":{"type":"Point","coordinates":[-3.4000917,50.7032081]},"properties":{"name":"Greendale Farm Trail","layer":"zoos","note":"OpenStreetMap","osm_id":"way/659062222","osm_url":"https://www.openstreetmap.org/way/659062222","source":"OpenStreetMap"}},{"type":"Feature","geometry":{"type":"Point","coordinates":[-0.8425471,51.1813089]},"properties":{"name":"Birdworld","layer":"zoos","note":"OpenStreetMap","osm_id":"way/660953026","osm_url":"https://www.openstreetmap.org/way/660953026","source":"OpenStreetMap"}},{"type":"Feature","geometry":{"type":"Point","coordinates":[-1.709739,52.6123627]},"properties":{"name":"Drayton Manor Zoo","layer":"zoos","note":"OpenStreetMap","osm_id":"way/666148009","osm_url":"https://www.openstreetmap.org/way/666148009","source":"OpenStreetMap"}},{"type":"Feature","geometry":{"type":"Point","coordinates":[-4.5957547,56.0046138]},"properties":{"name":"Loch Lomond Bird of Prey Centre","layer":"zoos","note":"OpenStreetMap","osm_id":"way/669593606","osm_url":"https://www.openstreetmap.org/way/669593606","source":"OpenStreetMap"}},{"type":"Feature","geometry":{"type":"Point","coordinates":[-3.1554197,56.2987335]},"properties":{"name":"Fife Zoo","layer":"zoos","note":"OpenStreetMap","osm_id":"way/674121858","osm_url":"https://www.openstreetmap.org/way/674121858","source":"OpenStreetMap"}},{"type":"Feature","geometry":{"type":"Point","coordinates":[0.937077,52.5646297]},"properties":{"name":"Melsop Farm Park","layer":"zoos","note":"OpenStreetMap","osm_id":"way/687356244","osm_url":"https://www.openstreetmap.org/way/687356244","source":"OpenStreetMap"}},{"type":"Feature","geometry":{"type":"Point","coordinates":[-0.4166517,52.0884059]},"properties":{"name":"English School of Falconry","layer":"zoos","note":"OpenStreetMap","osm_id":"way/709595110","osm_url":"https://www.openstreetmap.org/way/709595110","source":"OpenStreetMap"}},{"type":"Feature","geometry":{"type":"Point","coordinates":[-2.1760358,57.1398006]},"properties":{"name":"Pets Corner","layer":"zoos","note":"OpenStreetMap","osm_id":"way/712683954","osm_url":"https://www.openstreetmap.org/way/712683954","source":"OpenStreetMap"}},{"type":"Feature","geometry":{"type":"Point","coordinates":[-5.5095718,57.5394622]},"properties":{"name":"Deer Park","layer":"zoos","note":"OpenStreetMap","osm_id":"way/724454246","osm_url":"https://www.openstreetmap.org/way/724454246","source":"OpenStreetMap"}},{"type":"Feature","geometry":{"type":"Point","coordinates":[-2.2920992,52.3758319]},"properties":{"name":"West Midlands Safari Park","layer":"zoos","note":"OpenStreetMap","osm_id":"way/73294037","osm_url":"https://www.openstreetmap.org/way/73294037","source":"OpenStreetMap"}},{"type":"Feature","geometry":{"type":"Point","coordinates":[-8.5721201,54.1016792]},"properties":{"name":"Eagles Flying - Irish Raptor Research Centre","layer":"zoos","note":"Irish Raptor Research Centre","osm_id":"way/745683767","osm_url":"https://www.openstreetmap.org/way/745683767","source":"OpenStreetMap","brand":"Irish Raptor Research Centre"}},{"type":"Feature","geometry":{"type":"Point","coordinates":[1.008465,51.0727945]},"properties":{"name":"Port Lympne Reserve","layer":"zoos","note":"OpenStreetMap","osm_id":"way/747429573","osm_url":"https://www.openstreetmap.org/way/747429573","source":"OpenStreetMap"}},{"type":"Feature","geometry":{"type":"Point","coordinates":[-4.1473123,55.7490016]},"properties":{"name":"Calderglen Zoo","layer":"zoos","note":"OpenStreetMap","osm_id":"way/752076932","osm_url":"https://www.openstreetmap.org/way/752076932","source":"OpenStreetMap"}},{"type":"Feature","geometry":{"type":"Point","coordinates":[-3.0437535,56.4811912]},"properties":{"name":"Camperdown Wildlife Centre","layer":"zoos","note":"OpenStreetMap","osm_id":"way/767357922","osm_url":"https://www.openstreetmap.org/way/767357922","source":"OpenStreetMap"}},{"type":"Feature","geometry":{"type":"Point","coordinates":[-0.3627726,54.2230807]},"properties":{"name":"Playdale Farm Park","layer":"zoos","note":"OpenStreetMap","osm_id":"way/771362482","osm_url":"https://www.openstreetmap.org/way/771362482","source":"OpenStreetMap"}},{"type":"Feature","geometry":{"type":"Point","coordinates":[-0.1481436,52.7839828]},"properties":{"name":"Zoo","layer":"zoos","note":"OpenStreetMap","osm_id":"way/77236934","osm_url":"https://www.openstreetmap.org/way/77236934","source":"OpenStreetMap"}},{"type":"Feature","geometry":{"type":"Point","coordinates":[-0.9403733,51.8427177]},"properties":{"name":"Waddesdon Aviary","layer":"zoos","note":"OpenStreetMap","osm_id":"way/77517533","osm_url":"https://www.openstreetmap.org/way/77517533","source":"OpenStreetMap"}},{"type":"Feature","geometry":{"type":"Point","coordinates":[-1.4419774,54.8542252]},"properties":{"name":"Down at the Farm","layer":"zoos","note":"OpenStreetMap","osm_id":"way/775325991","osm_url":"https://www.openstreetmap.org/way/775325991","source":"OpenStreetMap"}},{"type":"Feature","geometry":{"type":"Point","coordinates":[-2.2364632,52.8596784]},"properties":{"name":"Gentleshaw Wildlife Centre","layer":"zoos","note":"OpenStreetMap","osm_id":"way/775582265","osm_url":"https://www.openstreetmap.org/way/775582265","source":"OpenStreetMap"}},{"type":"Feature","geometry":{"type":"Point","coordinates":[-0.2087412,51.5352881]},"properties":{"name":"Pet's corner","layer":"zoos","note":"OpenStreetMap","osm_id":"way/78538589","osm_url":"https://www.openstreetmap.org/way/78538589","source":"OpenStreetMap"}},{"type":"Feature","geometry":{"type":"Point","coordinates":[-0.1073391,53.5465207]},"properties":{"name":"Nunnys Farm","layer":"zoos","note":"OpenStreetMap","osm_id":"way/785627763","osm_url":"https://www.openstreetmap.org/way/785627763","source":"OpenStreetMap"}},{"type":"Feature","geometry":{"type":"Point","coordinates":[-3.030809,52.1851978]},"properties":{"name":"Small Breeds Farm Park","layer":"zoos","note":"OpenStreetMap","osm_id":"way/787240458","osm_url":"https://www.openstreetmap.org/way/787240458","source":"OpenStreetMap"}},{"type":"Feature","geometry":{"type":"Point","coordinates":[-0.0092049,51.4913698]},"properties":{"name":"Pets Corner","layer":"zoos","note":"OpenStreetMap","osm_id":"way/791539371","osm_url":"https://www.openstreetmap.org/way/791539371","source":"OpenStreetMap"}},{"type":"Feature","geometry":{"type":"Point","coordinates":[-2.6161358,51.3744906]},"properties":{"name":"Chew Valley Animal Park","layer":"zoos","note":"OpenStreetMap","osm_id":"way/793084692","osm_url":"https://www.openstreetmap.org/way/793084692","source":"OpenStreetMap"}},{"type":"Feature","geometry":{"type":"Point","coordinates":[-2.7427868,51.4545445]},"properties":{"name":"Noah's Ark Zoo Farm","layer":"zoos","note":"OpenStreetMap","osm_id":"way/797665469","osm_url":"https://www.openstreetmap.org/way/797665469","source":"OpenStreetMap"}},{"type":"Feature","geometry":{"type":"Point","coordinates":[-1.4630903,53.338292]},"properties":{"name":"Graves Park Animal Farm","layer":"zoos","note":"OpenStreetMap","osm_id":"way/80929182","osm_url":"https://www.openstreetmap.org/way/80929182","source":"OpenStreetMap"}},{"type":"Feature","geometry":{"type":"Point","coordinates":[0.1455879,53.081643]},"properties":{"name":"Lincolnshire Wildlife Park","layer":"zoos","note":"Mr S Nichols","osm_id":"way/815072392","osm_url":"https://www.openstreetmap.org/way/815072392","source":"OpenStreetMap","brand":"Mr S Nichols"}},{"type":"Feature","geometry":{"type":"Point","coordinates":[-0.9463132,51.3579376]},"properties":{"name":"Zoo","layer":"zoos","note":"OpenStreetMap","osm_id":"way/820900725","osm_url":"https://www.openstreetmap.org/way/820900725","source":"OpenStreetMap"}},{"type":"Feature","geometry":{"type":"Point","coordinates":[-0.0915507,52.3801108]},"properties":{"name":"Johnson's Zoological Gardens","layer":"zoos","note":"Johnson's of Old Hurst","osm_id":"way/822268673","osm_url":"https://www.openstreetmap.org/way/822268673","source":"OpenStreetMap","brand":"Johnson's of Old Hurst"}},{"type":"Feature","geometry":{"type":"Point","coordinates":[-1.5981729,54.2662938]},"properties":{"name":"Bird of Prey and Mammal Centre","layer":"zoos","note":"OpenStreetMap","osm_id":"way/831863945","osm_url":"https://www.openstreetmap.org/way/831863945","source":"OpenStreetMap"}},{"type":"Feature","geometry":{"type":"Point","coordinates":[0.4107466,52.6746183]},"properties":{"name":"Watatunga Wildlife Reserve","layer":"zoos","note":"OpenStreetMap","osm_id":"way/839702218","osm_url":"https://www.openstreetmap.org/way/839702218","source":"OpenStreetMap"}},{"type":"Feature","geometry":{"type":"Point","coordinates":[0.2066178,50.8654248]},"properties":{"name":"Bede's Zoo","layer":"zoos","note":"OpenStreetMap","osm_id":"way/853828822","osm_url":"https://www.openstreetmap.org/way/853828822","source":"OpenStreetMap"}},{"type":"Feature","geometry":{"type":"Point","coordinates":[-1.3416415,54.534692]},"properties":{"name":"Butterfly World","layer":"zoos","note":"OpenStreetMap","osm_id":"way/854079086","osm_url":"https://www.openstreetmap.org/way/854079086","source":"OpenStreetMap"}},{"type":"Feature","geometry":{"type":"Point","coordinates":[-5.2861479,50.2573279]},"properties":{"name":"Feadon Wildlife Centre","layer":"zoos","note":"OpenStreetMap","osm_id":"way/885406130","osm_url":"https://www.openstreetmap.org/way/885406130","source":"OpenStreetMap"}},{"type":"Feature","geometry":{"type":"Point","coordinates":[-4.7671056,51.6863892]},"properties":{"name":"Manor Wildlife Park","layer":"zoos","note":"OpenStreetMap","osm_id":"way/910651158","osm_url":"https://www.openstreetmap.org/way/910651158","source":"OpenStreetMap"}},{"type":"Feature","geometry":{"type":"Point","coordinates":[0.5144274,52.5400428]},"properties":{"name":"Cherry Treee Farm","layer":"zoos","note":"OpenStreetMap","osm_id":"way/924110396","osm_url":"https://www.openstreetmap.org/way/924110396","source":"OpenStreetMap"}},{"type":"Feature","geometry":{"type":"Point","coordinates":[0.0011574,51.6298854]},"properties":{"name":"Get To Know Animals","layer":"zoos","note":"OpenStreetMap","osm_id":"way/927802576","osm_url":"https://www.openstreetmap.org/way/927802576","source":"OpenStreetMap"}},{"type":"Feature","geometry":{"type":"Point","coordinates":[-2.1189163,52.8042639]},"properties":{"name":"Victoria Park Aviary","layer":"zoos","note":"OpenStreetMap","osm_id":"way/931038690","osm_url":"https://www.openstreetmap.org/way/931038690","source":"OpenStreetMap"}},{"type":"Feature","geometry":{"type":"Point","coordinates":[-2.1190618,52.8042368]},"properties":{"name":"Victoria Park Aviary","layer":"zoos","note":"OpenStreetMap","osm_id":"way/931038691","osm_url":"https://www.openstreetmap.org/way/931038691","source":"OpenStreetMap"}},{"type":"Feature","geometry":{"type":"Point","coordinates":[-2.2313398,51.3014159]},"properties":{"name":"Hope Nature Centre","layer":"zoos","note":"Fairfield Farm Trust","osm_id":"way/941449593","osm_url":"https://www.openstreetmap.org/way/941449593","source":"OpenStreetMap","brand":"Fairfield Farm Trust"}},{"type":"Feature","geometry":{"type":"Point","coordinates":[0.6619028,51.1614073]},"properties":{"name":"The Big Cat Sanctuary","layer":"zoos","note":"Wildlife Heritage Foundation","osm_id":"way/94831143","osm_url":"https://www.openstreetmap.org/way/94831143","source":"OpenStreetMap","brand":"Wildlife Heritage Foundation"}},{"type":"Feature","geometry":{"type":"Point","coordinates":[-1.889661,53.2418942]},"properties":{"name":"Archie’s Farm","layer":"zoos","note":"OpenStreetMap","osm_id":"way/969594004","osm_url":"https://www.openstreetmap.org/way/969594004","source":"OpenStreetMap"}},{"type":"Feature","geometry":{"type":"Point","coordinates":[-3.6519083,56.0927869]},"properties":{"name":"Hillview Animal Park","layer":"zoos","note":"OpenStreetMap","osm_id":"way/970646871","osm_url":"https://www.openstreetmap.org/way/970646871","source":"OpenStreetMap"}},{"type":"Feature","geometry":{"type":"Point","coordinates":[-3.1697206,54.1663387]},"properties":{"name":"Zoo","layer":"zoos","note":"OpenStreetMap","osm_id":"way/972395386","osm_url":"https://www.openstreetmap.org/way/972395386","source":"OpenStreetMap"}},{"type":"Feature","geometry":{"type":"Point","coordinates":[0.3378663,51.3278178]},"properties":{"name":"Hemsley Conservation Centre","layer":"zoos","note":"OpenStreetMap","osm_id":"way/974049182","osm_url":"https://www.openstreetmap.org/way/974049182","source":"OpenStreetMap"}},{"type":"Feature","geometry":{"type":"Point","coordinates":[-0.0550325,51.6820364]},"properties":{"name":"Zoo","layer":"zoos","note":"OpenStreetMap","osm_id":"way/974444178","osm_url":"https://www.openstreetmap.org/way/974444178","source":"OpenStreetMap"}},{"type":"Feature","geometry":{"type":"Point","coordinates":[1.3870461,52.352636]},"properties":{"name":"Oasis Camel Park","layer":"zoos","note":"OpenStreetMap","osm_id":"way/980706066","osm_url":"https://www.openstreetmap.org/way/980706066","source":"OpenStreetMap"}},{"type":"Feature","geometry":{"type":"Point","coordinates":[-0.5410002,51.8475889]},"properties":{"name":"Hullabazoo Farm","layer":"zoos","note":"OpenStreetMap","osm_id":"way/986930123","osm_url":"https://www.openstreetmap.org/way/986930123","source":"OpenStreetMap"}}]}
